{"type": "FeatureCollection", "slug": "rengo", "nombre": "Rengo", "usos": {"T": "Total", "H": "Habitacional", "C": "Comercio", "E": "Educación", "S": "Salud", "O": "Oficina", "I": "Industria"}, "anios": [2024, 2030, 2035], "anios_hist": [2013, 2014, 2015, 2016, 2017, 2018, 2019, 2020, 2021, 2022, 2023, 2024], "features": [{"type": "Feature", "geometry": {"type": "Polygon", "coordinates": [[[-70.92270133199992, -34.32271562699992], [-70.92645710999994, -34.321697969999946], [-70.92682776999993, -34.322449957999936], [-70.92523450099992, -34.322870424999905], [-70.92369930699994, -34.32381556699994], [-70.92372823399995, -34.32400997599996], [-70.92332965799994, -34.32401090999991], [-70.92199551899995, -34.32436754399993], [-70.8572020229999, -34.342453958999954], [-70.85634864399992, -34.34031419999991], [-70.8650599369999, -34.33790048199995], [-70.86401294399991, -34.335676934999924], [-70.8680975819999, -34.33444793299992], [-70.86974990199991, -34.33802603399994], [-70.87858286999995, -34.33557796699995], [-70.87889924799993, -34.33568606999995], [-70.89494523499991, -34.33127755399994], [-70.89512304699991, -34.33114388999991], [-70.89242546999992, -34.32743143099992], [-70.89392102999994, -34.32689669399991], [-70.89512922199992, -34.328553263999936], [-70.9091074509999, -34.324640503999944], [-70.91070977099992, -34.32677675699995], [-70.91389358099991, -34.32568676299991], [-70.91376096199991, -34.32536594699991], [-70.9177919949999, -34.32424423099991], [-70.91760987599991, -34.323976803999926], [-70.91927708499992, -34.32353718099995], [-70.9194538829999, -34.32359502599991], [-70.92261566899992, -34.322600604999934], [-70.92270133199992, -34.32271562699992]]]}, "properties": {"zona": "611509001", "comuna": "Rengo", "H": [27158, 789, [19777, 20347, 20871, 21485, 21884, 22157, 22996, 23899, 24793, 25763, 26521, 27158]], "C": [959, 115, [466, 466, 466, 466, 466, 466, 466, 466, 466, 466, 685, 959]], "E": [2361, 0, [2055, 2055, 2361, 2361, 2361, 2361, 2361, 2361, 2361, 2361, 2361, 2361]], "S": [0, 0, [0, 0, 0, 0, 0, 0, 0, 0, 0, 0, 0, 0]], "O": [0, 0, [0, 0, 0, 0, 0, 0, 0, 0, 0, 0, 0, 0]], "I": [702, 67, [60, 60, 60, 60, 389, 389, 389, 389, 389, 389, 702, 702]], "T": [31180, 971, [22358, 22928, 23758, 24372, 25100, 25373, 26212, 27115, 28009, 28979, 30269, 31180]]}}, {"type": "Feature", "geometry": {"type": "Polygon", "coordinates": [[[-70.83133984599993, -34.336378580999906], [-70.83101504899992, -34.335677320999935], [-70.83472718899992, -34.334897791999936], [-70.83534848699992, -34.33675814199995], [-70.83595286699995, -34.3378771159999], [-70.84726978599991, -34.35761590799996], [-70.83775752899993, -34.35975330699995], [-70.83725322299995, -34.360377901999925], [-70.83701959799993, -34.36090662099991], [-70.83746797299995, -34.36254390699992], [-70.83667309099991, -34.3625611139999], [-70.83371412799994, -34.36198269099992], [-70.83368785099992, -34.361895330999914], [-70.83357434299995, -34.36075211199994], [-70.8337445539999, -34.359993266999936], [-70.83405978699994, -34.35921109599991], [-70.8353164479999, -34.35764469199995], [-70.8341745269999, -34.35427372899994], [-70.8350299999999, -34.35404909199991], [-70.83374964699993, -34.35001534799994], [-70.8351115769999, -34.34985045099995], [-70.83432675999995, -34.34743249899992], [-70.83550981799993, -34.34725415299994], [-70.83208212399995, -34.336813554999935], [-70.83182067099995, -34.3368683729999], [-70.83162732399995, -34.336781672999905], [-70.83147614199993, -34.33638374299994], [-70.83133984599993, -34.336378580999906]]]}, "properties": {"zona": "611508001", "comuna": "Rengo", "H": [97185, 588, [77250, 77953, 78834, 79944, 80638, 82058, 82999, 95005, 95802, 96290, 96790, 97185]], "C": [16022, 33, [7719, 7719, 8562, 13764, 15868, 15868, 15868, 15868, 15868, 15868, 16022, 16022]], "E": [7388, 0, [4557, 4557, 4557, 4557, 7388, 7388, 7388, 7388, 7388, 7388, 7388, 7388]], "S": [1504, 0, [862, 862, 1504, 1504, 1504, 1504, 1504, 1504, 1504, 1504, 1504, 1504]], "O": [780, 0, [780, 780, 780, 780, 780, 780, 780, 780, 780, 780, 780, 780]], "I": [21765, 1576, [15462, 15462, 15462, 15462, 15462, 15462, 15462, 15462, 15462, 15462, 15462, 21765]], "T": [144644, 2197, [106630, 107333, 109699, 116011, 121640, 123060, 124001, 136007, 136804, 137292, 137946, 144644]]}}, {"type": "Feature", "geometry": {"type": "Polygon", "coordinates": [[[-70.85830466099992, -34.34404923099993], [-70.85757415299992, -34.34235066699995], [-70.86538542399995, -34.34018592299992], [-70.8663020159999, -34.34183349999995], [-70.85830466099992, -34.34404923099993]]]}, "properties": {"zona": "611510001", "comuna": "Rengo", "H": [161, 0, [161, 161, 161, 161, 161, 161, 161, 161, 161, 161, 161, 161]], "C": [423, 0, [0, 0, 0, 0, 423, 423, 423, 423, 423, 423, 423, 423]], "E": [0, 0, [0, 0, 0, 0, 0, 0, 0, 0, 0, 0, 0, 0]], "S": [0, 0, [0, 0, 0, 0, 0, 0, 0, 0, 0, 0, 0, 0]], "O": [0, 0, [0, 0, 0, 0, 0, 0, 0, 0, 0, 0, 0, 0]], "I": [1009, 0, [1009, 1009, 1009, 1009, 1009, 1009, 1009, 1009, 1009, 1009, 1009, 1009]], "T": [1593, 0, [1170, 1170, 1170, 1170, 1593, 1593, 1593, 1593, 1593, 1593, 1593, 1593]]}}, {"type": "Feature", "geometry": {"type": "Polygon", "coordinates": [[[-70.84649367199995, -34.378481880999914], [-70.84715717799992, -34.37854168599995], [-70.84885773999991, -34.3789817249999], [-70.85163725199993, -34.37893125799991], [-70.85263367199991, -34.37904097599994], [-70.85353888599991, -34.37888739199991], [-70.85460213699992, -34.38127947899994], [-70.85417128699993, -34.38186327099993], [-70.8533407189999, -34.38257464599991], [-70.85302112699992, -34.38309343599991], [-70.85226058299992, -34.38317131999992], [-70.8547839339999, -34.389116551999905], [-70.85320612099991, -34.39023081199991], [-70.8533240509999, -34.390487255999915], [-70.85232700199992, -34.39086275899996], [-70.84894552499992, -34.391301632999955], [-70.84932576699993, -34.39219303999994], [-70.84808511599994, -34.39256343999995], [-70.84775434399995, -34.39287049399991], [-70.84841861199993, -34.393474978999905], [-70.8472394389999, -34.394033143999934], [-70.84372731499991, -34.39500414799994], [-70.84326618099993, -34.39374837999992], [-70.84310713499991, -34.392623338999954], [-70.84406724699994, -34.39258760999991], [-70.84395777999993, -34.392312612999945], [-70.84404374899992, -34.39221769699992], [-70.84619843199994, -34.391545788999906], [-70.84578633699994, -34.39067181999991], [-70.84525331999993, -34.39076715199991], [-70.84516333699992, -34.3905027909999], [-70.8457650439999, -34.39037451799993], [-70.84580215999995, -34.3890987929999], [-70.84512362299995, -34.389189512999906], [-70.84485997199994, -34.38824156399994], [-70.84563030899994, -34.38813298899993], [-70.84554949799991, -34.38769180599991], [-70.84527643699994, -34.387764052999955], [-70.84503811199994, -34.38745890799993], [-70.84548076699991, -34.38731657699992], [-70.84512413499993, -34.38520311299993], [-70.8444191399999, -34.383918158999904], [-70.84441891199992, -34.38331802599993], [-70.84339223199993, -34.38167472999993], [-70.84312703599994, -34.38147650199994], [-70.84473112099994, -34.379837481999914], [-70.84535688699992, -34.37899864499991], [-70.84523742699992, -34.37876009699994], [-70.84649367199995, -34.378481880999914]]]}, "properties": {"zona": "611504001", "comuna": "Rengo", "H": [78566, 870, [50875, 55700, 56932, 57642, 58327, 60387, 73599, 75567, 77221, 77639, 78187, 78566]], "C": [2049, 33, [1442, 1442, 1442, 1442, 1442, 1895, 1969, 1969, 2049, 2049, 2049, 2049]], "E": [4078, 60, [3239, 3239, 3239, 3239, 3239, 3239, 4078, 4078, 4078, 4078, 4078, 4078]], "S": [0, 0, [0, 0, 0, 0, 0, 0, 0, 0, 0, 0, 0, 0]], "O": [858, 101, [150, 150, 150, 150, 150, 150, 150, 150, 858, 858, 858, 858]], "I": [0, 0, [0, 0, 0, 0, 0, 0, 0, 0, 0, 0, 0, 0]], "T": [85551, 1064, [55706, 60531, 61763, 62473, 63158, 65671, 79796, 81764, 84206, 84624, 85172, 85551]]}}, {"type": "Feature", "geometry": {"type": "Polygon", "coordinates": [[[-70.84932576699993, -34.39219303999994], [-70.84894552499992, -34.391301632999955], [-70.85210155899995, -34.3909202719999], [-70.8533240509999, -34.390487255999915], [-70.85320612099991, -34.39023081199991], [-70.8547839339999, -34.389116551999905], [-70.85591773899995, -34.39173342999993], [-70.85882412599994, -34.390779376999944], [-70.86071420499991, -34.39502585699995], [-70.85782270899995, -34.39563745799995], [-70.8579913069999, -34.39603737999994], [-70.85590994899991, -34.39631759999992], [-70.85606228599994, -34.39668947799993], [-70.85386095199993, -34.39741263499991], [-70.85215330299991, -34.39828155899994], [-70.85147624099994, -34.39717374999992], [-70.8485947559999, -34.397910226999954], [-70.84788383699993, -34.39799660399996], [-70.8448818569999, -34.39899011399996], [-70.84481784199994, -34.39807439999993], [-70.84372731499991, -34.39500414799994], [-70.8472394389999, -34.394033143999934], [-70.84841861199993, -34.393474978999905], [-70.84775434399995, -34.39287049399991], [-70.84808511599994, -34.39256343999995], [-70.84932576699993, -34.39219303999994]]]}, "properties": {"zona": "611504005", "comuna": "Rengo", "H": [129939, 4900, [66413, 66846, 68129, 68964, 69439, 70293, 82031, 93718, 95376, 96100, 124488, 129939]], "C": [3248, 156, [2101, 2101, 2101, 2373, 2373, 2373, 2542, 2608, 2608, 2608, 3248, 3248]], "E": [0, 0, [0, 0, 0, 0, 0, 0, 0, 0, 0, 0, 0, 0]], "S": [2911, 93, [0, 0, 298, 298, 298, 2911, 2911, 2911, 2911, 2911, 2911, 2911]], "O": [87, 0, [87, 87, 87, 87, 87, 87, 87, 87, 87, 87, 87, 87]], "I": [95, 0, [95, 95, 95, 95, 95, 95, 95, 95, 95, 95, 95, 95]], "T": [136280, 5149, [68696, 69129, 70710, 71817, 72292, 75759, 87666, 99419, 101077, 101801, 130829, 136280]]}}, {"type": "Feature", "geometry": {"type": "Polygon", "coordinates": [[[-70.86412061399994, -34.39641175399993], [-70.86743046899994, -34.39570945199995], [-70.8677418929999, -34.395880520999924], [-70.86853660699995, -34.39562042599994], [-70.86881572099992, -34.395782968999924], [-70.86911015699991, -34.395681150999906], [-70.8700492879999, -34.39731044999991], [-70.86548221999993, -34.39827284499995], [-70.86226490999991, -34.39854450599995], [-70.86060297799992, -34.39477648299993], [-70.86237939499995, -34.39426141699994], [-70.8630396179999, -34.39446723799995], [-70.86412061399994, -34.39641175399993]]]}, "properties": {"zona": "611501001", "comuna": "Rengo", "H": [31846, 73, [5877, 5877, 5877, 5991, 19288, 31514, 31514, 31514, 31514, 31651, 31722, 31846]], "C": [148, 8, [0, 0, 0, 0, 0, 74, 148, 148, 148, 148, 148, 148]], "E": [0, 0, [0, 0, 0, 0, 0, 0, 0, 0, 0, 0, 0, 0]], "S": [0, 0, [0, 0, 0, 0, 0, 0, 0, 0, 0, 0, 0, 0]], "O": [3175, 0, [3175, 3175, 3175, 3175, 3175, 3175, 3175, 3175, 3175, 3175, 3175, 3175]], "I": [952, 0, [952, 952, 952, 952, 952, 952, 952, 952, 952, 952, 952, 952]], "T": [36121, 81, [10004, 10004, 10004, 10118, 23415, 35715, 35789, 35789, 35789, 35926, 35997, 36121]]}}, {"type": "Feature", "geometry": {"type": "Polygon", "coordinates": [[[-70.85686394299995, -34.40344878099995], [-70.85579470399995, -34.40268958199994], [-70.85506685099995, -34.40190265499996], [-70.85294593599991, -34.39941917199991], [-70.85215330299991, -34.39828155899994], [-70.85386095199993, -34.39741263499991], [-70.85606228599994, -34.39668947799993], [-70.85590994899991, -34.39631759999992], [-70.8579913069999, -34.39603737999994], [-70.85782270899995, -34.39563745799995], [-70.86071420499991, -34.39502585699995], [-70.86405575299995, -34.402593091999904], [-70.85846915499991, -34.40312922499993], [-70.85686394299995, -34.40344878099995]]]}, "properties": {"zona": "611504003", "comuna": "Rengo", "H": [92113, 1084, [69775, 70126, 70267, 76791, 77073, 82842, 88510, 89066, 89898, 90778, 91594, 92113]], "C": [6432, 67, [5178, 5178, 5178, 5471, 5855, 5901, 5940, 5940, 6192, 6192, 6395, 6432]], "E": [8171, 0, [5484, 5484, 5853, 5853, 8171, 8171, 8171, 8171, 8171, 8171, 8171, 8171]], "S": [0, 0, [0, 0, 0, 0, 0, 0, 0, 0, 0, 0, 0, 0]], "O": [631, 0, [53, 53, 53, 631, 631, 631, 631, 631, 631, 631, 631, 631]], "I": [329, 0, [329, 329, 329, 329, 329, 329, 329, 329, 329, 329, 329, 329]], "T": [107676, 1151, [80819, 81170, 81680, 89075, 92059, 97874, 103581, 104137, 105221, 106101, 107120, 107676]]}}, {"type": "Feature", "geometry": {"type": "Polygon", "coordinates": [[[-70.85250659299993, -34.40759938299993], [-70.85001796099993, -34.404954613999905], [-70.84717579199992, -34.40279751999992], [-70.84791917099994, -34.40262399099993], [-70.85312998799992, -34.39964179799995], [-70.85579470399995, -34.40268958199994], [-70.85693932099991, -34.403506243999914], [-70.8583774089999, -34.40512541999993], [-70.85661936499991, -34.406180014999904], [-70.85525221799992, -34.40663355899994], [-70.85534877999993, -34.40698824999993], [-70.85250659299993, -34.40759938299993]]]}, "properties": {"zona": "611504007", "comuna": "Rengo", "H": [79054, 633, [72764, 73139, 73816, 74318, 75130, 75445, 76004, 76166, 76488, 77957, 78476, 79054]], "C": [7512, 91, [6995, 6995, 6995, 6995, 6995, 7175, 7175, 7175, 7175, 7175, 7175, 7512]], "E": [5432, 41, [5052, 5052, 5052, 5052, 5052, 5052, 5052, 5432, 5432, 5432, 5432, 5432]], "S": [354, 25, [0, 0, 0, 0, 0, 0, 354, 354, 354, 354, 354, 354]], "O": [168, 0, [168, 168, 168, 168, 168, 168, 168, 168, 168, 168, 168, 168]], "I": [731, 0, [731, 731, 731, 731, 731, 731, 731, 731, 731, 731, 731, 731]], "T": [93251, 790, [85710, 86085, 86762, 87264, 88076, 88571, 89484, 90026, 90348, 91817, 92336, 93251]]}}, {"type": "Feature", "geometry": {"type": "Polygon", "coordinates": [[[-70.87324894699992, -34.41496183999993], [-70.86597127699991, -34.40606022299994], [-70.86452046399995, -34.40362983999995], [-70.86226490999991, -34.39854450599995], [-70.86548221999993, -34.39827284499995], [-70.8700492879999, -34.39731044999991], [-70.87925007899992, -34.41330923499993], [-70.87755827799992, -34.41402860099993], [-70.87626744799991, -34.414772214999914], [-70.87324894699992, -34.41496183999993]]]}, "properties": {"zona": "611502001", "comuna": "Rengo", "H": [175558, 15911, [43716, 44027, 54085, 62248, 62356, 72491, 81812, 106485, 129921, 158259, 172060, 175558]], "C": [8709, 313, [6623, 6643, 6643, 6803, 6803, 6803, 7169, 7294, 7790, 7864, 8483, 8709]], "E": [8406, 938, [3499, 3499, 3499, 3499, 3499, 3499, 3499, 4561, 4561, 4561, 8406, 8406]], "S": [0, 0, [0, 0, 0, 0, 0, 0, 0, 0, 0, 0, 0, 0]], "O": [466, 0, [466, 466, 466, 466, 466, 466, 466, 466, 466, 466, 466, 466]], "I": [5387, 7, [1702, 1702, 5187, 5187, 5187, 5387, 5387, 5387, 5387, 5387, 5387, 5387]], "T": [198526, 17169, [56006, 56337, 69880, 78203, 78311, 88646, 98333, 124193, 148125, 176537, 194802, 198526]]}}, {"type": "Feature", "geometry": {"type": "Polygon", "coordinates": [[[-70.83610760899995, -34.40472401899996], [-70.8353538309999, -34.403468355999905], [-70.84244066299993, -34.40231442399994], [-70.84365395299994, -34.40230064799994], [-70.84546385599992, -34.402674590999936], [-70.84717579199992, -34.40279751999992], [-70.85001796099993, -34.404954613999905], [-70.85246631799993, -34.407545892999906], [-70.85311471999995, -34.40861355299995], [-70.85356155099993, -34.41032895099994], [-70.85189823899992, -34.41018283699992], [-70.8415466539999, -34.40864403499995], [-70.83986032999991, -34.409242408999944], [-70.83680403599993, -34.40441438699992], [-70.83610760899995, -34.40472401899996]]]}, "properties": {"zona": "611504006", "comuna": "Rengo", "H": [76843, 677, [66519, 67010, 67938, 72002, 72821, 73145, 73472, 73940, 74670, 74936, 75957, 76843]], "C": [2849, 0, [1177, 1177, 2849, 2849, 2849, 2849, 2849, 2849, 2849, 2849, 2849, 2849]], "E": [841, 0, [841, 841, 841, 841, 841, 841, 841, 841, 841, 841, 841, 841]], "S": [5663, 202, [0, 0, 0, 0, 0, 5663, 5663, 5663, 5663, 5663, 5663, 5663]], "O": [447, 12, [100, 100, 100, 100, 100, 447, 447, 447, 447, 447, 447, 447]], "I": [15290, 0, [15290, 15290, 15290, 15290, 15290, 15290, 15290, 15290, 15290, 15290, 15290, 15290]], "T": [101933, 891, [83927, 84418, 87018, 91082, 91901, 98235, 98562, 99030, 99760, 100026, 101047, 101933]]}}, {"type": "Feature", "geometry": {"type": "Polygon", "coordinates": [[[-70.8669043459999, -34.42217662099995], [-70.86456574399995, -34.416360555999916], [-70.86316215799991, -34.41238760899995], [-70.86241200099994, -34.41119983099992], [-70.86102972899994, -34.40937698399995], [-70.85940753799991, -34.40640364399991], [-70.85887714199993, -34.405663328999935], [-70.85691361999994, -34.40348665099992], [-70.85778203799993, -34.40321125199995], [-70.86405575299995, -34.402593091999904], [-70.86497693299992, -34.404483962999905], [-70.86597127699991, -34.40606022299994], [-70.87374579099992, -34.415569037999944], [-70.87098964199993, -34.41597129999991], [-70.87109602499993, -34.41611035799991], [-70.86819505099993, -34.41643742799994], [-70.86783072599991, -34.416771421999954], [-70.8654974339999, -34.417050531999905], [-70.86655237499991, -34.41962356699992], [-70.86750970299994, -34.41937375099991], [-70.86794288399994, -34.42042531799996], [-70.86872453699993, -34.42029247499994], [-70.87082366699991, -34.42390673099993], [-70.87242793299993, -34.42384629599991], [-70.8730634499999, -34.425625614999944], [-70.86900711699991, -34.425778462999915], [-70.86927778499995, -34.426357364999944], [-70.86815453699995, -34.42650768699991], [-70.86822672699992, -34.42520401799993], [-70.86804890999991, -34.42431860399995], [-70.8669043459999, -34.42217662099995]]]}, "properties": {"zona": "611502002", "comuna": "Rengo", "H": [110906, 4689, [52093, 59187, 63614, 66865, 73785, 82913, 90164, 92052, 97676, 101514, 106944, 110906]], "C": [57005, 1609, [41159, 42278, 42873, 43171, 43171, 44081, 44143, 47635, 51923, 55928, 56381, 57005]], "E": [7043, 0, [7043, 7043, 7043, 7043, 7043, 7043, 7043, 7043, 7043, 7043, 7043, 7043]], "S": [325, 0, [325, 325, 325, 325, 325, 325, 325, 325, 325, 325, 325, 325]], "O": [11549, 0, [10526, 10526, 11214, 11549, 11549, 11549, 11549, 11549, 11549, 11549, 11549, 11549]], "I": [46924, 0, [46475, 46475, 46924, 46924, 46924, 46924, 46924, 46924, 46924, 46924, 46924, 46924]], "T": [233752, 6298, [157621, 165834, 171993, 175877, 182797, 192835, 200148, 205528, 215440, 223283, 229166, 233752]]}}, {"type": "Feature", "geometry": {"type": "Polygon", "coordinates": [[[-70.8535462239999, -34.41026606799994], [-70.85311471999995, -34.40861355299995], [-70.8525168459999, -34.40761725999994], [-70.85534877999993, -34.40698824999993], [-70.85525221799992, -34.40663355899994], [-70.85661936499991, -34.406180014999904], [-70.8583774089999, -34.40512541999993], [-70.85947949899992, -34.40650624099993], [-70.86102972899994, -34.40937698399995], [-70.86241200099994, -34.41119983099992], [-70.86316215799991, -34.41238760899995], [-70.8638993909999, -34.414432151999904], [-70.85951599599991, -34.413714445999915], [-70.85701194799992, -34.41355864199994], [-70.8546455849999, -34.41309413499994], [-70.85466832499992, -34.413215513999944], [-70.8529561549999, -34.41287629899995], [-70.84990841799993, -34.41259333599993], [-70.84835979299993, -34.41017060999991], [-70.84758304999991, -34.40952227099996], [-70.85189823899992, -34.41018283699992], [-70.8535462239999, -34.41026606799994]]]}, "properties": {"zona": "611504002", "comuna": "Rengo", "H": [109764, 1366, [97672, 98399, 98955, 99345, 99856, 100419, 101226, 104432, 104609, 105450, 108593, 109764]], "C": [60069, 271, [33836, 34546, 37744, 44984, 57807, 57807, 57940, 58045, 58371, 59374, 59892, 60069]], "E": [9214, 0, [3580, 3580, 3580, 9214, 9214, 9214, 9214, 9214, 9214, 9214, 9214, 9214]], "S": [3608, 0, [3608, 3608, 3608, 3608, 3608, 3608, 3608, 3608, 3608, 3608, 3608, 3608]], "O": [8956, 87, [7984, 7984, 8495, 8495, 8495, 8495, 8495, 8608, 8608, 8608, 8956, 8956]], "I": [799, 0, [799, 799, 799, 799, 799, 799, 799, 799, 799, 799, 799, 799]], "T": [192410, 1724, [147479, 148916, 153181, 166445, 179779, 180342, 181282, 184706, 185209, 187053, 191062, 192410]]}}, {"type": "Feature", "geometry": {"type": "Polygon", "coordinates": [[[-70.84141354099995, -34.40868210599996], [-70.84269939199993, -34.40874839399993], [-70.84758304999991, -34.40952227099996], [-70.84835979299993, -34.41017060999991], [-70.8514508959999, -34.41519832999995], [-70.85393457899994, -34.41550783799994], [-70.85501555699994, -34.415513984999905], [-70.85490107899994, -34.41698091799992], [-70.85515719999995, -34.41779066899994], [-70.8542660459999, -34.41778393199991], [-70.85409095599994, -34.416731170999924], [-70.8535452449999, -34.41678715699993], [-70.85355966899994, -34.416658113999915], [-70.85134956499991, -34.416429174999905], [-70.85109794999994, -34.417585061999944], [-70.84962846699995, -34.41745603499993], [-70.84979049899994, -34.4162695519999], [-70.84947258699992, -34.41621233399991], [-70.84953428999995, -34.41494839399991], [-70.84517693599992, -34.414359944999944], [-70.84447086799992, -34.41437961199995], [-70.84375733999991, -34.41458316999996], [-70.8423922149999, -34.41233460399991], [-70.84186643599992, -34.41245490099993], [-70.8403506869999, -34.40937725899994], [-70.83904139099991, -34.40980680999991], [-70.83892334299992, -34.409573131999935], [-70.84141354099995, -34.40868210599996]]]}, "properties": {"zona": "611504008", "comuna": "Rengo", "H": [48771, 579, [41985, 42210, 43035, 43208, 43469, 45672, 46364, 46364, 46562, 47114, 48008, 48771]], "C": [951, 74, [654, 654, 654, 654, 654, 654, 654, 654, 654, 654, 654, 951]], "E": [18024, 0, [12074, 12074, 18024, 18024, 18024, 18024, 18024, 18024, 18024, 18024, 18024, 18024]], "S": [0, 0, [0, 0, 0, 0, 0, 0, 0, 0, 0, 0, 0, 0]], "O": [360, 0, [269, 269, 360, 360, 360, 360, 360, 360, 360, 360, 360, 360]], "I": [0, 0, [0, 0, 0, 0, 0, 0, 0, 0, 0, 0, 0, 0]], "T": [68106, 653, [54982, 55207, 62073, 62246, 62507, 64710, 65402, 65402, 65600, 66152, 67046, 68106]]}}, {"type": "Feature", "geometry": {"type": "Polygon", "coordinates": [[[-70.85027232099992, -34.413154411999926], [-70.84990841799993, -34.41259333599993], [-70.8529561549999, -34.41287629899995], [-70.85466832499992, -34.413215513999944], [-70.8546455849999, -34.41309413499994], [-70.85701194799992, -34.41355864199994], [-70.85951599599991, -34.413714445999915], [-70.8638993909999, -34.414432151999904], [-70.86458991699993, -34.41642330299993], [-70.8667791069999, -34.42188098699995], [-70.86804890999991, -34.42431860399995], [-70.86822672699992, -34.42520401799993], [-70.86815069099993, -34.426737992999904], [-70.86832810199991, -34.42717709199991], [-70.86703894499993, -34.42766531099994], [-70.86670709899994, -34.42704919999994], [-70.86675767499992, -34.42655793299991], [-70.86737973599992, -34.42635733299994], [-70.86706710599992, -34.4257808399999], [-70.86641847299995, -34.425045447999935], [-70.86614610299995, -34.424982719999946], [-70.8659941649999, -34.42468810199995], [-70.8672260049999, -34.42439123399993], [-70.86598517099992, -34.42146094399993], [-70.86533513699993, -34.42143901199995], [-70.86491673899991, -34.420338596999954], [-70.86545569799995, -34.42037815099991], [-70.86430244299993, -34.41736647099992], [-70.85491006399991, -34.41706001599994], [-70.85501555699994, -34.415513984999905], [-70.85393457899994, -34.41550783799994], [-70.8514508959999, -34.41519832999995], [-70.8503238909999, -34.413451521999946], [-70.85027232099992, -34.413154411999926]]]}, "properties": {"zona": "611504004", "comuna": "Rengo", "H": [71865, 533, [66867, 67203, 67795, 68095, 68397, 68428, 68660, 68956, 68956, 69503, 70777, 71865]], "C": [1893, 19, [1805, 1805, 1805, 1805, 1805, 1805, 1805, 1805, 1805, 1805, 1893, 1893]], "E": [1251, 0, [1251, 1251, 1251, 1251, 1251, 1251, 1251, 1251, 1251, 1251, 1251, 1251]], "S": [0, 0, [0, 0, 0, 0, 0, 0, 0, 0, 0, 0, 0, 0]], "O": [184, 0, [184, 184, 184, 184, 184, 184, 184, 184, 184, 184, 184, 184]], "I": [4978, 0, [4978, 4978, 4978, 4978, 4978, 4978, 4978, 4978, 4978, 4978, 4978, 4978]], "T": [80171, 552, [75085, 75421, 76013, 76313, 76615, 76646, 76878, 77174, 77174, 77721, 79083, 80171]]}}, {"type": "Feature", "geometry": {"type": "Polygon", "coordinates": [[[-70.86538542399995, -34.34018592299992], [-70.92332965799994, -34.32401090999991], [-70.92390783199994, -34.32407549499993], [-70.92453793699991, -34.32466788599993], [-70.91913847199993, -34.326120601999946], [-70.91969487499995, -34.326916156999914], [-70.9170759719999, -34.32765077399995], [-70.9188281189999, -34.33057500499996], [-70.91684798299991, -34.33132088299993], [-70.91499730099991, -34.32823211099992], [-70.90474948299993, -34.33108210599994], [-70.90504246499995, -34.33151836299993], [-70.8985491649999, -34.333391943999914], [-70.9023433829999, -34.33849592099995], [-70.90083138999995, -34.339037757999904], [-70.90162296999995, -34.340102259999924], [-70.90017014099993, -34.34072321699995], [-70.8996600179999, -34.34003854899993], [-70.89688797499991, -34.34111158399992], [-70.89178433899991, -34.33474124199995], [-70.8663020159999, -34.34183349999995], [-70.86538542399995, -34.34018592299992]]]}, "properties": {"zona": "611511001", "comuna": "Rengo", "H": [33011, 870, [21434, 22505, 24194, 26423, 27245, 27658, 28575, 29112, 30339, 31387, 32401, 33011]], "C": [2499, 10, [1541, 1541, 1541, 1541, 2221, 2499, 2499, 2499, 2499, 2499, 2499, 2499]], "E": [1952, 0, [1952, 1952, 1952, 1952, 1952, 1952, 1952, 1952, 1952, 1952, 1952, 1952]], "S": [187, 0, [0, 0, 0, 187, 187, 187, 187, 187, 187, 187, 187, 187]], "O": [0, 0, [0, 0, 0, 0, 0, 0, 0, 0, 0, 0, 0, 0]], "I": [790, 95, [257, 257, 257, 257, 257, 257, 257, 257, 257, 790, 790, 790]], "T": [38439, 975, [25184, 26255, 27944, 30360, 31862, 32553, 33470, 34007, 35234, 36815, 37829, 38439]]}}, {"type": "Feature", "geometry": {"type": "Polygon", "coordinates": [[[-70.84801042999993, -34.39800791899995], [-70.85147624099994, -34.39717374999992], [-70.85312998799992, -34.39964179799995], [-70.84791917099994, -34.40262399099993], [-70.84741313499995, -34.40278491899994], [-70.84558353299991, -34.40269081799994], [-70.84399069299991, -34.40234065399994], [-70.84300928499994, -34.40227880599991], [-70.8353617269999, -34.403466790999914], [-70.83415018799991, -34.403773164999905], [-70.83390699499995, -34.40331155799993], [-70.83529663799993, -34.402701892999914], [-70.83472583199995, -34.40192330499991], [-70.8361924049999, -34.40148418599995], [-70.83683263199993, -34.40276975699993], [-70.84166788099992, -34.40198948299991], [-70.84033741999991, -34.399827596999955], [-70.8448818569999, -34.39899011399996], [-70.84801042999993, -34.39800791899995]]]}, "properties": {"zona": "611504009", "comuna": "Rengo", "H": [87338, 331, [82742, 82835, 83040, 84317, 84317, 84482, 84670, 84834, 85362, 86594, 87338, 87338]], "C": [2088, 192, [300, 300, 300, 300, 300, 300, 300, 2088, 2088, 2088, 2088, 2088]], "E": [2060, 30, [0, 0, 0, 0, 1209, 2060, 2060, 2060, 2060, 2060, 2060, 2060]], "S": [0, 0, [0, 0, 0, 0, 0, 0, 0, 0, 0, 0, 0, 0]], "O": [0, 0, [0, 0, 0, 0, 0, 0, 0, 0, 0, 0, 0, 0]], "I": [0, 0, [0, 0, 0, 0, 0, 0, 0, 0, 0, 0, 0, 0]], "T": [91486, 553, [83042, 83135, 83340, 84617, 85826, 86842, 87030, 88982, 89510, 90742, 91486, 91486]]}}]}