{"type": "FeatureCollection", "slug": "coyhaique", "nombre": "Coyhaique", "usos": {"T": "Total", "H": "Habitacional", "C": "Comercio", "E": "Educación", "S": "Salud", "O": "Oficina", "I": "Industria"}, "anios": [2024, 2030, 2035], "anios_hist": [2013, 2014, 2015, 2016, 2017, 2018, 2019, 2020, 2021, 2022, 2023, 2024], "features": [{"type": "Feature", "geometry": {"type": "Polygon", "coordinates": [[[-72.06373970899995, -45.565607041999954], [-72.06397286599992, -45.56547817799992], [-72.06350409499993, -45.56435896399995], [-72.06521093099991, -45.562661120999906], [-72.0655697979999, -45.561747719999914], [-72.06559752999993, -45.56130737099994], [-72.06532522999993, -45.560503757999925], [-72.06519913999995, -45.55925834199991], [-72.06543565399994, -45.55899607799995], [-72.06604093999994, -45.5587180359999], [-72.06656765299994, -45.558262878999926], [-72.06694269299993, -45.55747590499993], [-72.0668961419999, -45.55670510099992], [-72.06702683399993, -45.556528433999915], [-72.06727642399994, -45.55634167399995], [-72.06804872799995, -45.5560832459999], [-72.06889877399993, -45.55531458999991], [-72.06933130599992, -45.55573700899993], [-72.07021330299995, -45.5560386919999], [-72.07177662399994, -45.55740649699993], [-72.07303034599994, -45.559216403999926], [-72.07425175499992, -45.562420662999955], [-72.07742815599994, -45.570027087999904], [-72.07717904399993, -45.56990369399995], [-72.0767174259999, -45.56909076099993], [-72.07652941299995, -45.56900943499994], [-72.07342715099992, -45.56930348399993], [-72.06471787499993, -45.5679546799999], [-72.06478751299994, -45.567740440999955], [-72.06258236899993, -45.56741606299994], [-72.06229623699994, -45.56726228999992], [-72.06154449199994, -45.56636531699991], [-72.0614848109999, -45.56608924199992], [-72.06160700999993, -45.565748964999955], [-72.06245640299994, -45.565408616999946], [-72.06326419899995, -45.56540846799993], [-72.06373970899995, -45.565607041999954]]]}, "properties": {"zona": "1110101002", "comuna": "Coyhaique", "H": [45833, 335, [41977, 42082, 42082, 43047, 43209, 43785, 44107, 44712, 44842, 45065, 45725, 45833]], "C": [9081, 80, [5799, 5799, 6674, 7051, 7051, 7258, 7258, 7680, 9007, 9007, 9081, 9081]], "E": [8598, 0, [8430, 8430, 8598, 8598, 8598, 8598, 8598, 8598, 8598, 8598, 8598, 8598]], "S": [20495, 3346, [1759, 1759, 1759, 1759, 1759, 1759, 1759, 1759, 1759, 20495, 20495, 20495]], "O": [10987, 618, [5508, 5508, 5508, 5508, 5508, 5508, 5508, 10560, 10560, 10987, 10987, 10987]], "I": [113, 0, [113, 113, 113, 113, 113, 113, 113, 113, 113, 113, 113, 113]], "T": [95107, 4379, [63586, 63691, 64734, 66076, 66238, 67021, 67343, 73422, 74879, 94265, 94999, 95107]]}}, {"type": "Feature", "geometry": {"type": "Polygon", "coordinates": [[[-72.06102589999995, -45.56906576699993], [-72.06245152499991, -45.569006678999926], [-72.06277440899993, -45.568719297999905], [-72.06277934399992, -45.56814334499995], [-72.06237765899994, -45.56758843099993], [-72.06258236899993, -45.56741606299994], [-72.06478751299994, -45.567740440999955], [-72.06399438799991, -45.57026289499993], [-72.0639831119999, -45.57058664999994], [-72.06332455199993, -45.57091175499994], [-72.06512292499991, -45.5739059199999], [-72.05517232699992, -45.576845060999915], [-72.05317939999992, -45.57364318799995], [-72.05475607599993, -45.573332835999906], [-72.05756537899993, -45.57247366599995], [-72.05631301299991, -45.57059611799991], [-72.05581394699993, -45.57044372599995], [-72.05538078699993, -45.56984296999991], [-72.05491316699994, -45.56983990599991], [-72.05454006899993, -45.569515234999926], [-72.0544615629999, -45.568811110999945], [-72.05378476699991, -45.56814185899992], [-72.0547766439999, -45.567595673999904], [-72.05558158799994, -45.56764330599992], [-72.0558916949999, -45.567970686999956], [-72.05611728399992, -45.568862829999944], [-72.05651349899995, -45.569487060999904], [-72.05734146999993, -45.56976913799991], [-72.05960601999993, -45.569505586999924], [-72.06102589999995, -45.56906576699993]]]}, "properties": {"zona": "1110101006", "comuna": "Coyhaique", "H": [50217, 379, [44850, 45621, 45936, 46528, 46951, 47442, 48224, 49083, 49512, 49648, 50041, 50217]], "C": [14144, 180, [11170, 12246, 12246, 13348, 13348, 13348, 13348, 13348, 13348, 13348, 13867, 14144]], "E": [7245, 0, [7245, 7245, 7245, 7245, 7245, 7245, 7245, 7245, 7245, 7245, 7245, 7245]], "S": [0, 0, [0, 0, 0, 0, 0, 0, 0, 0, 0, 0, 0, 0]], "O": [1930, 0, [1351, 1351, 1488, 1488, 1930, 1930, 1930, 1930, 1930, 1930, 1930, 1930]], "I": [443, 0, [443, 443, 443, 443, 443, 443, 443, 443, 443, 443, 443, 443]], "T": [73979, 559, [65059, 66906, 67358, 69052, 69917, 70408, 71190, 72049, 72478, 72614, 73526, 73979]]}}, {"type": "Feature", "geometry": {"type": "Polygon", "coordinates": [[[-72.0679538089999, -45.57306054999992], [-72.06512292499991, -45.5739059199999], [-72.06332455199993, -45.57091175499994], [-72.0639831119999, -45.57058664999994], [-72.06399438799991, -45.57026289499993], [-72.06471787499993, -45.5679546799999], [-72.0708119279999, -45.568903349999914], [-72.07052933099993, -45.56996274499994], [-72.06897097299992, -45.569724709999946], [-72.0686721969999, -45.570617161999905], [-72.06930096699995, -45.570709818999944], [-72.06943952799992, -45.57161800199992], [-72.07076878299995, -45.57216519499991], [-72.0693785549999, -45.57262007499992], [-72.06887763799995, -45.57177909799992], [-72.06825127999991, -45.571947535999925], [-72.0679538089999, -45.57306054999992]]]}, "properties": {"zona": "1110101001", "comuna": "Coyhaique", "H": [8928, 27, [8619, 8699, 8699, 8801, 8801, 8801, 8801, 8801, 8801, 8801, 8928, 8928]], "C": [39655, 137, [33847, 35584, 37714, 38115, 38115, 39101, 39101, 39355, 39355, 39355, 39355, 39655]], "E": [12434, 0, [12434, 12434, 12434, 12434, 12434, 12434, 12434, 12434, 12434, 12434, 12434, 12434]], "S": [2595, 0, [2595, 2595, 2595, 2595, 2595, 2595, 2595, 2595, 2595, 2595, 2595, 2595]], "O": [14257, 1, [13361, 13361, 13361, 13714, 14228, 14257, 14257, 14257, 14257, 14257, 14257, 14257]], "I": [1131, 0, [1131, 1131, 1131, 1131, 1131, 1131, 1131, 1131, 1131, 1131, 1131, 1131]], "T": [79000, 165, [71987, 73804, 75934, 76790, 77304, 78319, 78319, 78573, 78573, 78573, 78700, 79000]]}}, {"type": "Feature", "geometry": {"type": "Polygon", "coordinates": [[[-72.07383801899994, -45.571816364999904], [-72.07357376899995, -45.569302741999934], [-72.0737077949999, -45.56922066699991], [-72.07639902699992, -45.56900609499991], [-72.0767174259999, -45.56909076099993], [-72.07711284999993, -45.56982098799995], [-72.07742815599994, -45.570027087999904], [-72.07780166499992, -45.57107179499991], [-72.07821871099992, -45.574102387999915], [-72.07798391699993, -45.57458244499992], [-72.07694778399991, -45.57500597599994], [-72.07657244199993, -45.57544642499994], [-72.07598950699992, -45.575287472999946], [-72.07383801899994, -45.571816364999904]]]}, "properties": {"zona": "1110101004", "comuna": "Coyhaique", "H": [21484, 60, [19852, 20387, 20463, 20762, 20762, 21017, 21164, 21318, 21484, 21484, 21484, 21484]], "C": [12290, 2891, [602, 602, 602, 602, 726, 726, 726, 726, 726, 726, 726, 12290]], "E": [0, 0, [0, 0, 0, 0, 0, 0, 0, 0, 0, 0, 0, 0]], "S": [388, 0, [0, 0, 0, 0, 388, 388, 388, 388, 388, 388, 388, 388]], "O": [4968, 145, [3091, 3091, 3950, 3950, 3950, 3950, 3950, 3950, 4968, 4968, 4968, 4968]], "I": [575, 0, [575, 575, 575, 575, 575, 575, 575, 575, 575, 575, 575, 575]], "T": [39705, 3096, [24120, 24655, 25590, 25889, 26401, 26656, 26803, 26957, 28141, 28141, 28141, 39705]]}}, {"type": "Feature", "geometry": {"type": "Polygon", "coordinates": [[[-72.0708119279999, -45.568903349999914], [-72.0736325609999, -45.56935825799991], [-72.07358632799992, -45.56992415099995], [-72.07383801899994, -45.571816364999904], [-72.07598950699992, -45.575287472999946], [-72.07316738499992, -45.576164770999924], [-72.07077877599994, -45.57221945999993], [-72.07052608099991, -45.570102182999904], [-72.0708119279999, -45.568903349999914]]]}, "properties": {"zona": "1110101003", "comuna": "Coyhaique", "H": [16619, 122, [15071, 15158, 15158, 15312, 15550, 15967, 16087, 16087, 16087, 16217, 16619, 16619]], "C": [33175, 479, [26941, 27768, 28497, 29870, 30240, 30240, 31185, 31550, 31550, 31943, 32109, 33175]], "E": [6560, 0, [6560, 6560, 6560, 6560, 6560, 6560, 6560, 6560, 6560, 6560, 6560, 6560]], "S": [0, 0, [0, 0, 0, 0, 0, 0, 0, 0, 0, 0, 0, 0]], "O": [4692, 55, [3329, 3329, 4472, 4472, 4472, 4472, 4472, 4472, 4472, 4472, 4472, 4692]], "I": [486, 0, [486, 486, 486, 486, 486, 486, 486, 486, 486, 486, 486, 486]], "T": [61532, 656, [52387, 53301, 55173, 56700, 57308, 57725, 58790, 59155, 59155, 59678, 60246, 61532]]}}, {"type": "Feature", "geometry": {"type": "MultiPolygon", "coordinates": [[[[-72.07076878299995, -45.57216519499991], [-72.07312532499992, -45.576064680999934], [-72.07316738499992, -45.576164770999924], [-72.0730354449999, -45.57620639399994], [-72.0733350289999, -45.577793793999945], [-72.07141127099993, -45.57804599199994], [-72.0680057429999, -45.578692160999935], [-72.06512292499991, -45.5739059199999], [-72.0679538089999, -45.57306054999992], [-72.06825127999991, -45.571947535999925], [-72.06887763799995, -45.57177909799992], [-72.0693785549999, -45.57262007499992], [-72.07076878299995, -45.57216519499991]]], [[[-72.07076878299995, -45.57216519499991], [-72.06943952799992, -45.57161800199992], [-72.06930096699995, -45.570709818999944], [-72.0686721969999, -45.570617161999905], [-72.06897097299992, -45.569724709999946], [-72.07052933099993, -45.56996274499994], [-72.07076878299995, -45.57216519499991]]]]}, "properties": {"zona": "1110101005", "comuna": "Coyhaique", "H": [29620, 170, [27572, 27572, 27656, 27883, 28411, 28587, 28936, 29118, 29118, 29118, 29282, 29620]], "C": [46069, 454, [37337, 37644, 39009, 39009, 39009, 39715, 43253, 45185, 45185, 45376, 45884, 46069]], "E": [10552, 272, [7850, 7850, 7850, 7850, 7850, 8918, 8918, 8918, 10552, 10552, 10552, 10552]], "S": [373, 0, [0, 0, 0, 373, 373, 373, 373, 373, 373, 373, 373, 373]], "O": [22344, 162, [20868, 20868, 20868, 20868, 20868, 21177, 21735, 21735, 22118, 22118, 22118, 22344]], "I": [276, 0, [276, 276, 276, 276, 276, 276, 276, 276, 276, 276, 276, 276]], "T": [109234, 1058, [93903, 94210, 95659, 96259, 96787, 99046, 103491, 105605, 107622, 107813, 108485, 109234]]}}, {"type": "Feature", "geometry": {"type": "Polygon", "coordinates": [[[-72.02813936099994, -45.57414610199993], [-72.02829186699995, -45.57394304399992], [-72.0284991719999, -45.57283835399994], [-72.0297345699999, -45.57269791999994], [-72.0325346059999, -45.57405559299991], [-72.03341333299994, -45.57430130699993], [-72.0349685349999, -45.57444589499994], [-72.03284496099991, -45.57927128599994], [-72.02986060399991, -45.57846199699992], [-72.0287674299999, -45.57956320199992], [-72.02741921899991, -45.5796676139999], [-72.03258455499991, -45.5743936959999], [-72.02836671699993, -45.57503293399992], [-72.02813936099994, -45.57414610199993]]]}, "properties": {"zona": "1110113006", "comuna": "Coyhaique", "H": [26393, 128, [17751, 18891, 20445, 22351, 23865, 25156, 25901, 26129, 26236, 26327, 26393, 26393]], "C": [0, 0, [0, 0, 0, 0, 0, 0, 0, 0, 0, 0, 0, 0]], "E": [9325, 0, [8499, 8499, 8499, 8499, 9325, 9325, 9325, 9325, 9325, 9325, 9325, 9325]], "S": [0, 0, [0, 0, 0, 0, 0, 0, 0, 0, 0, 0, 0, 0]], "O": [0, 0, [0, 0, 0, 0, 0, 0, 0, 0, 0, 0, 0, 0]], "I": [0, 0, [0, 0, 0, 0, 0, 0, 0, 0, 0, 0, 0, 0]], "T": [35718, 128, [26250, 27390, 28944, 30850, 33190, 34481, 35226, 35454, 35561, 35652, 35718, 35718]]}}, {"type": "Feature", "geometry": {"type": "Polygon", "coordinates": [[[-72.0575889989999, -45.58081842599995], [-72.05517232699992, -45.576845060999915], [-72.06512292499991, -45.5739059199999], [-72.06750799799994, -45.57785125899994], [-72.0575889989999, -45.58081842599995]]]}, "properties": {"zona": "1110101007", "comuna": "Coyhaique", "H": [64815, 620, [57338, 58146, 58754, 59618, 60781, 61052, 61959, 62515, 62740, 62959, 64344, 64815]], "C": [7995, 111, [6102, 6102, 6475, 6475, 6621, 6679, 6987, 7546, 7828, 7848, 7995, 7995]], "E": [5865, 132, [4992, 5251, 5251, 5251, 5251, 5251, 5251, 5251, 5251, 5251, 5865, 5865]], "S": [0, 0, [0, 0, 0, 0, 0, 0, 0, 0, 0, 0, 0, 0]], "O": [1708, 24, [1014, 1014, 1014, 1014, 1373, 1373, 1708, 1708, 1708, 1708, 1708, 1708]], "I": [669, 0, [669, 669, 669, 669, 669, 669, 669, 669, 669, 669, 669, 669]], "T": [81052, 887, [70115, 71182, 72163, 73027, 74695, 75024, 76574, 77689, 78196, 78435, 80581, 81052]]}}, {"type": "Feature", "geometry": {"type": "Polygon", "coordinates": [[[-72.0460696049999, -45.57957574799991], [-72.04415939799992, -45.57637494799991], [-72.04419811299994, -45.57606077199995], [-72.0437011329999, -45.57508929099993], [-72.04392534099992, -45.574992607999945], [-72.04756348899991, -45.57432617199993], [-72.05317939999992, -45.57364318799995], [-72.05517232699992, -45.576845060999915], [-72.0460696049999, -45.57957574799991]]]}, "properties": {"zona": "1110113001", "comuna": "Coyhaique", "H": [41215, 137, [36493, 37163, 37531, 38414, 39032, 39721, 40148, 40854, 40959, 41119, 41119, 41215]], "C": [5140, 978, [1024, 1024, 1024, 1186, 1186, 1186, 1186, 1186, 1186, 1186, 1494, 5140]], "E": [6085, 0, [6085, 6085, 6085, 6085, 6085, 6085, 6085, 6085, 6085, 6085, 6085, 6085]], "S": [0, 0, [0, 0, 0, 0, 0, 0, 0, 0, 0, 0, 0, 0]], "O": [1706, 31, [832, 832, 832, 832, 832, 1706, 1706, 1706, 1706, 1706, 1706, 1706]], "I": [462, 0, [462, 462, 462, 462, 462, 462, 462, 462, 462, 462, 462, 462]], "T": [54608, 1146, [44896, 45566, 45934, 46979, 47597, 49160, 49587, 50293, 50398, 50558, 50866, 54608]]}}, {"type": "Feature", "geometry": {"type": "Polygon", "coordinates": [[[-72.0746720169999, -45.58386789799994], [-72.0730354449999, -45.57620639399994], [-72.07598950699992, -45.575287472999946], [-72.07678704199992, -45.575586941999916], [-72.07643316799994, -45.57720260199994], [-72.07646173099994, -45.57742386399991], [-72.0766717699999, -45.57766777599994], [-72.0775614129999, -45.57801460299993], [-72.07819144899992, -45.57808473999995], [-72.0801818189999, -45.57776070399996], [-72.08066452899993, -45.578962633999936], [-72.08167816499991, -45.580770798999936], [-72.08175042699992, -45.58145223999992], [-72.08199799399995, -45.58201664599994], [-72.0820519959999, -45.58302166399994], [-72.08226559699995, -45.583990255999936], [-72.08031080599994, -45.585079322999945], [-72.08025378499991, -45.58573905499992], [-72.07987942199992, -45.58606702399993], [-72.0800971889999, -45.586441780999905], [-72.07957367099993, -45.586477757999944], [-72.07913915599994, -45.58693020299995], [-72.0788747329999, -45.58705395399994], [-72.07835372099993, -45.587243145999935], [-72.0775387729999, -45.587352799999906], [-72.07714300099991, -45.58757447499994], [-72.07569813399994, -45.58575294599996], [-72.0751123629999, -45.5849683319999], [-72.0746720169999, -45.58386789799994]]]}, "properties": {"zona": "1110112001", "comuna": "Coyhaique", "H": [22228, 187, [18166, 18496, 19052, 19983, 20374, 20649, 20719, 20823, 20823, 21319, 22098, 22228]], "C": [37507, 124, [31866, 31964, 34861, 34861, 34861, 35256, 35658, 35658, 35658, 37270, 37270, 37507]], "E": [3199, 404, [369, 369, 369, 369, 369, 369, 369, 369, 3199, 3199, 3199, 3199]], "S": [0, 0, [0, 0, 0, 0, 0, 0, 0, 0, 0, 0, 0, 0]], "O": [1136, 0, [1136, 1136, 1136, 1136, 1136, 1136, 1136, 1136, 1136, 1136, 1136, 1136]], "I": [491, 0, [491, 491, 491, 491, 491, 491, 491, 491, 491, 491, 491, 491]], "T": [64561, 715, [52028, 52456, 55909, 56840, 57231, 57901, 58373, 58477, 61307, 63415, 64194, 64561]]}}, {"type": "Feature", "geometry": {"type": "Polygon", "coordinates": [[[-72.03284496099991, -45.57927128599994], [-72.0349685349999, -45.57444589499994], [-72.03987124499992, -45.57491453999995], [-72.04205240599993, -45.57566418399995], [-72.04275646099995, -45.57557441299991], [-72.0437011329999, -45.57508929099993], [-72.04419811299994, -45.57606077199995], [-72.04415939799992, -45.57637494799991], [-72.04440001499995, -45.57687006899994], [-72.0460696049999, -45.57957574799991], [-72.04226529199991, -45.58075990399993], [-72.0420865509999, -45.58121883399991], [-72.04217774299991, -45.581770272999904], [-72.02642298899991, -45.580433772999925], [-72.02741921899991, -45.5796676139999], [-72.0287674299999, -45.57956320199992], [-72.02986060399991, -45.57846199699992], [-72.03284496099991, -45.57927128599994]]]}, "properties": {"zona": "1110113002", "comuna": "Coyhaique", "H": [54563, 291, [38280, 39982, 45669, 47365, 50562, 52176, 53359, 53464, 54087, 54358, 54468, 54563]], "C": [4504, 868, [531, 531, 531, 531, 531, 531, 531, 531, 531, 531, 4041, 4504]], "E": [2768, 0, [1347, 1347, 1347, 2768, 2768, 2768, 2768, 2768, 2768, 2768, 2768, 2768]], "S": [0, 0, [0, 0, 0, 0, 0, 0, 0, 0, 0, 0, 0, 0]], "O": [334, 0, [236, 334, 334, 334, 334, 334, 334, 334, 334, 334, 334, 334]], "I": [15724, 3390, [1971, 1971, 1971, 1971, 1971, 1971, 1971, 1971, 1971, 1971, 3311, 15724]], "T": [77893, 4549, [42365, 44165, 49852, 52969, 56166, 57780, 58963, 59068, 59691, 59962, 64922, 77893]]}}, {"type": "Feature", "geometry": {"type": "Polygon", "coordinates": [[[-72.0447657439999, -45.58456126699991], [-72.04459356799993, -45.58435770199992], [-72.04406088199994, -45.58209809899995], [-72.04411090499991, -45.58184735899994], [-72.04509703299993, -45.58084225199991], [-72.0450314329999, -45.580489504999946], [-72.04531060499994, -45.580177188999926], [-72.04515207999992, -45.57985931899992], [-72.05517232699992, -45.576845060999915], [-72.0575889989999, -45.58081842599995], [-72.04672962799992, -45.58406644299993], [-72.0447657439999, -45.58456126699991]]]}, "properties": {"zona": "1110113004", "comuna": "Coyhaique", "H": [65223, 505, [53329, 54273, 55955, 57958, 60608, 62200, 62924, 63709, 64135, 64354, 64505, 65223]], "C": [6574, 161, [3375, 3375, 3375, 3670, 3670, 4354, 4938, 5073, 5073, 5073, 6392, 6574]], "E": [11593, 1277, [4890, 4890, 4890, 4890, 4890, 4890, 4890, 6379, 6379, 6379, 11593, 11593]], "S": [1265, 39, [1081, 1081, 1081, 1081, 1081, 1081, 1081, 1081, 1081, 1081, 1265, 1265]], "O": [581, 0, [581, 581, 581, 581, 581, 581, 581, 581, 581, 581, 581, 581]], "I": [121, 0, [121, 121, 121, 121, 121, 121, 121, 121, 121, 121, 121, 121]], "T": [85357, 1982, [63377, 64321, 66003, 68301, 70951, 73227, 74535, 76944, 77370, 77589, 84457, 85357]]}}, {"type": "Feature", "geometry": {"type": "Polygon", "coordinates": [[[-72.07141127099993, -45.57804599199994], [-72.0733350289999, -45.577793793999945], [-72.07385401699992, -45.580246434999935], [-72.06956169999995, -45.58102743499995], [-72.0697797059999, -45.58137957999992], [-72.06889774199993, -45.58157746599994], [-72.06682874899991, -45.58286099599991], [-72.06691523599994, -45.58298473499991], [-72.06616924499991, -45.583555144999934], [-72.06386320999991, -45.58497204699995], [-72.06348619499994, -45.5849038419999], [-72.06344845199993, -45.58465983699995], [-72.06293430699992, -45.58413353599991], [-72.06041393799995, -45.57997309099994], [-72.06750799799994, -45.57785125899994], [-72.0680057429999, -45.578692160999935], [-72.07141127099993, -45.57804599199994]]]}, "properties": {"zona": "1110112003", "comuna": "Coyhaique", "H": [57709, 402, [51083, 51355, 52063, 53028, 54022, 55099, 56124, 56593, 56593, 56957, 57318, 57709]], "C": [5960, 230, [4399, 4399, 4399, 4602, 4700, 4795, 4795, 5007, 5007, 5007, 5960, 5960]], "E": [163, 0, [163, 163, 163, 163, 163, 163, 163, 163, 163, 163, 163, 163]], "S": [177, 0, [177, 177, 177, 177, 177, 177, 177, 177, 177, 177, 177, 177]], "O": [250, 54, [0, 0, 0, 0, 0, 0, 0, 0, 0, 0, 250, 250]], "I": [196, 0, [196, 196, 196, 196, 196, 196, 196, 196, 196, 196, 196, 196]], "T": [64455, 686, [56018, 56290, 56998, 58166, 59258, 60430, 61455, 62136, 62136, 62500, 64064, 64455]]}}, {"type": "Feature", "geometry": {"type": "Polygon", "coordinates": [[[-72.07294933499992, -45.58899943799992], [-72.07096627399994, -45.588228468999944], [-72.07102343399993, -45.58813488699991], [-72.07006203599991, -45.58768933099992], [-72.06673832099995, -45.58640965799992], [-72.06668585199992, -45.58624986299992], [-72.06430937099992, -45.58531206999993], [-72.06386320999991, -45.58497204699995], [-72.06616924499991, -45.583555144999934], [-72.06691523599994, -45.58298473499991], [-72.06682874899991, -45.58286099599991], [-72.06889774199993, -45.58157746599994], [-72.0697797059999, -45.58137957999992], [-72.06956169999995, -45.58102743499995], [-72.07385401699992, -45.580246434999935], [-72.0746720169999, -45.58386789799994], [-72.07506742699991, -45.584877166999945], [-72.07480007399994, -45.58496482999993], [-72.07420092699994, -45.58602511999993], [-72.07294933499992, -45.58899943799992]]]}, "properties": {"zona": "1110112002", "comuna": "Coyhaique", "H": [62677, 240, [50202, 52511, 53986, 56967, 59476, 60680, 61707, 62023, 62222, 62323, 62636, 62677]], "C": [1450, 97, [947, 947, 947, 947, 947, 947, 947, 947, 947, 1255, 1450, 1450]], "E": [6812, 238, [1340, 1340, 2222, 2222, 3208, 6200, 6200, 6200, 6200, 6200, 6812, 6812]], "S": [1781, 0, [1781, 1781, 1781, 1781, 1781, 1781, 1781, 1781, 1781, 1781, 1781, 1781]], "O": [3203, 0, [3203, 3203, 3203, 3203, 3203, 3203, 3203, 3203, 3203, 3203, 3203, 3203]], "I": [543, 0, [543, 543, 543, 543, 543, 543, 543, 543, 543, 543, 543, 543]], "T": [76466, 575, [58016, 60325, 62682, 65663, 69158, 73354, 74381, 74697, 74896, 75305, 76425, 76466]]}}, {"type": "Feature", "geometry": {"type": "Polygon", "coordinates": [[[-72.05182005299991, -45.58666280399996], [-72.05045717599995, -45.582943163999914], [-72.06041393799995, -45.57997309099994], [-72.06280794599991, -45.58391425499991], [-72.0613253599999, -45.58434982099993], [-72.0608656739999, -45.58415468699991], [-72.05924213199995, -45.58450653099993], [-72.05937099199991, -45.5848924039999], [-72.05540470599993, -45.58555829099993], [-72.05556908299991, -45.585990625999955], [-72.05182005299991, -45.58666280399996]]]}, "properties": {"zona": "1110112004", "comuna": "Coyhaique", "H": [79812, 321, [65924, 67371, 70178, 72358, 74506, 76375, 78400, 78933, 79157, 79239, 79689, 79812]], "C": [10439, 336, [1087, 1327, 1327, 1327, 1327, 1943, 9119, 9119, 9119, 9250, 10112, 10439]], "E": [4495, 0, [4495, 4495, 4495, 4495, 4495, 4495, 4495, 4495, 4495, 4495, 4495, 4495]], "S": [328, 0, [0, 328, 328, 328, 328, 328, 328, 328, 328, 328, 328, 328]], "O": [48, 0, [48, 48, 48, 48, 48, 48, 48, 48, 48, 48, 48, 48]], "I": [178, 0, [178, 178, 178, 178, 178, 178, 178, 178, 178, 178, 178, 178]], "T": [95300, 657, [71732, 73747, 76554, 78734, 80882, 83367, 92568, 93101, 93325, 93538, 94850, 95300]]}}, {"type": "Feature", "geometry": {"type": "Polygon", "coordinates": [[[-72.04217774299991, -45.581770272999904], [-72.04216059899994, -45.580892208999956], [-72.04231231299991, -45.58073411899994], [-72.04519868199992, -45.57991325499995], [-72.04531060499994, -45.580177188999926], [-72.0450314329999, -45.580489504999946], [-72.04509703299993, -45.58084225199991], [-72.04411090499991, -45.58184735899994], [-72.04406088199994, -45.58209809899995], [-72.04459356799993, -45.58435770199992], [-72.04477280099991, -45.58456892599992], [-72.04240453499995, -45.585138112999914], [-72.0321904139999, -45.58558407499993], [-72.03215848799994, -45.58319436699992], [-72.03195576399992, -45.58319714599992], [-72.0319527019999, -45.5813563129999], [-72.03145503499991, -45.58141988099993], [-72.03147660799993, -45.58113240199992], [-72.03225838399993, -45.58093430699995], [-72.04217774299991, -45.581770272999904]]]}, "properties": {"zona": "1110113003", "comuna": "Coyhaique", "H": [58300, 363, [43473, 46175, 47841, 49821, 52683, 54301, 55009, 55474, 55573, 55897, 58079, 58300]], "C": [507, 0, [281, 281, 281, 507, 507, 507, 507, 507, 507, 507, 507, 507]], "E": [16459, 0, [3902, 3902, 7971, 7971, 16459, 16459, 16459, 16459, 16459, 16459, 16459, 16459]], "S": [0, 0, [0, 0, 0, 0, 0, 0, 0, 0, 0, 0, 0, 0]], "O": [1683, 399, [88, 88, 88, 88, 88, 88, 88, 88, 88, 88, 88, 1683]], "I": [0, 0, [0, 0, 0, 0, 0, 0, 0, 0, 0, 0, 0, 0]], "T": [76949, 762, [47744, 50446, 56181, 58387, 69737, 71355, 72063, 72528, 72627, 72951, 75133, 76949]]}}, {"type": "Feature", "geometry": {"type": "Polygon", "coordinates": [[[-72.02553716199992, -45.58153584599995], [-72.02584998399993, -45.58096791899993], [-72.02642298899991, -45.580433772999925], [-72.03225838399993, -45.58093430699995], [-72.03147660799993, -45.58113240199992], [-72.03145503499991, -45.58141988099993], [-72.0319527019999, -45.5813563129999], [-72.03195576399992, -45.58319714599992], [-72.03215848799994, -45.58319436699992], [-72.0321904139999, -45.58558407499993], [-72.02288757799994, -45.58602139299995], [-72.02137643499992, -45.58590095599993], [-72.02301795699992, -45.58514717199995], [-72.02450252799991, -45.583466647999956], [-72.02477297099995, -45.58335218099995], [-72.0253839149999, -45.58278302499991], [-72.02553569399993, -45.582503441999904], [-72.02553716199992, -45.58153584599995]]]}, "properties": {"zona": "1110113007", "comuna": "Coyhaique", "H": [65042, 247, [47714, 50728, 53467, 56157, 59076, 62128, 64499, 64796, 64983, 65042, 65042, 65042]], "C": [307, 11, [0, 0, 0, 0, 0, 307, 307, 307, 307, 307, 307, 307]], "E": [269, 0, [269, 269, 269, 269, 269, 269, 269, 269, 269, 269, 269, 269]], "S": [0, 0, [0, 0, 0, 0, 0, 0, 0, 0, 0, 0, 0, 0]], "O": [157, 0, [0, 157, 157, 157, 157, 157, 157, 157, 157, 157, 157, 157]], "I": [24, 0, [24, 24, 24, 24, 24, 24, 24, 24, 24, 24, 24, 24]], "T": [65799, 258, [48007, 51178, 53917, 56607, 59526, 62885, 65256, 65553, 65740, 65799, 65799, 65799]]}}, {"type": "Feature", "geometry": {"type": "Polygon", "coordinates": [[[-72.03857696699993, -45.58795388499993], [-72.03854897199994, -45.58530817499991], [-72.0427713329999, -45.58508010799994], [-72.04672962799992, -45.58406644299993], [-72.05045717599995, -45.582943163999914], [-72.0515513929999, -45.585941944999945], [-72.0429442329999, -45.58743825899995], [-72.04296440899992, -45.58758803699993], [-72.04049877499995, -45.58789211799996], [-72.03857696699993, -45.58795388499993]]]}, "properties": {"zona": "1110112005", "comuna": "Coyhaique", "H": [49452, 259, [39254, 41358, 41967, 44684, 45447, 47835, 48535, 48687, 48687, 48687, 48903, 49452]], "C": [189, 27, [0, 0, 0, 0, 0, 0, 0, 0, 189, 189, 189, 189]], "E": [1671, 60, [0, 0, 0, 0, 0, 1671, 1671, 1671, 1671, 1671, 1671, 1671]], "S": [0, 0, [0, 0, 0, 0, 0, 0, 0, 0, 0, 0, 0, 0]], "O": [0, 0, [0, 0, 0, 0, 0, 0, 0, 0, 0, 0, 0, 0]], "I": [0, 0, [0, 0, 0, 0, 0, 0, 0, 0, 0, 0, 0, 0]], "T": [51312, 346, [39254, 41358, 41967, 44684, 45447, 49506, 50206, 50358, 50547, 50547, 50763, 51312]]}}, {"type": "Feature", "geometry": {"type": "Polygon", "coordinates": [[[-72.07298694199994, -45.588909851999915], [-72.07420092699994, -45.58602511999993], [-72.07480007399994, -45.58496482999993], [-72.07506742699991, -45.584877166999945], [-72.07786733799992, -45.58850886899995], [-72.07495313099992, -45.590120215999946], [-72.07581649499991, -45.59045545899994], [-72.07597709799995, -45.59080752199992], [-72.07702486999995, -45.59161503999991], [-72.07622492099995, -45.592164701999934], [-72.07584112199993, -45.59261770499995], [-72.07602379499991, -45.59282960599995], [-72.07535258699994, -45.59333034499991], [-72.07492355599993, -45.59393321199991], [-72.07421794699991, -45.594419194999944], [-72.07128474699994, -45.5931887669999], [-72.0716752589999, -45.59229480399995], [-72.07054137299991, -45.59187321999991], [-72.07168718299994, -45.59072680299994], [-72.07160838699991, -45.59065420399992], [-72.07116131299995, -45.59104068999994], [-72.0703827179999, -45.590993434999916], [-72.06966390699995, -45.59022632099993], [-72.06484428499994, -45.59141001599994], [-72.06456622399992, -45.590145745999905], [-72.06459844799991, -45.58993272099991], [-72.06511033399994, -45.58919633699992], [-72.06469916499992, -45.5880021559999], [-72.06415080799991, -45.58776149499994], [-72.06302746299991, -45.587501801999906], [-72.0628544839999, -45.586998585999936], [-72.06142471899994, -45.58717043699994], [-72.06139710199994, -45.58692035699994], [-72.06174679299994, -45.586744834999934], [-72.0621731729999, -45.58606721599995], [-72.06216518999992, -45.585882484999956], [-72.06301054999994, -45.58551268799994], [-72.06347070599992, -45.58487734699992], [-72.06386320999991, -45.58497204699995], [-72.06430937099992, -45.58531206999993], [-72.06668585199992, -45.58624986299992], [-72.06673832099995, -45.58640965799992], [-72.07006203599991, -45.58768933099992], [-72.07102343399993, -45.58813488699991], [-72.0709469709999, -45.58821447199995], [-72.0710516229999, -45.588266663999946], [-72.07286464899994, -45.58897926499992], [-72.07298694199994, -45.588909851999915]]]}, "properties": {"zona": "1110112006", "comuna": "Coyhaique", "H": [51306, 127, [33486, 39500, 41806, 46343, 48170, 50252, 50980, 51059, 51059, 51059, 51059, 51306]], "C": [2150, 0, [2150, 2150, 2150, 2150, 2150, 2150, 2150, 2150, 2150, 2150, 2150, 2150]], "E": [0, 0, [0, 0, 0, 0, 0, 0, 0, 0, 0, 0, 0, 0]], "S": [0, 0, [0, 0, 0, 0, 0, 0, 0, 0, 0, 0, 0, 0]], "O": [341, 37, [0, 0, 0, 0, 0, 0, 0, 341, 341, 341, 341, 341]], "I": [840, 0, [840, 840, 840, 840, 840, 840, 840, 840, 840, 840, 840, 840]], "T": [54637, 164, [36476, 42490, 44796, 49333, 51160, 53242, 53970, 54390, 54390, 54390, 54390, 54637]]}}, {"type": "Feature", "geometry": {"type": "Polygon", "coordinates": [[[-72.02752185499992, -45.586916284999916], [-72.0273023179999, -45.58583402799991], [-72.03854897199994, -45.58530817499991], [-72.03857696699993, -45.58795388499993], [-72.04049877499995, -45.58789211799996], [-72.04296440899992, -45.58758803699993], [-72.0429442329999, -45.58743825899995], [-72.0515513929999, -45.585941944999945], [-72.05263126699992, -45.588746613999945], [-72.05244873099991, -45.58880490799993], [-72.05380795199994, -45.59270152899995], [-72.05387146999993, -45.59280406999994], [-72.05488608699994, -45.59311805099992], [-72.05520689699995, -45.59348158599994], [-72.05522065699995, -45.59365685999995], [-72.05514997699993, -45.59388778199991], [-72.0507644939999, -45.59469851599994], [-72.04880732399994, -45.589410320999946], [-72.04319325799992, -45.5904048079999], [-72.04315847399994, -45.58994677599992], [-72.04262189099995, -45.58964914699993], [-72.0406685929999, -45.5890773239999], [-72.04073234399993, -45.589604090999956], [-72.03678351699995, -45.58899198499995], [-72.03683607499994, -45.588067665999915], [-72.0327823369999, -45.58696951999991], [-72.03255427999994, -45.58692298999995], [-72.03254633099993, -45.58710682199995], [-72.02751260299993, -45.58738483399992], [-72.02752185499992, -45.586916284999916]]]}, "properties": {"zona": "1110112007", "comuna": "Coyhaique", "H": [71707, 292, [33044, 36677, 47795, 53756, 56557, 57294, 59652, 71322, 71407, 71707, 71707, 71707]], "C": [223, 48, [0, 0, 0, 0, 0, 0, 0, 0, 0, 0, 223, 223]], "E": [0, 0, [0, 0, 0, 0, 0, 0, 0, 0, 0, 0, 0, 0]], "S": [0, 0, [0, 0, 0, 0, 0, 0, 0, 0, 0, 0, 0, 0]], "O": [0, 0, [0, 0, 0, 0, 0, 0, 0, 0, 0, 0, 0, 0]], "I": [350, 12, [0, 0, 0, 0, 0, 350, 350, 350, 350, 350, 350, 350]], "T": [72280, 352, [33044, 36677, 47795, 53756, 56557, 57644, 60002, 71672, 71757, 72057, 72280, 72280]]}}, {"type": "Feature", "geometry": {"type": "Polygon", "coordinates": [[[-72.06135123099995, -45.5843313229999], [-72.06280794599991, -45.58391425499991], [-72.06344845199993, -45.58465983699995], [-72.06347070599992, -45.58487734699992], [-72.06301054999994, -45.58551268799994], [-72.06214377899994, -45.58590893799993], [-72.0621731729999, -45.58606721599995], [-72.06172698099994, -45.58677132799994], [-72.06140561599994, -45.58688007099994], [-72.0614346239999, -45.587321877999955], [-72.06132268499994, -45.58759353399995], [-72.0608443939999, -45.58776124299993], [-72.06085153899994, -45.58805396699995], [-72.06038006199992, -45.588167841999905], [-72.05993659299992, -45.589601115999926], [-72.05920662199992, -45.59053644099993], [-72.05803793199993, -45.591662980999956], [-72.05709866699993, -45.58914645099992], [-72.05431111199994, -45.58966904899995], [-72.05560104699993, -45.59350391499993], [-72.05541574699993, -45.593674645999954], [-72.05540060599992, -45.593841436999924], [-72.05514997699993, -45.59388778199991], [-72.05520689699995, -45.59348158599994], [-72.05488608699994, -45.59311805099992], [-72.05387146999993, -45.59280406999994], [-72.05380795199994, -45.59270152899995], [-72.05244873099991, -45.58880490799993], [-72.05263126699992, -45.588746613999945], [-72.05182005299991, -45.58666280399996], [-72.05556908299991, -45.585990625999955], [-72.05540470599993, -45.58555829099993], [-72.05937099199991, -45.5848924039999], [-72.05924213199995, -45.58450653099993], [-72.0608656739999, -45.58415468699991], [-72.06135123099995, -45.5843313229999]]]}, "properties": {"zona": "1110112008", "comuna": "Coyhaique", "H": [55765, 228, [34907, 43650, 48698, 51648, 52758, 54277, 54848, 55061, 55127, 55127, 55483, 55765]], "C": [219, 13, [167, 167, 167, 167, 167, 167, 167, 167, 167, 167, 167, 219]], "E": [8403, 1171, [1384, 1384, 1384, 1384, 1384, 1384, 3715, 3715, 3715, 3715, 8403, 8403]], "S": [0, 0, [0, 0, 0, 0, 0, 0, 0, 0, 0, 0, 0, 0]], "O": [0, 0, [0, 0, 0, 0, 0, 0, 0, 0, 0, 0, 0, 0]], "I": [0, 0, [0, 0, 0, 0, 0, 0, 0, 0, 0, 0, 0, 0]], "T": [64387, 1412, [36458, 45201, 50249, 53199, 54309, 55828, 58730, 58943, 59009, 59009, 64053, 64387]]}}, {"type": "Feature", "geometry": {"type": "Polygon", "coordinates": [[[-72.04707109299994, -45.56993402199993], [-72.04785394699991, -45.56881591899992], [-72.04792758999992, -45.56852078199995], [-72.0478171609999, -45.56834690199992], [-72.04797695999991, -45.56741040399993], [-72.04825327899994, -45.56692998299991], [-72.04877504699994, -45.56689276399993], [-72.04972579299994, -45.56754563599992], [-72.05021594999994, -45.56845392899993], [-72.05024133499995, -45.569282700999906], [-72.05090880099993, -45.56969088999995], [-72.0520079499999, -45.56954957599993], [-72.05245553099991, -45.56936257299992], [-72.05344712199991, -45.56824485099992], [-72.05378476699991, -45.56814185899992], [-72.0544615629999, -45.568811110999945], [-72.05454006899993, -45.569515234999926], [-72.05491316699994, -45.56983990599991], [-72.05538078699993, -45.56984296999991], [-72.05581394699993, -45.57044372599995], [-72.05631301299991, -45.57059611799991], [-72.05756537899993, -45.57247366599995], [-72.0540850989999, -45.57349554599995], [-72.0490590309999, -45.57411281199995], [-72.0443672799999, -45.574860032999936], [-72.04275646099995, -45.57557441299991], [-72.04216416799994, -45.57567158099994], [-72.04163619299993, -45.57558138699994], [-72.04066665899995, -45.575128692999954], [-72.03987124499992, -45.57491453999995], [-72.03322140099993, -45.574264813999946], [-72.0325346059999, -45.57405559299991], [-72.03012843099992, -45.57282847199991], [-72.03115581499992, -45.571010385999955], [-72.0314997779999, -45.57067903899991], [-72.03196500999991, -45.57049567899992], [-72.03484302399994, -45.57026232299995], [-72.0363488669999, -45.57074821099991], [-72.03682321499991, -45.57079244899995], [-72.03832803599994, -45.57038946599994], [-72.03922530799991, -45.570376265999926], [-72.04008923299995, -45.57070844099991], [-72.04048233399993, -45.571132434999924], [-72.04057090299995, -45.571452164999926], [-72.04228411499992, -45.571498109999936], [-72.0426783819999, -45.57074772099992], [-72.04284473599995, -45.57067169499993], [-72.04352110799994, -45.571453472999906], [-72.04381703199994, -45.57156259099992], [-72.04442981299991, -45.571710562999954], [-72.04571587799995, -45.57172523899993], [-72.04605306199994, -45.5716861219999], [-72.0465375359999, -45.57137405299994], [-72.04864042799994, -45.57095807099995], [-72.04835205199993, -45.570305110999925], [-72.04773708099992, -45.57034425099994], [-72.04734279199994, -45.57018564599991], [-72.04707109299994, -45.56993402199993]]]}, "properties": {"zona": "1110113005", "comuna": "Coyhaique", "H": [56552, 679, [33449, 35219, 35879, 48426, 49151, 51956, 53483, 54196, 54574, 55242, 56126, 56552]], "C": [2889, 331, [1273, 1273, 1273, 1273, 1273, 1361, 1361, 1361, 1361, 1361, 2889, 2889]], "E": [1426, 51, [0, 0, 0, 0, 0, 1426, 1426, 1426, 1426, 1426, 1426, 1426]], "S": [0, 0, [0, 0, 0, 0, 0, 0, 0, 0, 0, 0, 0, 0]], "O": [512, 5, [173, 367, 367, 367, 367, 512, 512, 512, 512, 512, 512, 512]], "I": [3547, 0, [3547, 3547, 3547, 3547, 3547, 3547, 3547, 3547, 3547, 3547, 3547, 3547]], "T": [64926, 1066, [38442, 40406, 41066, 53613, 54338, 58802, 60329, 61042, 61420, 62088, 64500, 64926]]}}]}