{"type": "FeatureCollection", "slug": "quillota", "nombre": "Quillota", "usos": {"T": "Total", "H": "Habitacional", "C": "Comercio", "E": "Educación", "S": "Salud", "O": "Oficina", "I": "Industria"}, "anios": [2024, 2030, 2035], "anios_hist": [2013, 2014, 2015, 2016, 2017, 2018, 2019, 2020, 2021, 2022, 2023, 2024], "features": [{"type": "Feature", "geometry": {"type": "Polygon", "coordinates": [[[-71.23571604099993, -32.85774990199991], [-71.23496607099992, -32.85567119099994], [-71.23715465599992, -32.85494888799991], [-71.23754031399994, -32.85524318999995], [-71.23773710299992, -32.856526936999956], [-71.23582445699992, -32.85696193599995], [-71.2362055289999, -32.85780745099993], [-71.23829852099993, -32.85740560599993], [-71.23867648299995, -32.85827209599995], [-71.23843244999995, -32.85834804299992], [-71.23906755999991, -32.85993644599995], [-71.23740544199995, -32.860368999999935], [-71.23766433599991, -32.86126217499992], [-71.23950782999992, -32.860898790999954], [-71.23966244299993, -32.861236736999956], [-71.23878334699992, -32.86144617499991], [-71.2386750949999, -32.86186326699993], [-71.23897703499995, -32.86237362299994], [-71.2394658849999, -32.86233848699993], [-71.23933246999991, -32.86269260899991], [-71.23935154299994, -32.86346882499993], [-71.23995272799993, -32.86332664799994], [-71.24081364599994, -32.863296963999915], [-71.24089578299993, -32.86363340799994], [-71.2403335539999, -32.86387253299995], [-71.24050742299994, -32.86404120599991], [-71.24045693199992, -32.86447012499991], [-71.24023106599992, -32.86451857399993], [-71.24028876999995, -32.86478953799991], [-71.24048031599995, -32.86498652499995], [-71.2408631479999, -32.86705543399995], [-71.24128721599993, -32.86705499099992], [-71.24129189699994, -32.86724101099992], [-71.24180778099992, -32.867181657999936], [-71.24181048199995, -32.86728897699993], [-71.24330475399995, -32.86633881799992], [-71.2439315609999, -32.86630609799994], [-71.24433042699991, -32.86647995199991], [-71.24393551899993, -32.86673994899991], [-71.24444074299993, -32.86737027399994], [-71.2427871239999, -32.86832167299991], [-71.2437288779999, -32.86998376299994], [-71.24526419299991, -32.86937496999991], [-71.2464354789999, -32.871440556999914], [-71.24350089099994, -32.87246265299996], [-71.2401011039999, -32.87312490599993], [-71.2369607789999, -32.86996948399991], [-71.23763503799995, -32.86943862399994], [-71.23884833499994, -32.86895249199995], [-71.23916131699991, -32.868935680999925], [-71.2391517989999, -32.86881432899992], [-71.23896437999991, -32.867203495999945], [-71.23714885999993, -32.86413588499994], [-71.23733128099991, -32.862518447999946], [-71.23723083199991, -32.86125776299991], [-71.23693974299994, -32.860343161999936], [-71.23571604099993, -32.85774990199991]]]}, "properties": {"zona": "550104002", "comuna": "Quillota", "H": [130731, 3607, [93267, 99447, 100809, 101267, 101617, 105431, 108017, 115391, 122325, 130618, 130731, 130731]], "C": [5939, 144, [3876, 3994, 3994, 3994, 4114, 4572, 4572, 5380, 5430, 5538, 5939, 5939]], "E": [12211, 233, [7329, 7838, 7838, 8952, 8952, 8952, 12211, 12211, 12211, 12211, 12211, 12211]], "S": [326, 0, [326, 326, 326, 326, 326, 326, 326, 326, 326, 326, 326, 326]], "O": [525, 0, [525, 525, 525, 525, 525, 525, 525, 525, 525, 525, 525, 525]], "I": [7957, 0, [7406, 7406, 7406, 7957, 7957, 7957, 7957, 7957, 7957, 7957, 7957, 7957]], "T": [157689, 3984, [112729, 119536, 120898, 123021, 123491, 127763, 133608, 141790, 148774, 157175, 157689, 157689]]}}, {"type": "Feature", "geometry": {"type": "Polygon", "coordinates": [[[-71.23582695199991, -32.86998948799993], [-71.23571139899991, -32.86904469399991], [-71.23541127699991, -32.868116724999936], [-71.23693303899995, -32.870001948999914], [-71.2401011039999, -32.87312490599993], [-71.24002164199993, -32.87312922199993], [-71.24164336199993, -32.87614363199992], [-71.24166059899994, -32.87680161399993], [-71.24247791999994, -32.87681402299995], [-71.2426558919999, -32.88074253199994], [-71.2383124879999, -32.88117657499993], [-71.23810736599995, -32.87911740299995], [-71.23663994999993, -32.87923614099992], [-71.23719922499993, -32.88451952699995], [-71.23462617899992, -32.88464634999991], [-71.23457920699991, -32.88332645499992], [-71.2351947599999, -32.879341337999904], [-71.23378141599994, -32.87940448099994], [-71.23323767799991, -32.87394494799992], [-71.23335191199993, -32.87385272999995], [-71.2358396969999, -32.873714778999954], [-71.23582695199991, -32.86998948799993]]]}, "properties": {"zona": "550105001", "comuna": "Quillota", "H": [118383, 7999, [62954, 63009, 63336, 63876, 65262, 66379, 66699, 71746, 72342, 72421, 96055, 118383]], "C": [53151, 183, [48053, 48053, 49028, 50765, 50765, 52150, 52466, 52466, 52466, 52466, 52949, 53151]], "E": [3292, 0, [3292, 3292, 3292, 3292, 3292, 3292, 3292, 3292, 3292, 3292, 3292, 3292]], "S": [1298, 0, [1298, 1298, 1298, 1298, 1298, 1298, 1298, 1298, 1298, 1298, 1298, 1298]], "O": [4465, 0, [4365, 4365, 4465, 4465, 4465, 4465, 4465, 4465, 4465, 4465, 4465, 4465]], "I": [3255, 0, [3255, 3255, 3255, 3255, 3255, 3255, 3255, 3255, 3255, 3255, 3255, 3255]], "T": [183844, 8182, [123217, 123272, 124674, 126951, 128337, 130839, 131475, 136522, 137118, 137197, 161314, 183844]]}}, {"type": "Feature", "geometry": {"type": "Polygon", "coordinates": [[[-71.24853898999993, -32.87041429199991], [-71.24942183199994, -32.87012861499994], [-71.2507413909999, -32.87099243599994], [-71.25126350999994, -32.87101269699991], [-71.2513569059999, -32.871162727999945], [-71.2538764009999, -32.872425576999944], [-71.25460871299993, -32.872573495999916], [-71.2535058229999, -32.87386532499994], [-71.25262306399992, -32.874440328999924], [-71.25238429199993, -32.87499470899991], [-71.25269970699992, -32.87567436899991], [-71.25240597599992, -32.87606291299994], [-71.25236750199991, -32.876284537999936], [-71.25185178699991, -32.87649221799995], [-71.25068853599993, -32.87640946199991], [-71.25001174899995, -32.876890562999904], [-71.24886360099993, -32.8771546989999], [-71.24785980999991, -32.87710511899991], [-71.24650629999991, -32.87685440799993], [-71.2465189749999, -32.87703904299991], [-71.24166059899994, -32.87680161399993], [-71.24163166599993, -32.87611678799993], [-71.24002164199993, -32.87312922199993], [-71.24350089099994, -32.87246265299996], [-71.24633500999994, -32.871442362999915], [-71.2464354789999, -32.871440556999914], [-71.24673119199991, -32.87187116799993], [-71.24746832599993, -32.87170267399995], [-71.24885565699992, -32.87121962799995], [-71.24853898999993, -32.87041429199991]]]}, "properties": {"zona": "550103001", "comuna": "Quillota", "H": [80907, 269, [76519, 76621, 77093, 78808, 79091, 79514, 79697, 79809, 80047, 80244, 80413, 80907]], "C": [42100, 340, [38556, 38556, 39783, 40302, 40302, 40731, 40731, 40731, 40731, 40971, 40971, 42100]], "E": [6174, 65, [5809, 5809, 5809, 5809, 5809, 5809, 5809, 5809, 5809, 6174, 6174, 6174]], "S": [130, 0, [130, 130, 130, 130, 130, 130, 130, 130, 130, 130, 130, 130]], "O": [1000, 0, [1000, 1000, 1000, 1000, 1000, 1000, 1000, 1000, 1000, 1000, 1000, 1000]], "I": [1006, 0, [1006, 1006, 1006, 1006, 1006, 1006, 1006, 1006, 1006, 1006, 1006, 1006]], "T": [131317, 674, [123020, 123122, 124821, 127055, 127338, 128190, 128373, 128485, 128723, 129525, 129694, 131317]]}}, {"type": "Feature", "geometry": {"type": "Polygon", "coordinates": [[[-71.25460871299993, -32.872573495999916], [-71.2566521299999, -32.87260982499993], [-71.26346918199994, -32.877220258999955], [-71.26393276699991, -32.87772136099994], [-71.25839773599995, -32.87995865799991], [-71.25675933499991, -32.880091947999915], [-71.25631455899992, -32.87888259299996], [-71.2557131129999, -32.87901518599995], [-71.2521126819999, -32.87917478399993], [-71.25198349699991, -32.876461900999914], [-71.25236750199991, -32.876284537999936], [-71.25240597599992, -32.87606291299994], [-71.25269970699992, -32.87567436899991], [-71.25238987799992, -32.875030678999906], [-71.25241668599995, -32.874836314999925], [-71.25267410099991, -32.87438530299994], [-71.2535058229999, -32.87386532499994], [-71.25460871299993, -32.872573495999916]]]}, "properties": {"zona": "550103002", "comuna": "Quillota", "H": [63454, 167, [41094, 41294, 48125, 55356, 55356, 62453, 62453, 63041, 63092, 63092, 63092, 63454]], "C": [1580, 139, [933, 933, 933, 933, 933, 933, 933, 933, 933, 933, 1580, 1580]], "E": [4778, 0, [244, 244, 244, 4252, 4778, 4778, 4778, 4778, 4778, 4778, 4778, 4778]], "S": [9854, 0, [9854, 9854, 9854, 9854, 9854, 9854, 9854, 9854, 9854, 9854, 9854, 9854]], "O": [599, 0, [599, 599, 599, 599, 599, 599, 599, 599, 599, 599, 599, 599]], "I": [0, 0, [0, 0, 0, 0, 0, 0, 0, 0, 0, 0, 0, 0]], "T": [80265, 306, [52724, 52924, 59755, 70994, 71520, 78617, 78617, 79205, 79256, 79256, 79903, 80265]]}}, {"type": "Feature", "geometry": {"type": "Polygon", "coordinates": [[[-71.26553056599994, -32.87399441699995], [-71.2652384509999, -32.87350047399991], [-71.26411034699993, -32.87260231399995], [-71.2674603289999, -32.87118470599995], [-71.26882619799994, -32.87171465499995], [-71.26975012399993, -32.87231191899991], [-71.27125414499994, -32.874043559999905], [-71.27285862899993, -32.873307594999915], [-71.27470872299995, -32.87502039499992], [-71.27207911999994, -32.875989312999934], [-71.2719156199999, -32.87613408899995], [-71.27272258799991, -32.877057589999936], [-71.27156960499991, -32.876974419999954], [-71.27041866099995, -32.87736911099995], [-71.26885626299992, -32.87721861399996], [-71.2680760849999, -32.87897906499995], [-71.2671816049999, -32.878171332999955], [-71.2658298419999, -32.87523438099993], [-71.26553056599994, -32.87399441699995]]]}, "properties": {"zona": "550111001", "comuna": "Quillota", "H": [18482, 98, [16714, 17146, 17146, 17417, 17724, 17724, 18025, 18133, 18237, 18319, 18482, 18482]], "C": [618, 0, [618, 618, 618, 618, 618, 618, 618, 618, 618, 618, 618, 618]], "E": [0, 0, [0, 0, 0, 0, 0, 0, 0, 0, 0, 0, 0, 0]], "S": [0, 0, [0, 0, 0, 0, 0, 0, 0, 0, 0, 0, 0, 0]], "O": [0, 0, [0, 0, 0, 0, 0, 0, 0, 0, 0, 0, 0, 0]], "I": [0, 0, [0, 0, 0, 0, 0, 0, 0, 0, 0, 0, 0, 0]], "T": [19100, 98, [17332, 17764, 17764, 18035, 18342, 18342, 18643, 18751, 18855, 18937, 19100, 19100]]}}, {"type": "Feature", "geometry": {"type": "Polygon", "coordinates": [[[-71.24990695799994, -32.87693302899993], [-71.25079267399991, -32.87639405999994], [-71.25198349699991, -32.876461900999914], [-71.25246784099994, -32.88490812999993], [-71.24294632199991, -32.88532281699992], [-71.24247791999994, -32.87681402299995], [-71.2465189749999, -32.87703904299991], [-71.24650629999991, -32.87685440799993], [-71.24785980999991, -32.87710511899991], [-71.24886360099993, -32.8771546989999], [-71.24990695799994, -32.87693302899993]]]}, "properties": {"zona": "550101001", "comuna": "Quillota", "H": [110399, 342, [102509, 102685, 103197, 105507, 105659, 105776, 106715, 108036, 110060, 110060, 110189, 110399]], "C": [124224, 1523, [103350, 110302, 110788, 112376, 113899, 115245, 116866, 117914, 119717, 120244, 123042, 124224]], "E": [33007, 724, [22416, 24397, 24647, 24894, 27938, 27938, 27938, 27938, 33007, 33007, 33007, 33007]], "S": [6363, 24, [2915, 4925, 4925, 4925, 5690, 6363, 6363, 6363, 6363, 6363, 6363, 6363]], "O": [26485, 151, [25160, 25160, 25477, 25477, 25477, 25712, 25712, 26064, 26064, 26064, 26064, 26485]], "I": [2486, 0, [2486, 2486, 2486, 2486, 2486, 2486, 2486, 2486, 2486, 2486, 2486, 2486]], "T": [302964, 2764, [258836, 269955, 271520, 275665, 281149, 283520, 286080, 288801, 297697, 298224, 301151, 302964]]}}, {"type": "Feature", "geometry": {"type": "Polygon", "coordinates": [[[-71.25246784099994, -32.88490812999993], [-71.2521126819999, -32.87917478399993], [-71.2557131129999, -32.87901518599995], [-71.25631455899992, -32.87888259299996], [-71.25812714499995, -32.88358864199995], [-71.2584141559999, -32.88476476899996], [-71.25246784099994, -32.88490812999993]]]}, "properties": {"zona": "550102001", "comuna": "Quillota", "H": [55397, 145, [53250, 53569, 53891, 54130, 54265, 54511, 54809, 54809, 55007, 55007, 55311, 55397]], "C": [4370, 0, [3950, 3950, 4118, 4370, 4370, 4370, 4370, 4370, 4370, 4370, 4370, 4370]], "E": [9478, 0, [5438, 5438, 9369, 9478, 9478, 9478, 9478, 9478, 9478, 9478, 9478, 9478]], "S": [404, 0, [0, 0, 404, 404, 404, 404, 404, 404, 404, 404, 404, 404]], "O": [60, 0, [60, 60, 60, 60, 60, 60, 60, 60, 60, 60, 60, 60]], "I": [1040, 0, [1040, 1040, 1040, 1040, 1040, 1040, 1040, 1040, 1040, 1040, 1040, 1040]], "T": [70749, 145, [63738, 64057, 68882, 69482, 69617, 69863, 70161, 70161, 70359, 70359, 70663, 70749]]}}, {"type": "Feature", "geometry": {"type": "Polygon", "coordinates": [[[-71.25812714499995, -32.88358864199995], [-71.25675933499991, -32.880091947999915], [-71.25839773599995, -32.87995865799991], [-71.26084442299992, -32.878963497999905], [-71.26165439399995, -32.879762978999906], [-71.26181207099995, -32.88004293499995], [-71.26182049499994, -32.880383955999946], [-71.2619397119999, -32.880350010999905], [-71.26194429599991, -32.88068808999992], [-71.26332154799991, -32.88222321399991], [-71.26403067799993, -32.88263420099992], [-71.26417910399994, -32.88261347799994], [-71.2644715369999, -32.883500925999954], [-71.25979998899993, -32.88757126299993], [-71.25919952899994, -32.88679758299992], [-71.25886211099993, -32.88613637499992], [-71.25812714499995, -32.88358864199995]]]}, "properties": {"zona": "550102004", "comuna": "Quillota", "H": [63186, 107, [55889, 56293, 56618, 57557, 57609, 58021, 58021, 62805, 62805, 63002, 63002, 63186]], "C": [2408, 37, [1990, 2174, 2174, 2174, 2174, 2174, 2174, 2238, 2238, 2408, 2408, 2408]], "E": [2283, 0, [1482, 1482, 1482, 2283, 2283, 2283, 2283, 2283, 2283, 2283, 2283, 2283]], "S": [0, 0, [0, 0, 0, 0, 0, 0, 0, 0, 0, 0, 0, 0]], "O": [0, 0, [0, 0, 0, 0, 0, 0, 0, 0, 0, 0, 0, 0]], "I": [0, 0, [0, 0, 0, 0, 0, 0, 0, 0, 0, 0, 0, 0]], "T": [67877, 144, [59361, 59949, 60274, 62014, 62066, 62478, 62478, 67326, 67326, 67693, 67693, 67877]]}}, {"type": "Feature", "geometry": {"type": "Polygon", "coordinates": [[[-71.26393861199995, -32.89458422599995], [-71.26355770499993, -32.893450396999924], [-71.2616828429999, -32.890562477999936], [-71.26530670599993, -32.88806224099994], [-71.2650698459999, -32.88785010999993], [-71.26517472599994, -32.88762727799991], [-71.26828408499995, -32.88549205499993], [-71.26786291199994, -32.884497008999915], [-71.26803636299991, -32.88444176399992], [-71.27008495199993, -32.88712338899995], [-71.27239810799995, -32.889883711999914], [-71.2662310899999, -32.893447039999955], [-71.26393861199995, -32.89458422599995]]]}, "properties": {"zona": "550102003", "comuna": "Quillota", "H": [76413, 3042, [32267, 37095, 38016, 38414, 38826, 39689, 40239, 62004, 67462, 69094, 76232, 76413]], "C": [0, 0, [0, 0, 0, 0, 0, 0, 0, 0, 0, 0, 0, 0]], "E": [364, 0, [364, 364, 364, 364, 364, 364, 364, 364, 364, 364, 364, 364]], "S": [0, 0, [0, 0, 0, 0, 0, 0, 0, 0, 0, 0, 0, 0]], "O": [0, 0, [0, 0, 0, 0, 0, 0, 0, 0, 0, 0, 0, 0]], "I": [31568, 0, [31568, 31568, 31568, 31568, 31568, 31568, 31568, 31568, 31568, 31568, 31568, 31568]], "T": [108345, 3042, [64199, 69027, 69948, 70346, 70758, 71621, 72171, 93936, 99394, 101026, 108164, 108345]]}}, {"type": "Feature", "geometry": {"type": "Polygon", "coordinates": [[[-71.25229828099992, -32.894439279999915], [-71.2495712839999, -32.89290485299995], [-71.2488664199999, -32.889161680999905], [-71.24855288299995, -32.88695799299995], [-71.24841624699991, -32.885053212999935], [-71.25843173499993, -32.8847599419999], [-71.2589898519999, -32.88644517499995], [-71.26017561999993, -32.88811905599994], [-71.25294818999993, -32.89211359899991], [-71.25309026199994, -32.89433388899994], [-71.25293686399993, -32.89444937499991], [-71.25229828099992, -32.894439279999915]]]}, "properties": {"zona": "550102002", "comuna": "Quillota", "H": [142936, 1778, [101248, 101323, 109602, 110660, 122916, 124194, 129266, 129834, 134729, 135277, 135592, 142936]], "C": [6264, 70, [5124, 5640, 5707, 5707, 5871, 5984, 5984, 5984, 5984, 5984, 6095, 6264]], "E": [791, 0, [0, 500, 500, 500, 791, 791, 791, 791, 791, 791, 791, 791]], "S": [317, 0, [0, 0, 0, 0, 317, 317, 317, 317, 317, 317, 317, 317]], "O": [0, 0, [0, 0, 0, 0, 0, 0, 0, 0, 0, 0, 0, 0]], "I": [0, 0, [0, 0, 0, 0, 0, 0, 0, 0, 0, 0, 0, 0]], "T": [150308, 1848, [106372, 107463, 115809, 116867, 129895, 131286, 136358, 136926, 141821, 142369, 142795, 150308]]}}, {"type": "Feature", "geometry": {"type": "Polygon", "coordinates": [[[-71.24332544299995, -32.889166563999936], [-71.24294632199991, -32.88532281699992], [-71.24841624699991, -32.885053212999935], [-71.24855288299995, -32.88695799299995], [-71.2488664199999, -32.889161680999905], [-71.2495712839999, -32.89290485299995], [-71.24701348999992, -32.89146745799991], [-71.24610845699993, -32.890784854999936], [-71.24617705999992, -32.89228506399991], [-71.24499644399992, -32.892369398999904], [-71.24513442099993, -32.89315145799992], [-71.24476908699995, -32.893207617999906], [-71.24430526899994, -32.89411320499994], [-71.24402549299992, -32.89413175499993], [-71.24349503899992, -32.889163519999954], [-71.24332544299995, -32.889166563999936]]]}, "properties": {"zona": "550112001", "comuna": "Quillota", "H": [95436, 241, [87870, 88101, 90407, 94021, 94145, 94145, 94345, 94345, 94345, 94742, 95241, 95436]], "C": [20377, 157, [16875, 16875, 16875, 16875, 18650, 18650, 20144, 20144, 20144, 20144, 20377, 20377]], "E": [6796, 101, [3968, 3968, 3968, 3968, 3968, 6796, 6796, 6796, 6796, 6796, 6796, 6796]], "S": [0, 0, [0, 0, 0, 0, 0, 0, 0, 0, 0, 0, 0, 0]], "O": [256, 0, [256, 256, 256, 256, 256, 256, 256, 256, 256, 256, 256, 256]], "I": [675, 0, [675, 675, 675, 675, 675, 675, 675, 675, 675, 675, 675, 675]], "T": [123540, 499, [109644, 109875, 112181, 115795, 117694, 120522, 122216, 122216, 122216, 122613, 123345, 123540]]}}, {"type": "Feature", "geometry": {"type": "Polygon", "coordinates": [[[-71.26116900599993, -32.89546849499993], [-71.25834628899992, -32.89157882399991], [-71.25724885499994, -32.8897274869999], [-71.26017561999993, -32.88811905599994], [-71.26346556099992, -32.893307782999955], [-71.26215836199992, -32.89421968599993], [-71.2624432209999, -32.894611304999955], [-71.26116900599993, -32.89546849499993]]]}, "properties": {"zona": "550102008", "comuna": "Quillota", "H": [50864, 200, [45675, 45815, 47559, 47746, 48637, 49501, 49845, 50271, 50470, 50864, 50864, 50864]], "C": [624, 74, [277, 277, 277, 277, 277, 277, 277, 277, 277, 277, 624, 624]], "E": [2108, 374, [364, 364, 364, 364, 364, 364, 364, 364, 364, 364, 2108, 2108]], "S": [1270, 0, [1270, 1270, 1270, 1270, 1270, 1270, 1270, 1270, 1270, 1270, 1270, 1270]], "O": [0, 0, [0, 0, 0, 0, 0, 0, 0, 0, 0, 0, 0, 0]], "I": [0, 0, [0, 0, 0, 0, 0, 0, 0, 0, 0, 0, 0, 0]], "T": [54866, 648, [47586, 47726, 49470, 49657, 50548, 51412, 51756, 52182, 52381, 52775, 54866, 54866]]}}, {"type": "Feature", "geometry": {"type": "MultiPolygon", "coordinates": [[[[-71.24691809599994, -32.90144719399996], [-71.2469181699999, -32.90144646099992], [-71.2469181909999, -32.901447214999905], [-71.24691809599994, -32.90144719399996]]], [[[-71.2349070699999, -32.88658049599991], [-71.23462617899992, -32.88464634999991], [-71.23719922499993, -32.88451952699995], [-71.23743232999993, -32.886684111999955], [-71.24303633799991, -32.88644621399993], [-71.24332544299995, -32.889166563999936], [-71.24349503899992, -32.889163519999954], [-71.24407439099991, -32.894527781999955], [-71.24401151699993, -32.895235450999905], [-71.24384914099994, -32.895114459999945], [-71.24404092899994, -32.895962277999956], [-71.24376644699993, -32.895596896999905], [-71.24281977999993, -32.89609670599992], [-71.2404121699999, -32.89319562199995], [-71.24014303999991, -32.89331374999995], [-71.23757649099991, -32.890225485999906], [-71.2360628639999, -32.88891344499996], [-71.23543804399992, -32.88798677999995], [-71.2349070699999, -32.88658049599991]]]]}, "properties": {"zona": "550105003", "comuna": "Quillota", "H": [94139, 2424, [69406, 69847, 70120, 70387, 70605, 74239, 77013, 85479, 85580, 85910, 94139, 94139]], "C": [1217, 172, [120, 120, 120, 120, 286, 286, 286, 651, 651, 651, 877, 1217]], "E": [0, 0, [0, 0, 0, 0, 0, 0, 0, 0, 0, 0, 0, 0]], "S": [0, 0, [0, 0, 0, 0, 0, 0, 0, 0, 0, 0, 0, 0]], "O": [156, 0, [138, 156, 156, 156, 156, 156, 156, 156, 156, 156, 156, 156]], "I": [333, 24, [0, 0, 0, 0, 0, 0, 333, 333, 333, 333, 333, 333]], "T": [95845, 2620, [69664, 70123, 70396, 70663, 71047, 74681, 77788, 86619, 86720, 87050, 95505, 95845]]}}, {"type": "Feature", "geometry": {"type": "Polygon", "coordinates": [[[-71.25305669599993, -32.89352290499994], [-71.25294818999993, -32.89211359899991], [-71.25724885499994, -32.8897274869999], [-71.25857063799992, -32.89189038799992], [-71.25549964099991, -32.89338866799994], [-71.25305669599993, -32.89352290499994]]]}, "properties": {"zona": "550102009", "comuna": "Quillota", "H": [30798, 76, [28331, 28483, 28558, 28776, 29605, 30138, 30378, 30490, 30798, 30798, 30798, 30798]], "C": [409, 39, [225, 225, 225, 225, 225, 225, 225, 225, 225, 225, 409, 409]], "E": [0, 0, [0, 0, 0, 0, 0, 0, 0, 0, 0, 0, 0, 0]], "S": [0, 0, [0, 0, 0, 0, 0, 0, 0, 0, 0, 0, 0, 0]], "O": [0, 0, [0, 0, 0, 0, 0, 0, 0, 0, 0, 0, 0, 0]], "I": [0, 0, [0, 0, 0, 0, 0, 0, 0, 0, 0, 0, 0, 0]], "T": [31207, 115, [28556, 28708, 28783, 29001, 29830, 30363, 30603, 30715, 31023, 31023, 31207, 31207]]}}, {"type": "Feature", "geometry": {"type": "Polygon", "coordinates": [[[-71.24513442099993, -32.89315145799992], [-71.24499644399992, -32.892369398999904], [-71.24617705999992, -32.89228506399991], [-71.24610845699993, -32.890784854999936], [-71.24701348999992, -32.89146745799991], [-71.25248677099995, -32.89454144299992], [-71.25246630799995, -32.89495382699994], [-71.25231148499995, -32.89510540899994], [-71.24661067599993, -32.89671847099993], [-71.24691809599994, -32.90144719399996], [-71.24014303999991, -32.89331374999995], [-71.2404121699999, -32.89319562199995], [-71.24285841099993, -32.89611855699991], [-71.24376644699993, -32.895596896999905], [-71.24404092899994, -32.895962277999956], [-71.24384914099994, -32.895114459999945], [-71.24401151699993, -32.895235450999905], [-71.24402549299992, -32.89413175499993], [-71.24430526899994, -32.89411320499994], [-71.24474472899993, -32.89323510799994], [-71.24513442099993, -32.89315145799992]]]}, "properties": {"zona": "550112002", "comuna": "Quillota", "H": [65618, 182, [61878, 62625, 63115, 63566, 63655, 64322, 64796, 65022, 65301, 65505, 65618, 65618]], "C": [50011, 52, [2215, 18655, 23300, 23300, 23480, 49762, 49779, 49839, 49839, 49839, 49839, 50011]], "E": [2184, 0, [499, 499, 499, 2184, 2184, 2184, 2184, 2184, 2184, 2184, 2184, 2184]], "S": [0, 0, [0, 0, 0, 0, 0, 0, 0, 0, 0, 0, 0, 0]], "O": [0, 0, [0, 0, 0, 0, 0, 0, 0, 0, 0, 0, 0, 0]], "I": [0, 0, [0, 0, 0, 0, 0, 0, 0, 0, 0, 0, 0, 0]], "T": [117813, 234, [64592, 81779, 86914, 89050, 89319, 116268, 116759, 117045, 117324, 117528, 117641, 117813]]}}, {"type": "Feature", "geometry": {"type": "Polygon", "coordinates": [[[-71.2524097399999, -32.89504896299991], [-71.25248677099995, -32.89454144299992], [-71.25235691299991, -32.89447102199995], [-71.25308115099995, -32.894356597999945], [-71.25305669599993, -32.89352290499994], [-71.25549964099991, -32.89338866799994], [-71.25857063799992, -32.89189038799992], [-71.26116900599993, -32.89546849499993], [-71.2624432209999, -32.894611304999955], [-71.26215836199992, -32.89421968599993], [-71.26346556099992, -32.893307782999955], [-71.26498450799994, -32.896933092999916], [-71.26424442199993, -32.896612159999904], [-71.25475028599993, -32.89537254399994], [-71.25302450899994, -32.89491902299994], [-71.2524097399999, -32.89504896299991]]]}, "properties": {"zona": "550102005", "comuna": "Quillota", "H": [54547, 181, [41610, 41989, 42331, 47254, 47694, 48216, 49000, 49228, 49369, 49369, 49447, 54547]], "C": [13758, 113, [11857, 11857, 11857, 11857, 11932, 12052, 12052, 12052, 12052, 12331, 12474, 13758]], "E": [1925, 0, [1925, 1925, 1925, 1925, 1925, 1925, 1925, 1925, 1925, 1925, 1925, 1925]], "S": [0, 0, [0, 0, 0, 0, 0, 0, 0, 0, 0, 0, 0, 0]], "O": [0, 0, [0, 0, 0, 0, 0, 0, 0, 0, 0, 0, 0, 0]], "I": [0, 0, [0, 0, 0, 0, 0, 0, 0, 0, 0, 0, 0, 0]], "T": [70230, 294, [55392, 55771, 56113, 61036, 61551, 62193, 62977, 63205, 63346, 63625, 63846, 70230]]}}, {"type": "Feature", "geometry": {"type": "Polygon", "coordinates": [[[-71.26433569599993, -32.899843320999935], [-71.26660095499994, -32.89892007299994], [-71.26842875199992, -32.901261734999935], [-71.26296529199993, -32.90378079299995], [-71.26242000899992, -32.90200042299995], [-71.25970748899994, -32.903154041999926], [-71.25894330999995, -32.90169934499994], [-71.26412667399995, -32.89968929999992], [-71.26433569599993, -32.899843320999935]]]}, "properties": {"zona": "550108001", "comuna": "Quillota", "H": [53616, 484, [48121, 48372, 48972, 49576, 50064, 50822, 51583, 51841, 52314, 52522, 52614, 53616]], "C": [472, 0, [0, 153, 472, 472, 472, 472, 472, 472, 472, 472, 472, 472]], "E": [73, 0, [73, 73, 73, 73, 73, 73, 73, 73, 73, 73, 73, 73]], "S": [0, 0, [0, 0, 0, 0, 0, 0, 0, 0, 0, 0, 0, 0]], "O": [0, 0, [0, 0, 0, 0, 0, 0, 0, 0, 0, 0, 0, 0]], "I": [0, 0, [0, 0, 0, 0, 0, 0, 0, 0, 0, 0, 0, 0]], "T": [54161, 484, [48194, 48598, 49517, 50121, 50609, 51367, 52128, 52386, 52859, 53067, 53159, 54161]]}}, {"type": "Feature", "geometry": {"type": "Polygon", "coordinates": [[[-71.26997181999991, -32.93056663999994], [-71.2704712279999, -32.93057462599995], [-71.27436130899991, -32.935355942999934], [-71.27456489199994, -32.935159720999934], [-71.27467095399993, -32.934700421999935], [-71.28001433899993, -32.93727867699994], [-71.2800986339999, -32.93871293399991], [-71.28707703099991, -32.93832220699994], [-71.2868837549999, -32.93858790899992], [-71.28696287999992, -32.93861684199993], [-71.28699938299991, -32.93913606399991], [-71.28521849799995, -32.93924458899994], [-71.28213498199995, -32.93982726899992], [-71.28216987899992, -32.94024665199993], [-71.27835868099993, -32.94054386399995], [-71.27788370399992, -32.94202627099992], [-71.27765218099995, -32.94236599799996], [-71.27546612299994, -32.94436106099994], [-71.2736437989999, -32.94495453499991], [-71.27162650399993, -32.94538108099994], [-71.27023834899995, -32.94290758499994], [-71.27084706599993, -32.94270208499995], [-71.27149208599991, -32.94267769399994], [-71.27187677299992, -32.94188480699995], [-71.2704165259999, -32.93984425699995], [-71.27144099899994, -32.939077649999945], [-71.27086088199991, -32.93826193099994], [-71.26911943499994, -32.93814438599992], [-71.2678599539999, -32.937806559999956], [-71.2671038009999, -32.93684188199995], [-71.26543778899992, -32.935060611999916], [-71.26836132199992, -32.93456981399993], [-71.26779442499992, -32.93186972399991], [-71.26906298699993, -32.93143408199995], [-71.26888912299995, -32.93082472899994], [-71.26997181999991, -32.93056663999994]]]}, "properties": {"zona": "550107001", "comuna": "Quillota", "H": [61202, 499, [44894, 46862, 49348, 49965, 56257, 57264, 57728, 57767, 58176, 58719, 60548, 61202]], "C": [2285, 0, [1283, 1834, 1834, 2095, 2285, 2285, 2285, 2285, 2285, 2285, 2285, 2285]], "E": [3749, 82, [2317, 3291, 3291, 3291, 3291, 3291, 3291, 3291, 3291, 3749, 3749, 3749]], "S": [210, 0, [210, 210, 210, 210, 210, 210, 210, 210, 210, 210, 210, 210]], "O": [0, 0, [0, 0, 0, 0, 0, 0, 0, 0, 0, 0, 0, 0]], "I": [636, 0, [636, 636, 636, 636, 636, 636, 636, 636, 636, 636, 636, 636]], "T": [68082, 581, [49340, 52833, 55319, 56197, 62679, 63686, 64150, 64189, 64598, 65599, 67428, 68082]]}}, {"type": "Feature", "geometry": {"type": "Polygon", "coordinates": [[[-71.23743232999993, -32.886684111999955], [-71.23663994999993, -32.87923614099992], [-71.23799731499992, -32.87912167199994], [-71.23810736599995, -32.87911740299995], [-71.2383124879999, -32.88117657499993], [-71.2426558919999, -32.88074253199994], [-71.24303633799991, -32.88644621399993], [-71.23743232999993, -32.886684111999955]]]}, "properties": {"zona": "550105002", "comuna": "Quillota", "H": [68138, 148, [64815, 65060, 65060, 65897, 66603, 67363, 67440, 67689, 67689, 67689, 67748, 68138]], "C": [8197, 0, [8197, 8197, 8197, 8197, 8197, 8197, 8197, 8197, 8197, 8197, 8197, 8197]], "E": [6617, 348, [245, 245, 245, 1744, 1744, 1744, 6617, 6617, 6617, 6617, 6617, 6617]], "S": [353, 0, [353, 353, 353, 353, 353, 353, 353, 353, 353, 353, 353, 353]], "O": [330, 17, [0, 0, 0, 86, 86, 86, 330, 330, 330, 330, 330, 330]], "I": [497, 0, [497, 497, 497, 497, 497, 497, 497, 497, 497, 497, 497, 497]], "T": [84132, 513, [74107, 74352, 74352, 76774, 77480, 78240, 83434, 83683, 83683, 83683, 83742, 84132]]}}, {"type": "Feature", "geometry": {"type": "Polygon", "coordinates": [[[-71.23693303899995, -32.870001948999914], [-71.23541127699991, -32.868116724999936], [-71.2308155149999, -32.85805233399992], [-71.23534093799992, -32.85670603999995], [-71.2371980659999, -32.86112308299994], [-71.23733128099991, -32.862518447999946], [-71.23714885999993, -32.86413588499994], [-71.23896437999991, -32.867203495999945], [-71.23916131699991, -32.868935680999925], [-71.23884833499994, -32.86895249199995], [-71.23763503799995, -32.86943862399994], [-71.23693303899995, -32.870001948999914]]]}, "properties": {"zona": "550104001", "comuna": "Quillota", "H": [99159, 1113, [78784, 79346, 79746, 80751, 83424, 87291, 92786, 96506, 96825, 98352, 98996, 99159]], "C": [3745, 110, [2912, 2912, 2912, 2912, 2912, 3267, 3389, 3389, 3389, 3389, 3389, 3745]], "E": [1919, 11, [108, 108, 108, 1611, 1611, 1919, 1919, 1919, 1919, 1919, 1919, 1919]], "S": [0, 0, [0, 0, 0, 0, 0, 0, 0, 0, 0, 0, 0, 0]], "O": [44, 0, [0, 0, 0, 0, 44, 44, 44, 44, 44, 44, 44, 44]], "I": [850, 0, [850, 850, 850, 850, 850, 850, 850, 850, 850, 850, 850, 850]], "T": [105717, 1234, [82654, 83216, 83616, 86124, 88841, 93371, 98988, 102708, 103027, 104554, 105198, 105717]]}}, {"type": "Feature", "geometry": {"type": "Polygon", "coordinates": [[[-71.26713946699994, -32.88100352899994], [-71.26735350199993, -32.88155483399993], [-71.26764717799995, -32.88192767499993], [-71.26776297599991, -32.882421725999905], [-71.26795697599994, -32.88254465999995], [-71.26842574099993, -32.88257552299996], [-71.26882484499993, -32.88312787199993], [-71.26769955799995, -32.883854208999935], [-71.26693797299993, -32.88234705399992], [-71.26652511099991, -32.8821160249999], [-71.2663632309999, -32.88215681899993], [-71.2665313039999, -32.88244803199996], [-71.26495210299993, -32.88315856799994], [-71.2644715369999, -32.883500925999954], [-71.26417910399994, -32.88261347799994], [-71.26403067799993, -32.88263420099992], [-71.26332154799991, -32.88222321399991], [-71.26194429599991, -32.88068808999992], [-71.2619397119999, -32.880350010999905], [-71.26182049499994, -32.880383955999946], [-71.26181207099995, -32.88004293499995], [-71.26165439399995, -32.879762978999906], [-71.26084442299992, -32.878963497999905], [-71.26647813999995, -32.87664313499994], [-71.2671816049999, -32.878171332999955], [-71.2680760849999, -32.87897906499995], [-71.26713946699994, -32.88100352899994]]]}, "properties": {"zona": "550102007", "comuna": "Quillota", "H": [31958, 92, [29667, 29981, 30513, 30575, 31065, 31483, 31540, 31540, 31540, 31823, 31823, 31958]], "C": [85, 0, [85, 85, 85, 85, 85, 85, 85, 85, 85, 85, 85, 85]], "E": [736, 0, [0, 0, 0, 736, 736, 736, 736, 736, 736, 736, 736, 736]], "S": [0, 0, [0, 0, 0, 0, 0, 0, 0, 0, 0, 0, 0, 0]], "O": [0, 0, [0, 0, 0, 0, 0, 0, 0, 0, 0, 0, 0, 0]], "I": [0, 0, [0, 0, 0, 0, 0, 0, 0, 0, 0, 0, 0, 0]], "T": [32779, 92, [29752, 30066, 30598, 31396, 31886, 32304, 32361, 32361, 32361, 32644, 32644, 32779]]}}, {"type": "Feature", "geometry": {"type": "Polygon", "coordinates": [[[-71.2616828429999, -32.890562477999936], [-71.25979998899993, -32.88757126299993], [-71.2645826289999, -32.88340422899995], [-71.2665313039999, -32.88244803199996], [-71.2663632309999, -32.88215681899993], [-71.26666636699991, -32.88215545499992], [-71.26691761199993, -32.88231976599991], [-71.26733786799991, -32.883020632999944], [-71.26792298399994, -32.88431757399991], [-71.26786291199994, -32.884497008999915], [-71.26828408499995, -32.88549205499993], [-71.26517472599994, -32.88762727799991], [-71.2650698459999, -32.88785010999993], [-71.26530670599993, -32.88806224099994], [-71.26458766399992, -32.88858927499996], [-71.2616828429999, -32.890562477999936]]]}, "properties": {"zona": "550102006", "comuna": "Quillota", "H": [103102, 415, [74259, 77718, 79135, 79464, 80585, 81758, 82192, 82383, 82750, 102312, 102374, 103102]], "C": [377, 10, [317, 317, 317, 317, 317, 317, 317, 317, 347, 377, 377, 377]], "E": [3596, 642, [0, 0, 0, 0, 0, 0, 0, 0, 0, 3596, 3596, 3596]], "S": [0, 0, [0, 0, 0, 0, 0, 0, 0, 0, 0, 0, 0, 0]], "O": [233, 0, [233, 233, 233, 233, 233, 233, 233, 233, 233, 233, 233, 233]], "I": [0, 0, [0, 0, 0, 0, 0, 0, 0, 0, 0, 0, 0, 0]], "T": [107308, 1067, [74809, 78268, 79685, 80014, 81135, 82308, 82742, 82933, 83330, 106518, 106580, 107308]]}}, {"type": "Feature", "geometry": {"type": "Polygon", "coordinates": [[[-71.24661067599993, -32.89671847099993], [-71.25282107099991, -32.89491340299992], [-71.25475028599993, -32.89537254399994], [-71.26080815899991, -32.89618741499993], [-71.2608337069999, -32.89627262099992], [-71.26075390099993, -32.89626053799992], [-71.26118574199995, -32.89765358999995], [-71.26111591099993, -32.89791323199995], [-71.26062704899994, -32.8983008159999], [-71.2597720999999, -32.898176504999924], [-71.2600914269999, -32.89829262799992], [-71.2609050609999, -32.90090638899994], [-71.2589510759999, -32.90166313399993], [-71.25970748899994, -32.903154041999926], [-71.25701700699994, -32.90433610799994], [-71.25118727899991, -32.90235198499994], [-71.24690526699993, -32.90157206199996], [-71.24661067599993, -32.89671847099993]]]}, "properties": {"zona": "550108003", "comuna": "Quillota", "H": [102356, 2288, [58551, 73019, 73288, 73588, 74492, 88585, 89292, 94644, 95048, 96936, 101637, 102356]], "C": [11653, 694, [2571, 2636, 2636, 2636, 2636, 2636, 2636, 2761, 2761, 3549, 5261, 11653]], "E": [546, 0, [546, 546, 546, 546, 546, 546, 546, 546, 546, 546, 546, 546]], "S": [82359, 8824, [0, 0, 0, 0, 0, 0, 0, 82359, 82359, 82359, 82359, 82359]], "O": [0, 0, [0, 0, 0, 0, 0, 0, 0, 0, 0, 0, 0, 0]], "I": [3983, 0, [3983, 3983, 3983, 3983, 3983, 3983, 3983, 3983, 3983, 3983, 3983, 3983]], "T": [200897, 11806, [65651, 80184, 80453, 80753, 81657, 95750, 96457, 184293, 184697, 187373, 193786, 200897]]}}, {"type": "Feature", "geometry": {"type": "Polygon", "coordinates": [[[-71.26498450799994, -32.896933092999916], [-71.26393861199995, -32.89458422599995], [-71.2663105179999, -32.89340501999993], [-71.27239810799995, -32.889883711999914], [-71.27472338899992, -32.89292412099991], [-71.26683999699992, -32.898472788999925], [-71.26879321899992, -32.90108612499995], [-71.26842875199992, -32.901261734999935], [-71.26660095499994, -32.89892007299994], [-71.26427272699993, -32.89987602399992], [-71.26412667399995, -32.89968929999992], [-71.2609050609999, -32.90090638899994], [-71.2600914269999, -32.89829262799992], [-71.2597720999999, -32.898176504999924], [-71.26062704899994, -32.8983008159999], [-71.26111591099993, -32.89791323199995], [-71.26118574199995, -32.89765358999995], [-71.26075390099993, -32.89626053799992], [-71.2608337069999, -32.89627262099992], [-71.26080815899991, -32.89618741499993], [-71.26424442199993, -32.896612159999904], [-71.26498450799994, -32.896933092999916]]]}, "properties": {"zona": "550108002", "comuna": "Quillota", "H": [121365, 1552, [73005, 79669, 81085, 99812, 102964, 103429, 109108, 109245, 111585, 112665, 120343, 121365]], "C": [6551, 376, [4539, 4539, 4539, 4539, 4539, 4539, 4539, 4539, 4539, 6320, 6320, 6551]], "E": [0, 0, [0, 0, 0, 0, 0, 0, 0, 0, 0, 0, 0, 0]], "S": [0, 0, [0, 0, 0, 0, 0, 0, 0, 0, 0, 0, 0, 0]], "O": [146, 0, [0, 146, 146, 146, 146, 146, 146, 146, 146, 146, 146, 146]], "I": [0, 0, [0, 0, 0, 0, 0, 0, 0, 0, 0, 0, 0, 0]], "T": [128062, 1928, [77544, 84354, 85770, 104497, 107649, 108114, 113793, 113930, 116270, 119131, 126809, 128062]]}}, {"type": "Feature", "geometry": {"type": "Polygon", "coordinates": [[[-71.22857521399993, -32.85813657399996], [-71.22925348799993, -32.8579689739999], [-71.23009351299993, -32.85814772999993], [-71.2308155149999, -32.85805233399992], [-71.23443314299993, -32.86595888399995], [-71.22970953799995, -32.866747277999934], [-71.22857521399993, -32.85813657399996]]]}, "properties": {"zona": "550105004", "comuna": "Quillota", "H": [50014, 1852, [0, 0, 0, 0, 30704, 41634, 41697, 41697, 41888, 41959, 49601, 50014]], "C": [225, 48, [0, 0, 0, 0, 0, 0, 0, 0, 0, 109, 109, 225]], "E": [0, 0, [0, 0, 0, 0, 0, 0, 0, 0, 0, 0, 0, 0]], "S": [0, 0, [0, 0, 0, 0, 0, 0, 0, 0, 0, 0, 0, 0]], "O": [0, 0, [0, 0, 0, 0, 0, 0, 0, 0, 0, 0, 0, 0]], "I": [0, 0, [0, 0, 0, 0, 0, 0, 0, 0, 0, 0, 0, 0]], "T": [50239, 1900, [0, 0, 0, 0, 30704, 41634, 41697, 41697, 41888, 42068, 49710, 50239]]}}]}