{"type": "FeatureCollection", "slug": "calama", "nombre": "Calama", "usos": {"T": "Total", "H": "Habitacional", "C": "Comercio", "E": "Educación", "S": "Salud", "O": "Oficina", "I": "Industria"}, "anios": [2024, 2030, 2035], "anios_hist": [2013, 2014, 2015, 2016, 2017, 2018, 2019, 2020, 2021, 2022, 2023, 2024], "features": [{"type": "Feature", "geometry": {"type": "Polygon", "coordinates": [[[-68.92400136399993, -22.427024008999922], [-68.92463670899991, -22.427330930999915], [-68.92553929299993, -22.427331349999918], [-68.92708720599995, -22.427639051999904], [-68.9272974779999, -22.429524450999907], [-68.92816794099991, -22.429378562999943], [-68.9283381429999, -22.43018580799992], [-68.92765716399992, -22.430309234999925], [-68.92785536299994, -22.431227278999927], [-68.93079060799994, -22.430683873999953], [-68.93101892399994, -22.431548767999914], [-68.92803401099991, -22.43206155999991], [-68.92814990799991, -22.432629437999935], [-68.9293653229999, -22.43312224899995], [-68.9302031009999, -22.433271674999958], [-68.93091721899992, -22.43354752299996], [-68.93289398899992, -22.433653756999945], [-68.93352861299991, -22.437164038999924], [-68.9344481679999, -22.437568683999928], [-68.93644712999992, -22.437176803999932], [-68.93692798899991, -22.437638629999924], [-68.9265602669999, -22.439408715999946], [-68.92400136399993, -22.427024008999922]]]}, "properties": {"zona": "220112001", "comuna": "Calama", "H": [82179, 631, [73542, 74092, 74809, 76449, 77332, 78181, 79053, 79573, 80211, 81184, 82039, 82179]], "C": [4302, 76, [2598, 3032, 3243, 3243, 3243, 3243, 4302, 4302, 4302, 4302, 4302, 4302]], "E": [907, 74, [218, 218, 218, 218, 218, 218, 218, 907, 907, 907, 907, 907]], "S": [0, 0, [0, 0, 0, 0, 0, 0, 0, 0, 0, 0, 0, 0]], "O": [374, 8, [269, 269, 269, 269, 269, 269, 374, 374, 374, 374, 374, 374]], "I": [228, 0, [228, 228, 228, 228, 228, 228, 228, 228, 228, 228, 228, 228]], "T": [87990, 789, [76855, 77839, 78767, 80407, 81290, 82139, 84175, 85384, 86022, 86995, 87850, 87990]]}}, {"type": "Feature", "geometry": {"type": "Polygon", "coordinates": [[[-68.89661464299991, -22.442224499999952], [-68.8985836729999, -22.43393620699993], [-68.90181163699992, -22.433420440999953], [-68.90141919299992, -22.433032398999956], [-68.90812200199991, -22.431916531999946], [-68.90801170499992, -22.43181554599994], [-68.91583835699993, -22.43034591199995], [-68.91596929699995, -22.432808674999933], [-68.9174120269999, -22.438532507999923], [-68.91566595699993, -22.438869344999944], [-68.91559950299995, -22.438943390999952], [-68.9161356809999, -22.43943073999992], [-68.91246164199993, -22.442753327999924], [-68.91110394899994, -22.44203889499994], [-68.91047540599993, -22.441388094999922], [-68.91004978799992, -22.440660615999946], [-68.9097022279999, -22.440863687999922], [-68.90626890199991, -22.444086893999952], [-68.89661464299991, -22.442224499999952]]]}, "properties": {"zona": "220105001", "comuna": "Calama", "H": [164307, 3398, [129659, 130171, 130836, 134942, 145841, 146554, 147159, 150053, 153365, 153870, 158172, 164307]], "C": [45858, 1481, [13667, 13870, 14251, 14346, 19403, 19792, 21411, 21532, 24895, 26691, 27471, 45858]], "E": [7610, 0, [5343, 7260, 7260, 7260, 7610, 7610, 7610, 7610, 7610, 7610, 7610, 7610]], "S": [159, 40, [0, 0, 0, 0, 0, 0, 0, 0, 0, 0, 0, 159]], "O": [2698, 130, [357, 357, 531, 655, 655, 1224, 2014, 2014, 2618, 2698, 2698, 2698]], "I": [103431, 3233, [37933, 61876, 69027, 73119, 77137, 77511, 78119, 78119, 90349, 95103, 101163, 103431]], "T": [324063, 8282, [186959, 213534, 221905, 230322, 250646, 252691, 256313, 259328, 278837, 285972, 297114, 324063]]}}, {"type": "Feature", "geometry": {"type": "Polygon", "coordinates": [[[-68.9225553679999, -22.429265238999903], [-68.9243737939999, -22.428862006999907], [-68.92534717099994, -22.433436633999918], [-68.92526213299993, -22.433450145999927], [-68.92510219699994, -22.432691208999927], [-68.9163094509999, -22.434272372999942], [-68.91594541499995, -22.43262798199993], [-68.9158365589999, -22.43028499099995], [-68.9225553679999, -22.429265238999903]]]}, "properties": {"zona": "220101004", "comuna": "Calama", "H": [68766, 492, [64610, 64610, 64767, 64886, 65233, 65988, 66395, 66482, 66953, 67875, 68653, 68766]], "C": [381, 0, [381, 381, 381, 381, 381, 381, 381, 381, 381, 381, 381, 381]], "E": [449, 0, [449, 449, 449, 449, 449, 449, 449, 449, 449, 449, 449, 449]], "S": [0, 0, [0, 0, 0, 0, 0, 0, 0, 0, 0, 0, 0, 0]], "O": [0, 0, [0, 0, 0, 0, 0, 0, 0, 0, 0, 0, 0, 0]], "I": [0, 0, [0, 0, 0, 0, 0, 0, 0, 0, 0, 0, 0, 0]], "T": [69596, 492, [65440, 65440, 65597, 65716, 66063, 66818, 67225, 67312, 67783, 68705, 69483, 69596]]}}, {"type": "Feature", "geometry": {"type": "Polygon", "coordinates": [[[-68.89014048999991, -22.43535193799994], [-68.8985836729999, -22.43393620699993], [-68.89661464299991, -22.442224499999952], [-68.9016404919999, -22.44318525099993], [-68.90067593099991, -22.444046546999914], [-68.8998813689999, -22.443513649999943], [-68.89911123399992, -22.443233377999945], [-68.89825585599993, -22.443445141999916], [-68.89762453199995, -22.443760934999943], [-68.89686942799995, -22.44389596499991], [-68.89661868499991, -22.444148758999916], [-68.89647413699993, -22.44576576299994], [-68.89627858499995, -22.446126999999933], [-68.89572562199993, -22.446415731999934], [-68.89490944199991, -22.446568783999908], [-68.89400918799993, -22.44664949999992], [-68.89339180399992, -22.44657682399992], [-68.89209473699992, -22.446090097999956], [-68.89157797099995, -22.445835091999925], [-68.89132857599992, -22.445581268999945], [-68.88955156299994, -22.445231221999904], [-68.8878967249999, -22.445541134999928], [-68.88730211899991, -22.44585373399991], [-68.88697568399994, -22.44616695299993], [-68.88598655399994, -22.446482550999917], [-68.88580743499995, -22.44645484499995], [-68.88448484699995, -22.44534836799994], [-68.88378052899992, -22.445630094999956], [-68.88264887999992, -22.44509460899991], [-68.88189269599991, -22.445133512999917], [-68.88191562499992, -22.444889635999914], [-68.87398631899993, -22.44776539599991], [-68.87402340599994, -22.442130912999914], [-68.87423571699992, -22.440370858999927], [-68.87301166299994, -22.440174906999914], [-68.86642247299994, -22.44017914899996], [-68.86691516099995, -22.43645317499994], [-68.87466035499995, -22.43795399499993], [-68.87474684299991, -22.43752400099993], [-68.88055679699994, -22.436733559999936], [-68.88600722899992, -22.437787903999947], [-68.8862614219999, -22.436501981999925], [-68.8875637029999, -22.437950078999904], [-68.88946222499993, -22.438336088999904], [-68.89014048999991, -22.43535193799994]]]}, "properties": {"zona": "220113001", "comuna": "Calama", "H": [0, 0, [0, 0, 0, 0, 0, 0, 0, 0, 0, 0, 0, 0]], "C": [24171, 796, [285, 11225, 11225, 17189, 17189, 18374, 18374, 18558, 21689, 21689, 21689, 24171]], "E": [0, 0, [0, 0, 0, 0, 0, 0, 0, 0, 0, 0, 0, 0]], "S": [0, 0, [0, 0, 0, 0, 0, 0, 0, 0, 0, 0, 0, 0]], "O": [2000, 0, [0, 1708, 1708, 1708, 2000, 2000, 2000, 2000, 2000, 2000, 2000, 2000]], "I": [129859, 8875, [41978, 54276, 56753, 59663, 65137, 71337, 71337, 74380, 95129, 114602, 121092, 129859]], "T": [156030, 9671, [42263, 67209, 69686, 78560, 84326, 91711, 91711, 94938, 118818, 138291, 144781, 156030]]}}, {"type": "Feature", "geometry": {"type": "Polygon", "coordinates": [[[-68.92524377199993, -22.437113455999906], [-68.9174120269999, -22.438532507999923], [-68.9163094509999, -22.434272372999942], [-68.92510219699994, -22.432691208999927], [-68.92526213299993, -22.433450145999927], [-68.92534717099994, -22.433436633999918], [-68.92598362799993, -22.436978285999942], [-68.92575917899995, -22.437023352999915], [-68.92562166099992, -22.436354767999944], [-68.9251287319999, -22.436440363999907], [-68.92524377199993, -22.437113455999906]]]}, "properties": {"zona": "220101001", "comuna": "Calama", "H": [98794, 515, [94105, 94481, 94481, 94481, 94882, 95978, 96514, 96650, 97295, 97651, 98165, 98794]], "C": [5282, 361, [2833, 2833, 2833, 3424, 3837, 3837, 3837, 3837, 3837, 3837, 3837, 5282]], "E": [572, 0, [400, 400, 400, 572, 572, 572, 572, 572, 572, 572, 572, 572]], "S": [0, 0, [0, 0, 0, 0, 0, 0, 0, 0, 0, 0, 0, 0]], "O": [1399, 110, [659, 659, 776, 776, 776, 989, 989, 989, 989, 989, 989, 1399]], "I": [253, 0, [253, 253, 253, 253, 253, 253, 253, 253, 253, 253, 253, 253]], "T": [106300, 986, [98250, 98626, 98743, 99506, 100320, 101629, 102165, 102301, 102946, 103302, 103816, 106300]]}}, {"type": "Feature", "geometry": {"type": "Polygon", "coordinates": [[[-68.92576121999991, -22.43702294299993], [-68.92598362799993, -22.436978285999942], [-68.92578553999994, -22.43599348099991], [-68.92585025199992, -22.435943822999945], [-68.92700733999993, -22.441662919999942], [-68.92692745999994, -22.44167643499992], [-68.92696925699994, -22.44189327199996], [-68.92584636999993, -22.44210506099995], [-68.92493085099994, -22.442420829999946], [-68.9187933629999, -22.443497430999912], [-68.9174120269999, -22.438532507999923], [-68.92524377199993, -22.437113455999906], [-68.9251287319999, -22.436440363999907], [-68.92562166099992, -22.436354767999944], [-68.92576121999991, -22.43702294299993]]]}, "properties": {"zona": "220101002", "comuna": "Calama", "H": [80848, 347, [75106, 75646, 76049, 77383, 78211, 78976, 79144, 79577, 79698, 80308, 80308, 80848]], "C": [6633, 298, [3111, 3325, 4339, 4339, 4339, 5362, 5362, 5362, 5362, 5646, 5913, 6633]], "E": [16505, 0, [15237, 16505, 16505, 16505, 16505, 16505, 16505, 16505, 16505, 16505, 16505, 16505]], "S": [4811, 101, [4247, 4247, 4247, 4247, 4247, 4247, 4247, 4247, 4247, 4811, 4811, 4811]], "O": [2403, 115, [1436, 1436, 1436, 1772, 1943, 1943, 1943, 1943, 1943, 1943, 1943, 2403]], "I": [0, 0, [0, 0, 0, 0, 0, 0, 0, 0, 0, 0, 0, 0]], "T": [111200, 861, [99137, 101159, 102576, 104246, 105245, 107033, 107201, 107634, 107755, 109213, 109480, 111200]]}}, {"type": "Feature", "geometry": {"type": "Polygon", "coordinates": [[[-68.9265602669999, -22.439408715999946], [-68.93692798899991, -22.437638629999924], [-68.93917658999993, -22.439740223999934], [-68.93943445499991, -22.441025614999944], [-68.94059762299992, -22.440854991999913], [-68.94066018199993, -22.441195341999958], [-68.93898072499991, -22.441440438999905], [-68.93887506499993, -22.441108768999925], [-68.93816790599993, -22.44122084199995], [-68.93859035399993, -22.441740013999947], [-68.92739381899992, -22.443659623999906], [-68.9265602669999, -22.439408715999946]]]}, "properties": {"zona": "220112002", "comuna": "Calama", "H": [121418, 680, [104806, 105166, 112804, 112804, 113146, 113793, 114621, 115344, 115548, 116835, 117261, 121418]], "C": [3673, 103, [1901, 1901, 2021, 2283, 2283, 3048, 3048, 3436, 3673, 3673, 3673, 3673]], "E": [2884, 53, [2513, 2513, 2513, 2513, 2513, 2513, 2513, 2513, 2884, 2884, 2884, 2884]], "S": [3052, 0, [3052, 3052, 3052, 3052, 3052, 3052, 3052, 3052, 3052, 3052, 3052, 3052]], "O": [87, 0, [0, 87, 87, 87, 87, 87, 87, 87, 87, 87, 87, 87]], "I": [0, 0, [0, 0, 0, 0, 0, 0, 0, 0, 0, 0, 0, 0]], "T": [131114, 836, [112272, 112719, 120477, 120739, 121081, 122493, 123321, 124432, 125244, 126531, 126957, 131114]]}}, {"type": "Feature", "geometry": {"type": "Polygon", "coordinates": [[[-68.9389514149999, -22.441434690999927], [-68.94066018199993, -22.441195341999958], [-68.94059762299992, -22.440854991999913], [-68.94075891499995, -22.440836900999955], [-68.94559628199994, -22.44487390899991], [-68.9459460999999, -22.444164219999948], [-68.9468361779999, -22.445109414999934], [-68.94683166399994, -22.44521760899994], [-68.93647002099993, -22.446879579999916], [-68.93552458099992, -22.44226279499992], [-68.93859035399993, -22.441740013999947], [-68.93816790599993, -22.44122084199995], [-68.93887506499993, -22.441108768999925], [-68.9389514149999, -22.441434690999927]]]}, "properties": {"zona": "220112003", "comuna": "Calama", "H": [90196, 1220, [53913, 53913, 54007, 54091, 54493, 55255, 55359, 55430, 55767, 59499, 60236, 90196]], "C": [318, 0, [318, 318, 318, 318, 318, 318, 318, 318, 318, 318, 318, 318]], "E": [10588, 2269, [0, 0, 0, 0, 0, 0, 0, 0, 0, 0, 10588, 10588]], "S": [0, 0, [0, 0, 0, 0, 0, 0, 0, 0, 0, 0, 0, 0]], "O": [0, 0, [0, 0, 0, 0, 0, 0, 0, 0, 0, 0, 0, 0]], "I": [0, 0, [0, 0, 0, 0, 0, 0, 0, 0, 0, 0, 0, 0]], "T": [101102, 3489, [54231, 54231, 54325, 54409, 54811, 55573, 55677, 55748, 56085, 59817, 71142, 101102]]}}, {"type": "Feature", "geometry": {"type": "Polygon", "coordinates": [[[-68.91993956899995, -22.447671741999955], [-68.9187933629999, -22.443497430999912], [-68.92493085099994, -22.442420829999946], [-68.92584636999993, -22.44210506099995], [-68.92696925699994, -22.44189327199996], [-68.92692745999994, -22.44167643499992], [-68.92700733999993, -22.441662919999942], [-68.92831383499993, -22.448190619999934], [-68.9282584899999, -22.448326106999957], [-68.9241635969999, -22.448375781999914], [-68.92226729999993, -22.448637508999923], [-68.92205449099993, -22.44734755099995], [-68.91993956899995, -22.447671741999955]]]}, "properties": {"zona": "220101003", "comuna": "Calama", "H": [100217, 329, [94295, 94618, 95164, 96529, 97537, 97924, 98510, 98716, 99554, 100030, 100030, 100217]], "C": [23094, 120, [21284, 21284, 21284, 21420, 21420, 21758, 22053, 22053, 22053, 22053, 22849, 23094]], "E": [6073, 55, [5767, 5767, 5767, 5767, 5767, 5767, 5767, 5767, 5767, 6073, 6073, 6073]], "S": [173, 0, [173, 173, 173, 173, 173, 173, 173, 173, 173, 173, 173, 173]], "O": [2694, 0, [2694, 2694, 2694, 2694, 2694, 2694, 2694, 2694, 2694, 2694, 2694, 2694]], "I": [482, 0, [482, 482, 482, 482, 482, 482, 482, 482, 482, 482, 482, 482]], "T": [132733, 504, [124695, 125018, 125564, 127065, 128073, 128798, 129679, 129885, 130723, 131505, 132301, 132733]]}}, {"type": "Feature", "geometry": {"type": "Polygon", "coordinates": [[[-68.92830929099995, -22.448168032999945], [-68.92739381899992, -22.443659623999906], [-68.93552458099992, -22.44226279499992], [-68.93647002099993, -22.446879579999916], [-68.92830929099995, -22.448168032999945]]]}, "properties": {"zona": "220112004", "comuna": "Calama", "H": [76910, 302, [72662, 73405, 73628, 74391, 74834, 74834, 75543, 75683, 76165, 76257, 76596, 76910]], "C": [3925, 9, [2662, 2828, 3528, 3528, 3793, 3793, 3925, 3925, 3925, 3925, 3925, 3925]], "E": [12955, 0, [6593, 12955, 12955, 12955, 12955, 12955, 12955, 12955, 12955, 12955, 12955, 12955]], "S": [0, 0, [0, 0, 0, 0, 0, 0, 0, 0, 0, 0, 0, 0]], "O": [0, 0, [0, 0, 0, 0, 0, 0, 0, 0, 0, 0, 0, 0]], "I": [0, 0, [0, 0, 0, 0, 0, 0, 0, 0, 0, 0, 0, 0]], "T": [93790, 311, [81917, 89188, 90111, 90874, 91582, 91582, 92423, 92563, 93045, 93137, 93476, 93790]]}}, {"type": "Feature", "geometry": {"type": "Polygon", "coordinates": [[[-68.91572666899992, -22.438822366999943], [-68.9174120269999, -22.438532507999923], [-68.9195297789999, -22.446235121999905], [-68.91824075399995, -22.446388053999954], [-68.91706126999992, -22.446172755999953], [-68.91710951899995, -22.446766907999915], [-68.91687751099994, -22.447742466999955], [-68.91434546799991, -22.44725506599991], [-68.91329418999993, -22.453332665999937], [-68.91095597999993, -22.453087472999925], [-68.90560550499993, -22.45196993099995], [-68.90278798399993, -22.45197626299995], [-68.90348409199993, -22.451044207999928], [-68.9036177829999, -22.450624597999933], [-68.90349568399995, -22.44912222599993], [-68.90278618499991, -22.44753603999993], [-68.90195870199994, -22.44646527099991], [-68.90120581899993, -22.445071863999942], [-68.90114459199992, -22.444631345999937], [-68.90067593099991, -22.444046546999914], [-68.9016404919999, -22.44318525099993], [-68.90626890199991, -22.444086893999952], [-68.9097022279999, -22.440863687999922], [-68.91004978799992, -22.440660615999946], [-68.91047540599993, -22.441388094999922], [-68.91110394899994, -22.44203889499994], [-68.91246164199993, -22.442753327999924], [-68.9161356809999, -22.43943073999992], [-68.91559950299995, -22.438943390999952], [-68.91572666899992, -22.438822366999943]]]}, "properties": {"zona": "220105003", "comuna": "Calama", "H": [129331, 397, [123554, 123679, 124239, 125620, 126070, 126955, 127586, 127796, 128220, 128721, 128861, 129331]], "C": [11400, 282, [7349, 7452, 7452, 7452, 7452, 8287, 8463, 8904, 9057, 10840, 11400, 11400]], "E": [6228, 0, [6228, 6228, 6228, 6228, 6228, 6228, 6228, 6228, 6228, 6228, 6228, 6228]], "S": [50773, 1720, [2620, 2620, 2620, 2620, 2620, 50773, 50773, 50773, 50773, 50773, 50773, 50773]], "O": [1818, 53, [908, 963, 963, 963, 1521, 1521, 1521, 1521, 1521, 1818, 1818, 1818]], "I": [22141, 529, [9245, 9756, 9756, 9756, 11338, 11338, 13133, 13133, 13773, 14872, 22141, 22141]], "T": [221691, 2981, [149904, 150698, 151258, 152639, 155229, 205102, 207704, 208355, 209572, 213252, 221221, 221691]]}}, {"type": "Feature", "geometry": {"type": "Polygon", "coordinates": [[[-68.89762453199995, -22.443760934999943], [-68.89897548199991, -22.443228775999955], [-68.89932803699992, -22.443287717999908], [-68.90033725199993, -22.44375480599996], [-68.90067593099991, -22.444046546999914], [-68.90114459199992, -22.444631345999937], [-68.90120581899993, -22.445071863999942], [-68.90195870199994, -22.44646527099991], [-68.90278618499991, -22.44753603999993], [-68.90349568399995, -22.44912222599993], [-68.9036177829999, -22.450624597999933], [-68.90348409199993, -22.451044207999928], [-68.90245442699995, -22.45239088799991], [-68.90208953899992, -22.453244354999924], [-68.90079060099993, -22.45440724599996], [-68.8999997649999, -22.455725557999926], [-68.8999836449999, -22.456855795999957], [-68.9003255959999, -22.457302210999956], [-68.9002847289999, -22.45787238999992], [-68.90048868999992, -22.458611445999907], [-68.90057159299994, -22.45890015699996], [-68.90096719899992, -22.459254109999904], [-68.9009214539999, -22.459782082999936], [-68.90118390399994, -22.460395700999925], [-68.90150801899995, -22.460817000999953], [-68.90150229399995, -22.46100415399991], [-68.90181515299992, -22.46152682299993], [-68.90259364099995, -22.46208486599994], [-68.90315009299991, -22.462215169999922], [-68.90351334199994, -22.46268067999995], [-68.90341617599995, -22.463661892999937], [-68.90417524199995, -22.464019761999907], [-68.90454134099991, -22.464417686999923], [-68.90520595899994, -22.464872322999952], [-68.90543982999992, -22.465398187999938], [-68.9057688979999, -22.465769443999932], [-68.90654054399994, -22.466162401999952], [-68.9067654879999, -22.46645626399993], [-68.90732042799993, -22.467841410999938], [-68.9076969809999, -22.468320564999942], [-68.90849506099994, -22.468950072999917], [-68.90882449499992, -22.469854847999954], [-68.9088905349999, -22.471513948999927], [-68.9093339879999, -22.472364198999912], [-68.91040534299992, -22.47377529399995], [-68.9105078419999, -22.474224394999908], [-68.91110328799994, -22.474699763999922], [-68.91228840499991, -22.475954618999936], [-68.91297548099993, -22.47640468599991], [-68.91389734799992, -22.47654977199994], [-68.91462164799992, -22.47617486999991], [-68.9150788199999, -22.47639605899991], [-68.91534746499991, -22.476766763999933], [-68.91281315399993, -22.480106538999905], [-68.91167554599991, -22.479372414999943], [-68.91143763299993, -22.480411197999956], [-68.90897479799992, -22.48033262599995], [-68.90825296899993, -22.480512537999914], [-68.90734184599995, -22.481144095999923], [-68.9053196719999, -22.479197161999934], [-68.9007429099999, -22.48341810499994], [-68.9001154259999, -22.482857318999947], [-68.89940862799995, -22.481854102999932], [-68.89878521599991, -22.480661221999924], [-68.8982886419999, -22.47884507099991], [-68.89765637699992, -22.477742518999946], [-68.89670960899991, -22.476784308999925], [-68.89575377999995, -22.476178413999946], [-68.89458862099991, -22.47522456599995], [-68.89420497999993, -22.474795198999914], [-68.89406611099992, -22.474456330999942], [-68.8942927889999, -22.47396864299992], [-68.89414930399994, -22.47330906399992], [-68.89674966299992, -22.471106445999908], [-68.89768074099993, -22.46980162099993], [-68.89864291599991, -22.46748048099994], [-68.89997414899995, -22.46510987599993], [-68.90017393399995, -22.46395364299991], [-68.89947529299991, -22.45969650899991], [-68.89758466899991, -22.460495402999925], [-68.8972886439999, -22.460062793999953], [-68.89670485499994, -22.460233457999948], [-68.89620393899992, -22.45904317399993], [-68.89685347699992, -22.45877502099995], [-68.89660928499995, -22.458037280999918], [-68.89689741199993, -22.45567712499991], [-68.89854860199995, -22.455124308999928], [-68.8976308359999, -22.451724462999948], [-68.89751501099994, -22.450631268999928], [-68.89755125499994, -22.44964689199992], [-68.89641442499993, -22.450304273999905], [-68.89611875699995, -22.45020571799995], [-68.89488421199991, -22.450299086999905], [-68.8945370269999, -22.45058002399992], [-68.89407891399992, -22.449070794999955], [-68.89346322299991, -22.44757834899991], [-68.89357261799995, -22.44759823699991], [-68.8930287519999, -22.446470548999912], [-68.89385763799993, -22.446649402999924], [-68.89449666799993, -22.44661368499993], [-68.89572562199993, -22.446415731999934], [-68.89620535099994, -22.446181157999945], [-68.89647413699993, -22.44576576299994], [-68.8966904589999, -22.444013293999944], [-68.89699944599994, -22.44385087799992], [-68.89762453199995, -22.443760934999943]]]}, "properties": {"zona": "220114001", "comuna": "Calama", "H": [141065, 754, [114321, 115061, 116036, 127800, 133099, 133866, 137514, 137872, 137993, 139501, 140707, 141065]], "C": [5229, 191, [675, 810, 810, 810, 2550, 2550, 5229, 5229, 5229, 5229, 5229, 5229]], "E": [8991, 0, [0, 0, 0, 0, 8991, 8991, 8991, 8991, 8991, 8991, 8991, 8991]], "S": [0, 0, [0, 0, 0, 0, 0, 0, 0, 0, 0, 0, 0, 0]], "O": [0, 0, [0, 0, 0, 0, 0, 0, 0, 0, 0, 0, 0, 0]], "I": [31966, 1142, [0, 0, 0, 0, 0, 31966, 31966, 31966, 31966, 31966, 31966, 31966]], "T": [187251, 2087, [114996, 115871, 116846, 128610, 144640, 177373, 183700, 184058, 184179, 185687, 186893, 187251]]}}, {"type": "Feature", "geometry": {"type": "Polygon", "coordinates": [[[-68.9431144639999, -22.448648217999903], [-68.94327816099991, -22.445783089999907], [-68.94683166399994, -22.44521760899994], [-68.94670268099992, -22.45009716699991], [-68.94546040299991, -22.45005834199992], [-68.9453626749999, -22.451431486999923], [-68.94054608999994, -22.45137142899995], [-68.94003279599991, -22.448847796999928], [-68.94140911399995, -22.44864760799993], [-68.9431144639999, -22.448648217999903]]]}, "properties": {"zona": "220111006", "comuna": "Calama", "H": [75180, 298, [72649, 72649, 73104, 73171, 73430, 73653, 73653, 73653, 74075, 74397, 75055, 75180]], "C": [0, 0, [0, 0, 0, 0, 0, 0, 0, 0, 0, 0, 0, 0]], "E": [456, 0, [0, 0, 456, 456, 456, 456, 456, 456, 456, 456, 456, 456]], "S": [0, 0, [0, 0, 0, 0, 0, 0, 0, 0, 0, 0, 0, 0]], "O": [0, 0, [0, 0, 0, 0, 0, 0, 0, 0, 0, 0, 0, 0]], "I": [0, 0, [0, 0, 0, 0, 0, 0, 0, 0, 0, 0, 0, 0]], "T": [75636, 298, [72649, 72649, 73560, 73627, 73886, 74109, 74109, 74109, 74531, 74853, 75511, 75636]]}}, {"type": "Feature", "geometry": {"type": "Polygon", "coordinates": [[[-68.93609269299992, -22.453108417999943], [-68.93495105799991, -22.447118376999924], [-68.94327816099991, -22.445783089999907], [-68.94310275099991, -22.44758219399995], [-68.9431144639999, -22.448648217999903], [-68.94140911399995, -22.44864760799993], [-68.94003279599991, -22.448847796999928], [-68.94054608999994, -22.45137142899995], [-68.94098004299991, -22.451335085999915], [-68.94063627899993, -22.45622238699991], [-68.93609858499991, -22.45615741499995], [-68.93609269299992, -22.453108417999943]]]}, "properties": {"zona": "220111002", "comuna": "Calama", "H": [107912, 636, [82799, 83223, 83717, 84179, 84566, 85365, 87981, 88220, 88577, 89590, 107804, 107912]], "C": [3042, 175, [2089, 2089, 2298, 2298, 2298, 2298, 2298, 2298, 2298, 2392, 2512, 3042]], "E": [4340, 46, [1809, 1809, 1809, 3321, 3321, 4066, 4340, 4340, 4340, 4340, 4340, 4340]], "S": [1083, 0, [1083, 1083, 1083, 1083, 1083, 1083, 1083, 1083, 1083, 1083, 1083, 1083]], "O": [0, 0, [0, 0, 0, 0, 0, 0, 0, 0, 0, 0, 0, 0]], "I": [0, 0, [0, 0, 0, 0, 0, 0, 0, 0, 0, 0, 0, 0]], "T": [116377, 857, [87780, 88204, 88907, 90881, 91268, 92812, 95702, 95941, 96298, 97405, 115739, 116377]]}}, {"type": "Feature", "geometry": {"type": "Polygon", "coordinates": [[[-68.91710951899995, -22.446766907999915], [-68.91706126999992, -22.446172755999953], [-68.91843512799994, -22.44638815199994], [-68.9195297789999, -22.446235121999905], [-68.9218685909999, -22.454448233999926], [-68.92125409699992, -22.454547309999953], [-68.91329418999993, -22.453332665999937], [-68.91434546799991, -22.44725506599991], [-68.91687751099994, -22.447742466999955], [-68.91710951899995, -22.446766907999915]]]}, "properties": {"zona": "220105002", "comuna": "Calama", "H": [84762, 149, [81780, 81865, 82557, 82647, 82668, 83473, 84156, 84156, 84533, 84762, 84762, 84762]], "C": [3720, 204, [2367, 2367, 2625, 2625, 2625, 2625, 2920, 2920, 3077, 3077, 3077, 3720]], "E": [1526, 45, [962, 1106, 1106, 1106, 1106, 1106, 1106, 1526, 1526, 1526, 1526, 1526]], "S": [526, 0, [526, 526, 526, 526, 526, 526, 526, 526, 526, 526, 526, 526]], "O": [25877, 153, [25094, 25094, 25094, 25094, 25213, 25213, 25213, 25213, 25213, 25402, 25402, 25877]], "I": [0, 0, [0, 0, 0, 0, 0, 0, 0, 0, 0, 0, 0, 0]], "T": [116411, 551, [110729, 110958, 111908, 111998, 112138, 112943, 113921, 114341, 114875, 115293, 115293, 116411]]}}, {"type": "Feature", "geometry": {"type": "Polygon", "coordinates": [[[-68.92993768999992, -22.45624068199993], [-68.92930364299991, -22.45596034899995], [-68.9293453759999, -22.453322422999918], [-68.92831383499993, -22.448190619999934], [-68.93495105799991, -22.447118376999924], [-68.93599195099995, -22.452241108999942], [-68.93610801299991, -22.45347882099992], [-68.93609858499991, -22.45615741499995], [-68.93371523899992, -22.456111283999917], [-68.93318789299991, -22.45626012899993], [-68.93044886199993, -22.45624993699994], [-68.92993768999992, -22.45624068199993]]]}, "properties": {"zona": "220111003", "comuna": "Calama", "H": [114007, 394, [106517, 106733, 107240, 107903, 110498, 111390, 112157, 112660, 112936, 113544, 113838, 114007]], "C": [27522, 545, [18698, 18698, 20274, 21674, 22315, 23874, 24897, 25609, 26319, 26867, 27522, 27522]], "E": [4258, 239, [2484, 2887, 2887, 2887, 2887, 3196, 3196, 3196, 3196, 3196, 4258, 4258]], "S": [4408, 945, [0, 0, 0, 0, 0, 0, 0, 0, 0, 0, 4408, 4408]], "O": [55, 0, [55, 55, 55, 55, 55, 55, 55, 55, 55, 55, 55, 55]], "I": [0, 0, [0, 0, 0, 0, 0, 0, 0, 0, 0, 0, 0, 0]], "T": [150250, 2123, [127754, 128373, 130456, 132519, 135755, 138515, 140305, 141520, 142506, 143662, 150081, 150250]]}}, {"type": "Feature", "geometry": {"type": "Polygon", "coordinates": [[[-68.92245302899994, -22.456508280999913], [-68.91993956899995, -22.447671741999955], [-68.92205449099993, -22.44734755099995], [-68.92226729999993, -22.448637508999923], [-68.9241635969999, -22.448375781999914], [-68.92741382999992, -22.44839348499994], [-68.9282584899999, -22.448326106999957], [-68.92831383499993, -22.448190619999934], [-68.9293453759999, -22.453322422999918], [-68.92930364299991, -22.45596034899995], [-68.92633875899992, -22.455733171999952], [-68.92514678799995, -22.455425464999905], [-68.92473248899995, -22.45882659399996], [-68.92271882999995, -22.45808484999992], [-68.92245302899994, -22.456508280999913]]]}, "properties": {"zona": "220110001", "comuna": "Calama", "H": [44496, 315, [42420, 42420, 42420, 42420, 42420, 42647, 42647, 43218, 43383, 43899, 44433, 44496]], "C": [263722, 741, [71632, 226344, 228594, 228713, 229463, 230156, 230295, 230715, 231107, 233360, 233443, 263722]], "E": [13323, 0, [10935, 13323, 13323, 13323, 13323, 13323, 13323, 13323, 13323, 13323, 13323, 13323]], "S": [999, 0, [775, 775, 775, 999, 999, 999, 999, 999, 999, 999, 999, 999]], "O": [10291, 0, [10291, 10291, 10291, 10291, 10291, 10291, 10291, 10291, 10291, 10291, 10291, 10291]], "I": [785, 52, [540, 540, 540, 540, 540, 540, 540, 540, 540, 540, 785, 785]], "T": [333616, 1108, [136593, 293693, 295943, 296286, 297036, 297956, 298095, 299086, 299643, 302412, 303274, 333616]]}}, {"type": "Feature", "geometry": {"type": "Polygon", "coordinates": [[[-68.9450315059999, -22.456345902999942], [-68.94063627899993, -22.45622238699991], [-68.94098004299991, -22.451335085999915], [-68.9453626749999, -22.451431486999923], [-68.9450315059999, -22.456345902999942]]]}, "properties": {"zona": "220111005", "comuna": "Calama", "H": [67585, 181, [62942, 62942, 63068, 63377, 65212, 65647, 66307, 66543, 67273, 67369, 67485, 67585]], "C": [709, 0, [512, 619, 619, 619, 709, 709, 709, 709, 709, 709, 709, 709]], "E": [0, 0, [0, 0, 0, 0, 0, 0, 0, 0, 0, 0, 0, 0]], "S": [0, 0, [0, 0, 0, 0, 0, 0, 0, 0, 0, 0, 0, 0]], "O": [0, 0, [0, 0, 0, 0, 0, 0, 0, 0, 0, 0, 0, 0]], "I": [0, 0, [0, 0, 0, 0, 0, 0, 0, 0, 0, 0, 0, 0]], "T": [68294, 181, [63454, 63561, 63687, 63996, 65921, 66356, 67016, 67252, 67982, 68078, 68194, 68294]]}}, {"type": "Feature", "geometry": {"type": "Polygon", "coordinates": [[[-68.90520595899994, -22.464872322999952], [-68.90417524199995, -22.464019761999907], [-68.90341617599995, -22.463661892999937], [-68.90351334199994, -22.46268067999995], [-68.90315009299991, -22.462215169999922], [-68.90259364099995, -22.46208486599994], [-68.9022092539999, -22.461857185999918], [-68.90181515299992, -22.46152682299993], [-68.90155813799993, -22.46113155799992], [-68.90150801899995, -22.460817000999953], [-68.90118390399994, -22.460395700999925], [-68.9009214539999, -22.459782082999936], [-68.90096719899992, -22.459254109999904], [-68.90057159299994, -22.45890015699996], [-68.9002847289999, -22.45787238999992], [-68.9003255959999, -22.457302210999956], [-68.8999836449999, -22.456855795999957], [-68.89995248899993, -22.456082288999937], [-68.90014433699992, -22.45540649499992], [-68.90079060099993, -22.45440724599996], [-68.90208953899992, -22.453244354999924], [-68.90245442699995, -22.45239088799991], [-68.90278798399993, -22.45197626299995], [-68.90564492699991, -22.45197778499994], [-68.90566937099993, -22.45265083499993], [-68.90541032399994, -22.453057215999934], [-68.90600451099994, -22.453351169999905], [-68.90789748899994, -22.45492870399994], [-68.90985082899994, -22.45575642299991], [-68.91484608099995, -22.45753432799995], [-68.91991439199995, -22.46083886799994], [-68.92005029099994, -22.461146093999957], [-68.92140683699995, -22.46161201399991], [-68.9214599739999, -22.46326075299993], [-68.9218020639999, -22.46421401099991], [-68.9219022449999, -22.464313433999905], [-68.9230027559999, -22.464250724999943], [-68.92293135299991, -22.465940057999944], [-68.92311778299995, -22.46662221699995], [-68.92315431999992, -22.467566291999958], [-68.92314467499995, -22.467981852999912], [-68.92296503799992, -22.467908747999957], [-68.92302764699991, -22.47967344999995], [-68.9227797339999, -22.479707403999953], [-68.92253455899993, -22.479596342999912], [-68.92133480399991, -22.478678114999923], [-68.92056047499995, -22.478250302999925], [-68.91801269599995, -22.47726609999995], [-68.91589060599995, -22.477040159999945], [-68.91538902299993, -22.47682772199994], [-68.9150788199999, -22.47639605899991], [-68.91462164799992, -22.47617486999991], [-68.91411204699995, -22.476501147999954], [-68.91347080799994, -22.476547593999953], [-68.91297548099993, -22.47640468599991], [-68.91228840499991, -22.475954618999936], [-68.91110328799994, -22.474699763999922], [-68.9105078419999, -22.474224394999908], [-68.91040534299992, -22.47377529399995], [-68.9091855559999, -22.47212789699995], [-68.90887101399994, -22.471426857999916], [-68.90882449499992, -22.469854847999954], [-68.90849506099994, -22.468950072999917], [-68.9076969809999, -22.468320564999942], [-68.90732042799993, -22.467841410999938], [-68.9067654879999, -22.46645626399993], [-68.90654054399994, -22.466162401999952], [-68.9057688979999, -22.465769443999932], [-68.90543982999992, -22.465398187999938], [-68.90520595899994, -22.464872322999952]]]}, "properties": {"zona": "220106002", "comuna": "Calama", "H": [73492, 1598, [40436, 50621, 56766, 59296, 63093, 63698, 64287, 66818, 68997, 70775, 72024, 73492]], "C": [7145, 501, [4410, 4410, 4410, 4410, 4410, 4410, 4410, 4743, 4743, 6137, 7145, 7145]], "E": [334, 0, [160, 334, 334, 334, 334, 334, 334, 334, 334, 334, 334, 334]], "S": [450, 23, [321, 321, 321, 321, 321, 321, 321, 321, 321, 450, 450, 450]], "O": [859, 0, [859, 859, 859, 859, 859, 859, 859, 859, 859, 859, 859, 859]], "I": [2941, 284, [1293, 1293, 1293, 1293, 1293, 1293, 1293, 1293, 2266, 2266, 2941, 2941]], "T": [85221, 2406, [47479, 57838, 63983, 66513, 70310, 70915, 71504, 74368, 77520, 80821, 83753, 85221]]}}, {"type": "Feature", "geometry": {"type": "Polygon", "coordinates": [[[-68.94521516499992, -22.453504753999937], [-68.95097043399994, -22.45367071499993], [-68.9539843039999, -22.454951369999947], [-68.95330942999993, -22.456462809999948], [-68.9450315059999, -22.456345902999942], [-68.94521516499992, -22.453504753999937]]]}, "properties": {"zona": "220111004", "comuna": "Calama", "H": [40490, 244, [37378, 37378, 37378, 37378, 38040, 38864, 39057, 39258, 39964, 40341, 40490, 40490]], "C": [397, 0, [197, 197, 197, 197, 397, 397, 397, 397, 397, 397, 397, 397]], "E": [632, 0, [632, 632, 632, 632, 632, 632, 632, 632, 632, 632, 632, 632]], "S": [0, 0, [0, 0, 0, 0, 0, 0, 0, 0, 0, 0, 0, 0]], "O": [0, 0, [0, 0, 0, 0, 0, 0, 0, 0, 0, 0, 0, 0]], "I": [0, 0, [0, 0, 0, 0, 0, 0, 0, 0, 0, 0, 0, 0]], "T": [41519, 244, [38207, 38207, 38207, 38207, 39069, 39893, 40086, 40287, 40993, 41370, 41519, 41519]]}}, {"type": "Feature", "geometry": {"type": "Polygon", "coordinates": [[[-68.92473248899995, -22.45882659399996], [-68.92514678799995, -22.455425464999905], [-68.92633875899992, -22.455733171999952], [-68.92930364299991, -22.45596034899995], [-68.92814451399994, -22.460865328999944], [-68.92804458599994, -22.46086076699993], [-68.92764657399994, -22.463417225999933], [-68.92752824999991, -22.465490485999908], [-68.92704085199995, -22.465259897999942], [-68.92655904199995, -22.46538163899993], [-68.92302681899992, -22.46467985399994], [-68.92271882999995, -22.45808484999992], [-68.92473248899995, -22.45882659399996]]]}, "properties": {"zona": "220110002", "comuna": "Calama", "H": [81382, 126, [65801, 65813, 71859, 77605, 78054, 78192, 80730, 80863, 81119, 81119, 81253, 81382]], "C": [131605, 2830, [98169, 100445, 103698, 106967, 110103, 115137, 118970, 120120, 123005, 126263, 128405, 131605]], "E": [26400, 2995, [3766, 3766, 3766, 3766, 10426, 10426, 15948, 15948, 16061, 16061, 16061, 26400]], "S": [1210, 159, [150, 150, 150, 150, 150, 150, 571, 790, 790, 790, 790, 1210]], "O": [29499, 268, [20616, 20616, 20970, 22433, 26928, 27057, 28227, 28227, 28557, 29095, 29095, 29499]], "I": [869, 0, [0, 0, 869, 869, 869, 869, 869, 869, 869, 869, 869, 869]], "T": [270965, 6378, [188502, 190790, 201312, 211790, 226530, 231831, 245315, 246817, 250401, 254197, 256473, 270965]]}}, {"type": "Feature", "geometry": {"type": "Polygon", "coordinates": [[[-68.92930364299991, -22.45596034899995], [-68.92993768999992, -22.45624068199993], [-68.93318789299991, -22.45626012899993], [-68.9337127789999, -22.456174520999923], [-68.93351004699991, -22.460046606999924], [-68.93072161999993, -22.459899811999946], [-68.93073701599991, -22.459479734999945], [-68.92862420499995, -22.458918702999938], [-68.92930364299991, -22.45596034899995]]]}, "properties": {"zona": "220109001", "comuna": "Calama", "H": [31511, 176, [29895, 29895, 29895, 30367, 30367, 30586, 30692, 30900, 30900, 31040, 31160, 31511]], "C": [2743, 82, [1655, 1708, 1708, 1932, 2167, 2167, 2167, 2167, 2743, 2743, 2743, 2743]], "E": [8158, 0, [8158, 8158, 8158, 8158, 8158, 8158, 8158, 8158, 8158, 8158, 8158, 8158]], "S": [6925, 0, [249, 249, 249, 6925, 6925, 6925, 6925, 6925, 6925, 6925, 6925, 6925]], "O": [5728, 0, [2758, 5728, 5728, 5728, 5728, 5728, 5728, 5728, 5728, 5728, 5728, 5728]], "I": [0, 0, [0, 0, 0, 0, 0, 0, 0, 0, 0, 0, 0, 0]], "T": [55065, 258, [42715, 45738, 45738, 53110, 53345, 53564, 53670, 53878, 54454, 54594, 54714, 55065]]}}, {"type": "Feature", "geometry": {"type": "Polygon", "coordinates": [[[-68.93353781399992, -22.45939508999993], [-68.93371523899992, -22.456111283999917], [-68.9414748609999, -22.456263345999957], [-68.94116601899992, -22.460459552999907], [-68.93877777799992, -22.460323153999923], [-68.93884821899991, -22.459690795999904], [-68.93353781399992, -22.45939508999993]]]}, "properties": {"zona": "220109004", "comuna": "Calama", "H": [65258, 340, [60736, 61354, 61354, 62456, 62626, 63063, 63778, 63872, 63968, 64706, 65258, 65258]], "C": [7502, 100, [6083, 6083, 6723, 6723, 6723, 6723, 7109, 7109, 7274, 7274, 7502, 7502]], "E": [325, 0, [325, 325, 325, 325, 325, 325, 325, 325, 325, 325, 325, 325]], "S": [1474, 0, [1474, 1474, 1474, 1474, 1474, 1474, 1474, 1474, 1474, 1474, 1474, 1474]], "O": [303, 0, [303, 303, 303, 303, 303, 303, 303, 303, 303, 303, 303, 303]], "I": [597, 0, [597, 597, 597, 597, 597, 597, 597, 597, 597, 597, 597, 597]], "T": [75459, 440, [69518, 70136, 70776, 71878, 72048, 72485, 73586, 73680, 73941, 74679, 75459, 75459]]}}, {"type": "Feature", "geometry": {"type": "Polygon", "coordinates": [[[-68.92814451399994, -22.460865328999944], [-68.92862420499995, -22.458918702999938], [-68.93073701599991, -22.459479734999945], [-68.93072161999993, -22.459899811999946], [-68.93351004699991, -22.460046606999924], [-68.93343867399994, -22.46219560499992], [-68.93247430399992, -22.462168101999907], [-68.93245839899993, -22.46282772199993], [-68.9277349489999, -22.462861670999928], [-68.92804458599994, -22.46086076699993], [-68.92814451399994, -22.460865328999944]]]}, "properties": {"zona": "220109002", "comuna": "Calama", "H": [39166, 290, [35422, 35422, 35422, 35422, 36335, 36833, 37387, 38245, 38924, 39166, 39166, 39166]], "C": [25636, 120, [22422, 22978, 23472, 23472, 23472, 23890, 24562, 24562, 25451, 25451, 25636, 25636]], "E": [8649, 626, [4267, 4267, 4267, 4267, 4267, 4267, 4267, 4267, 8649, 8649, 8649, 8649]], "S": [0, 0, [0, 0, 0, 0, 0, 0, 0, 0, 0, 0, 0, 0]], "O": [3089, 0, [3089, 3089, 3089, 3089, 3089, 3089, 3089, 3089, 3089, 3089, 3089, 3089]], "I": [0, 0, [0, 0, 0, 0, 0, 0, 0, 0, 0, 0, 0, 0]], "T": [76540, 1036, [65200, 65756, 66250, 66250, 67163, 68079, 69305, 70163, 76113, 76355, 76540, 76540]]}}, {"type": "Feature", "geometry": {"type": "Polygon", "coordinates": [[[-68.93343867399994, -22.46219560499992], [-68.93353781399992, -22.45939508999993], [-68.93884821899991, -22.459690795999904], [-68.93877777799992, -22.460323153999923], [-68.94463072199994, -22.460582738999904], [-68.94475887899995, -22.46063698699993], [-68.94472189999993, -22.46120611999993], [-68.94637725599995, -22.461287984999956], [-68.94839304699991, -22.46208421999995], [-68.9478734889999, -22.463068221999947], [-68.93245839899993, -22.46282772199993], [-68.93247430399992, -22.462168101999907], [-68.93343867399994, -22.46219560499992]]]}, "properties": {"zona": "220109003", "comuna": "Calama", "H": [79857, 295, [76475, 76946, 77186, 77448, 77861, 78345, 78522, 78522, 78983, 79202, 79318, 79857]], "C": [7650, 117, [5845, 6174, 6638, 6638, 6638, 7085, 7085, 7271, 7271, 7271, 7650, 7650]], "E": [5418, 0, [5418, 5418, 5418, 5418, 5418, 5418, 5418, 5418, 5418, 5418, 5418, 5418]], "S": [0, 0, [0, 0, 0, 0, 0, 0, 0, 0, 0, 0, 0, 0]], "O": [0, 0, [0, 0, 0, 0, 0, 0, 0, 0, 0, 0, 0, 0]], "I": [0, 0, [0, 0, 0, 0, 0, 0, 0, 0, 0, 0, 0, 0]], "T": [92925, 412, [87738, 88538, 89242, 89504, 89917, 90848, 91025, 91211, 91672, 91891, 92386, 92925]]}}, {"type": "Feature", "geometry": {"type": "Polygon", "coordinates": [[[-68.9277349489999, -22.462861670999928], [-68.93481434199992, -22.462810481999952], [-68.93625122199995, -22.469076167999958], [-68.93072943999994, -22.467389041999922], [-68.92952444699995, -22.466787755999917], [-68.92857229299995, -22.46597878999995], [-68.92752824999991, -22.465490485999908], [-68.9277349489999, -22.462861670999928]]]}, "properties": {"zona": "220108002", "comuna": "Calama", "H": [109042, 386, [85258, 85387, 91142, 105801, 106050, 106541, 107133, 107233, 108138, 108572, 108822, 109042]], "C": [11627, 179, [7746, 8006, 8338, 8418, 9652, 9848, 9848, 10350, 10565, 10804, 10804, 11627]], "E": [1749, 0, [432, 432, 1033, 1749, 1749, 1749, 1749, 1749, 1749, 1749, 1749, 1749]], "S": [2831, 0, [376, 376, 376, 376, 2831, 2831, 2831, 2831, 2831, 2831, 2831, 2831]], "O": [1353, 10, [1264, 1264, 1264, 1264, 1264, 1264, 1264, 1353, 1353, 1353, 1353, 1353]], "I": [0, 0, [0, 0, 0, 0, 0, 0, 0, 0, 0, 0, 0, 0]], "T": [126602, 575, [95076, 95465, 102153, 117608, 121546, 122233, 122825, 123516, 124636, 125309, 125559, 126602]]}}, {"type": "Feature", "geometry": {"type": "Polygon", "coordinates": [[[-68.94755400199995, -22.46364658999994], [-68.94839304699991, -22.46208421999995], [-68.95811016699992, -22.46589935399993], [-68.95676811399994, -22.468087770999944], [-68.95209374699994, -22.474903319999953], [-68.95253141699993, -22.475104870999928], [-68.95143627699991, -22.47670843599991], [-68.94874858299994, -22.475314131999937], [-68.94262172099991, -22.472482939999907], [-68.93957263099992, -22.470121863999907], [-68.9397904139999, -22.46988738999994], [-68.94055581899994, -22.46718136399994], [-68.94077253699993, -22.46722139499991], [-68.94206134199993, -22.463621794999938], [-68.94735557299992, -22.463786221999953], [-68.94755400199995, -22.46364658999994]]]}, "properties": {"zona": "220108003", "comuna": "Calama", "H": [47391, 790, [3292, 3292, 3292, 39584, 40753, 40753, 40827, 40953, 44667, 44806, 45163, 47391]], "C": [2754, 11, [2136, 2136, 2136, 2136, 2604, 2604, 2754, 2754, 2754, 2754, 2754, 2754]], "E": [0, 0, [0, 0, 0, 0, 0, 0, 0, 0, 0, 0, 0, 0]], "S": [0, 0, [0, 0, 0, 0, 0, 0, 0, 0, 0, 0, 0, 0]], "O": [1240, 0, [0, 0, 0, 0, 1240, 1240, 1240, 1240, 1240, 1240, 1240, 1240]], "I": [0, 0, [0, 0, 0, 0, 0, 0, 0, 0, 0, 0, 0, 0]], "T": [51385, 801, [5428, 5428, 5428, 41720, 44597, 44597, 44821, 44947, 48661, 48800, 49157, 51385]]}}, {"type": "Feature", "geometry": {"type": "Polygon", "coordinates": [[[-68.9229350409999, -22.46531219399992], [-68.92302681899992, -22.46467985399994], [-68.92655904199995, -22.46538163899993], [-68.92704085199995, -22.465259897999942], [-68.92857229299995, -22.46597878999995], [-68.9299817669999, -22.46704994299995], [-68.93077772799995, -22.46740713099996], [-68.9327181299999, -22.467995163999944], [-68.93186376699992, -22.470271383999943], [-68.92654023999995, -22.470508449999954], [-68.9282050409999, -22.47544178399994], [-68.92653276699991, -22.475463615999956], [-68.92647453799992, -22.475811781999937], [-68.9267390199999, -22.476633616999948], [-68.92514874699992, -22.47609536199991], [-68.92303201699991, -22.475708707999956], [-68.92296503799992, -22.467908747999957], [-68.92314467499995, -22.467981852999912], [-68.92315431999992, -22.467566291999958], [-68.9229350409999, -22.46531219399992]]]}, "properties": {"zona": "220107001", "comuna": "Calama", "H": [155562, 435, [127665, 128252, 141396, 151591, 152272, 152839, 153669, 154054, 154340, 154612, 154957, 155562]], "C": [26990, 1488, [14314, 15285, 15960, 17713, 18644, 18644, 20130, 21518, 21518, 23009, 23807, 26990]], "E": [19567, 687, [12333, 12333, 13306, 13628, 14758, 14758, 14758, 14758, 19567, 19567, 19567, 19567]], "S": [4358, 179, [259, 259, 259, 259, 3086, 3086, 3086, 3961, 3961, 3961, 4358, 4358]], "O": [9777, 172, [4869, 4869, 4869, 4869, 8298, 8485, 8485, 9017, 9777, 9777, 9777, 9777]], "I": [5647, 0, [5647, 5647, 5647, 5647, 5647, 5647, 5647, 5647, 5647, 5647, 5647, 5647]], "T": [221901, 2961, [165087, 166645, 181437, 193707, 202705, 203459, 205775, 208955, 214810, 216573, 218113, 221901]]}}, {"type": "Feature", "geometry": {"type": "Polygon", "coordinates": [[[-68.92654023999995, -22.470508449999954], [-68.93186376699992, -22.470271383999943], [-68.9327181299999, -22.467995163999944], [-68.9376139979999, -22.469492265999918], [-68.93683427999991, -22.472107317999928], [-68.93380294499991, -22.472250646999953], [-68.93388063799995, -22.474319472999923], [-68.92788110899994, -22.474484031999907], [-68.92654023999995, -22.470508449999954]]]}, "properties": {"zona": "220107002", "comuna": "Calama", "H": [77608, 494, [72796, 72868, 73320, 74039, 74381, 74635, 75290, 75662, 75958, 76452, 77033, 77608]], "C": [32157, 2987, [14001, 14276, 14722, 15235, 15535, 15535, 15535, 15535, 15535, 31625, 32157, 32157]], "E": [4623, 0, [925, 925, 925, 4623, 4623, 4623, 4623, 4623, 4623, 4623, 4623, 4623]], "S": [0, 0, [0, 0, 0, 0, 0, 0, 0, 0, 0, 0, 0, 0]], "O": [0, 0, [0, 0, 0, 0, 0, 0, 0, 0, 0, 0, 0, 0]], "I": [0, 0, [0, 0, 0, 0, 0, 0, 0, 0, 0, 0, 0, 0]], "T": [114388, 3481, [87722, 88069, 88967, 93897, 94539, 94793, 95448, 95820, 96116, 112700, 113813, 114388]]}}, {"type": "Feature", "geometry": {"type": "Polygon", "coordinates": [[[-68.93473220299995, -22.477996671999904], [-68.93657635799991, -22.472161420999953], [-68.93694308399995, -22.471980883999947], [-68.9376139979999, -22.469492265999918], [-68.93957263099992, -22.470121863999907], [-68.94262172099991, -22.472482939999907], [-68.94874858299994, -22.475314131999937], [-68.9509990599999, -22.476514410999926], [-68.94665113699995, -22.481677757999933], [-68.94515872099993, -22.480222365999907], [-68.9426652759999, -22.478182929999946], [-68.9420289439999, -22.481325581999954], [-68.94023332799992, -22.48137296099992], [-68.93899124899991, -22.481610906999947], [-68.93745465799992, -22.481212496999945], [-68.93713638199995, -22.48206465699991], [-68.93727011199991, -22.483020220999947], [-68.93825435899993, -22.482957034999913], [-68.93891899899995, -22.483872522999945], [-68.93897678499991, -22.484027468999955], [-68.9378655189999, -22.484017905999906], [-68.93909845499991, -22.48586662799994], [-68.94194269899992, -22.486640277999925], [-68.9441639449999, -22.487544724999907], [-68.94454789999992, -22.487510038999915], [-68.94540793499993, -22.487697750999928], [-68.94613007499993, -22.487514421999947], [-68.94618627599993, -22.487822353999945], [-68.94564649199992, -22.48891164799994], [-68.94540334599992, -22.489774816999955], [-68.94401757499992, -22.489287616999945], [-68.94296240199992, -22.491340107999918], [-68.94216927799994, -22.491166604999933], [-68.93880580099994, -22.48972207399993], [-68.93796979099994, -22.489801024999906], [-68.9378376169999, -22.489697922999937], [-68.93718504799995, -22.489693706999958], [-68.93644096199995, -22.48932645499991], [-68.93581545799992, -22.48869308499991], [-68.93571377199993, -22.488302710999903], [-68.93610918699994, -22.487860333999947], [-68.93674092399993, -22.487571500999934], [-68.9368252559999, -22.487319946999946], [-68.93670291899991, -22.487093212999923], [-68.93548039799992, -22.486847593999926], [-68.93523514599991, -22.486598268999956], [-68.93517251799994, -22.486295988999927], [-68.9345621949999, -22.485781378999945], [-68.9330419069999, -22.48532464899995], [-68.93216431799993, -22.48530146999991], [-68.9316877949999, -22.485050329999922], [-68.9313299769999, -22.48469088099995], [-68.93047505999994, -22.48433311699995], [-68.92977778799991, -22.48373208299995], [-68.92909084999991, -22.48347792699991], [-68.9299248449999, -22.482385193999903], [-68.93005386699991, -22.481350853999913], [-68.9299400459999, -22.480551292999905], [-68.92876515799992, -22.47709446199991], [-68.9299090639999, -22.47709909999992], [-68.9300393609999, -22.476689911999927], [-68.93473220299995, -22.477996671999904]]]}, "properties": {"zona": "220107004", "comuna": "Calama", "H": [163608, 1666, [115171, 125136, 135966, 138798, 148290, 149005, 149680, 154426, 155740, 157316, 162578, 163608]], "C": [10830, 266, [8138, 8349, 8524, 8524, 8692, 9052, 9635, 10055, 10055, 10055, 10830, 10830]], "E": [5062, 628, [665, 665, 665, 665, 665, 665, 665, 665, 5062, 5062, 5062, 5062]], "S": [379, 0, [379, 379, 379, 379, 379, 379, 379, 379, 379, 379, 379, 379]], "O": [352, 41, [0, 0, 160, 160, 160, 160, 160, 160, 160, 160, 352, 352]], "I": [0, 0, [0, 0, 0, 0, 0, 0, 0, 0, 0, 0, 0, 0]], "T": [180231, 2601, [124353, 134529, 145694, 148526, 158186, 159261, 160519, 165685, 171396, 172972, 179201, 180231]]}}, {"type": "Feature", "geometry": {"type": "Polygon", "coordinates": [[[-68.92788110899994, -22.474484031999907], [-68.93388063799995, -22.474319472999923], [-68.93380294499991, -22.472250646999953], [-68.93657635799991, -22.472161420999953], [-68.93473220299995, -22.477996671999904], [-68.9300393609999, -22.476689911999927], [-68.9299090639999, -22.47709909999992], [-68.92876515799992, -22.47709446199991], [-68.92788110899994, -22.474484031999907]]]}, "properties": {"zona": "220107003", "comuna": "Calama", "H": [79991, 99, [78611, 78611, 78762, 78762, 78966, 78966, 79088, 79295, 79622, 79622, 79991, 79991]], "C": [604, 36, [404, 404, 404, 404, 404, 404, 404, 404, 404, 604, 604, 604]], "E": [3750, 0, [3750, 3750, 3750, 3750, 3750, 3750, 3750, 3750, 3750, 3750, 3750, 3750]], "S": [0, 0, [0, 0, 0, 0, 0, 0, 0, 0, 0, 0, 0, 0]], "O": [287, 0, [287, 287, 287, 287, 287, 287, 287, 287, 287, 287, 287, 287]], "I": [0, 0, [0, 0, 0, 0, 0, 0, 0, 0, 0, 0, 0, 0]], "T": [84632, 135, [83052, 83052, 83203, 83203, 83407, 83407, 83529, 83736, 84063, 84263, 84632, 84632]]}}, {"type": "Feature", "geometry": {"type": "Polygon", "coordinates": [[[-68.9267390199999, -22.476633616999948], [-68.92647453799992, -22.475811781999937], [-68.92653276699991, -22.475463615999956], [-68.9282050409999, -22.47544178399994], [-68.9299400459999, -22.480551292999905], [-68.93005386699991, -22.481350853999913], [-68.9299248449999, -22.482385193999903], [-68.92909084999991, -22.48347792699991], [-68.92882479299993, -22.482954202999906], [-68.92921118799995, -22.48200232399995], [-68.9291791039999, -22.481399431999932], [-68.9288916349999, -22.48073106499993], [-68.92817093699995, -22.480318793999913], [-68.92792676599993, -22.480045195999935], [-68.92700969399993, -22.47991662399994], [-68.9264167629999, -22.479633463999903], [-68.92451759599993, -22.479861311999912], [-68.92302764699991, -22.47967344999995], [-68.92303201699991, -22.475708707999956], [-68.92514874699992, -22.47609536199991], [-68.9267390199999, -22.476633616999948]]]}, "properties": {"zona": "220107005", "comuna": "Calama", "H": [57494, 173, [54571, 55199, 55199, 55382, 55607, 56457, 56627, 56695, 56695, 57374, 57494, 57494]], "C": [1009, 26, [267, 267, 267, 267, 267, 1009, 1009, 1009, 1009, 1009, 1009, 1009]], "E": [439, 31, [0, 0, 0, 0, 0, 0, 439, 439, 439, 439, 439, 439]], "S": [0, 0, [0, 0, 0, 0, 0, 0, 0, 0, 0, 0, 0, 0]], "O": [129, 9, [0, 0, 0, 0, 0, 0, 129, 129, 129, 129, 129, 129]], "I": [0, 0, [0, 0, 0, 0, 0, 0, 0, 0, 0, 0, 0, 0]], "T": [59071, 239, [54838, 55466, 55466, 55649, 55874, 57466, 58204, 58272, 58272, 58951, 59071, 59071]]}}, {"type": "Feature", "geometry": {"type": "Polygon", "coordinates": [[[-68.91281315399993, -22.480106538999905], [-68.91534746499991, -22.476766763999933], [-68.91589060599995, -22.477040159999945], [-68.91801269599995, -22.47726609999995], [-68.92056047499995, -22.478250302999925], [-68.9227797339999, -22.479707403999953], [-68.92337017799991, -22.479664684999932], [-68.92451759599993, -22.479861311999912], [-68.9264167629999, -22.479633463999903], [-68.92700969399993, -22.47991662399994], [-68.92792676599993, -22.480045195999935], [-68.92817093699995, -22.480318793999913], [-68.9288916349999, -22.48073106499993], [-68.9291791039999, -22.481399431999932], [-68.92921118799995, -22.48200232399995], [-68.92882479299993, -22.482954202999906], [-68.92909032999995, -22.483477525999945], [-68.92977778799991, -22.48373208299995], [-68.93047505999994, -22.48433311699995], [-68.9313299769999, -22.48469088099995], [-68.9316877949999, -22.485050329999922], [-68.93216431799993, -22.48530146999991], [-68.9330419069999, -22.48532464899995], [-68.9345621949999, -22.485781378999945], [-68.93517251799994, -22.486295988999927], [-68.93523514599991, -22.486598268999956], [-68.93548039799992, -22.486847593999926], [-68.93670291899991, -22.487093212999923], [-68.9368252559999, -22.487319946999946], [-68.93674092399993, -22.487571500999934], [-68.9361340239999, -22.487843252999937], [-68.93574260699995, -22.488219400999924], [-68.93577707199995, -22.488638589999937], [-68.93615884499991, -22.489101018999918], [-68.93564031299991, -22.489309445999936], [-68.93543410399991, -22.49026314999992], [-68.93492916899993, -22.49128957599993], [-68.93472808799993, -22.491974883999944], [-68.93432391899995, -22.492189496999913], [-68.93411333199992, -22.492908334999925], [-68.93361999799993, -22.493764997999904], [-68.9339530869999, -22.494931133999955], [-68.92695424099992, -22.49072020299991], [-68.92663241199995, -22.490668054999958], [-68.9252753689999, -22.489845965999905], [-68.92515129199995, -22.490046607999943], [-68.92493134099993, -22.49002340699991], [-68.92482159499991, -22.48986564799992], [-68.92483587299995, -22.489984620999905], [-68.9253134409999, -22.49152171499992], [-68.92613938999995, -22.49494407499992], [-68.92199828899993, -22.495700463999924], [-68.91946062199992, -22.493039275999934], [-68.91873874099991, -22.492102505999924], [-68.91830483299992, -22.492271374999916], [-68.91795081599992, -22.491698027999917], [-68.91388383799995, -22.487417396999945], [-68.90918659699992, -22.48281353999994], [-68.90734184599995, -22.481144095999923], [-68.90825296899993, -22.480512537999914], [-68.90897479799992, -22.48033262599995], [-68.91143763299993, -22.480411197999956], [-68.91167554599991, -22.479372414999943], [-68.91281315399993, -22.480106538999905]]]}, "properties": {"zona": "220114002", "comuna": "Calama", "H": [128586, 1040, [116544, 117457, 118245, 119032, 119693, 120503, 121768, 121899, 125238, 125788, 126890, 128586]], "C": [3532, 38, [3266, 3266, 3266, 3266, 3266, 3266, 3266, 3266, 3532, 3532, 3532, 3532]], "E": [291, 42, [0, 0, 0, 0, 0, 0, 0, 0, 291, 291, 291, 291]], "S": [0, 0, [0, 0, 0, 0, 0, 0, 0, 0, 0, 0, 0, 0]], "O": [357, 86, [0, 0, 0, 0, 0, 0, 0, 0, 0, 0, 100, 357]], "I": [12094, 983, [6858, 6858, 6858, 6858, 6858, 6858, 6858, 6858, 7855, 9741, 12094, 12094]], "T": [144860, 2189, [126668, 127581, 128369, 129156, 129817, 130627, 131892, 132023, 136916, 139352, 142907, 144860]]}}, {"type": "Feature", "geometry": {"type": "Polygon", "coordinates": [[[-68.9414748609999, -22.456263345999957], [-68.94885058099993, -22.45642394899994], [-68.95132330799993, -22.456381137999927], [-68.95033854899992, -22.458125410999912], [-68.94839304699991, -22.46208421999995], [-68.94637725599995, -22.461287984999956], [-68.94472189999993, -22.46120611999993], [-68.94475887899995, -22.46063698699993], [-68.94463072199994, -22.460582738999904], [-68.94116601899992, -22.460459552999907], [-68.9414748609999, -22.456263345999957]]]}, "properties": {"zona": "220109005", "comuna": "Calama", "H": [94982, 271, [72652, 73161, 73213, 73423, 73953, 74135, 74273, 74877, 75197, 75481, 94841, 94982]], "C": [2326, 83, [1546, 1546, 1546, 1546, 1546, 1826, 1826, 1826, 2305, 2305, 2326, 2326]], "E": [0, 0, [0, 0, 0, 0, 0, 0, 0, 0, 0, 0, 0, 0]], "S": [193, 0, [193, 193, 193, 193, 193, 193, 193, 193, 193, 193, 193, 193]], "O": [0, 0, [0, 0, 0, 0, 0, 0, 0, 0, 0, 0, 0, 0]], "I": [465, 17, [0, 0, 0, 0, 0, 465, 465, 465, 465, 465, 465, 465]], "T": [97966, 371, [74391, 74900, 74952, 75162, 75692, 76619, 76757, 77361, 78160, 78444, 97825, 97966]]}}, {"type": "Feature", "geometry": {"type": "Polygon", "coordinates": [[[-68.93481434199992, -22.462810481999952], [-68.94341538899994, -22.463003442999934], [-68.9478734889999, -22.463068221999947], [-68.94747662799995, -22.463786255999935], [-68.94206134199993, -22.463621794999938], [-68.94077253699993, -22.46722139499991], [-68.94055581899994, -22.46718136399994], [-68.9397904139999, -22.46988738999994], [-68.93957263099992, -22.470121863999907], [-68.93625122199995, -22.469076167999958], [-68.93481434199992, -22.462810481999952]]]}, "properties": {"zona": "220108001", "comuna": "Calama", "H": [103809, 430, [98543, 98831, 99263, 99346, 99644, 100326, 100685, 101013, 101985, 102372, 103629, 103809]], "C": [3880, 67, [3192, 3192, 3421, 3421, 3421, 3421, 3421, 3637, 3637, 3880, 3880, 3880]], "E": [4425, 461, [322, 322, 1195, 1195, 1195, 1195, 1195, 1195, 4425, 4425, 4425, 4425]], "S": [0, 0, [0, 0, 0, 0, 0, 0, 0, 0, 0, 0, 0, 0]], "O": [191, 0, [191, 191, 191, 191, 191, 191, 191, 191, 191, 191, 191, 191]], "I": [0, 0, [0, 0, 0, 0, 0, 0, 0, 0, 0, 0, 0, 0]], "T": [112305, 958, [102248, 102536, 104070, 104153, 104451, 105133, 105492, 106036, 110238, 110868, 112125, 112305]]}}, {"type": "Feature", "geometry": {"type": "Polygon", "coordinates": [[[-68.90789748899994, -22.45492870399994], [-68.90600451099994, -22.453351169999905], [-68.90541032399994, -22.453057215999934], [-68.90566937099993, -22.45265083499993], [-68.90564492699991, -22.45197778499994], [-68.91095597999993, -22.453087472999925], [-68.91312138899991, -22.453305470999908], [-68.92125409699992, -22.454547309999953], [-68.9218685909999, -22.454448233999926], [-68.92269048999992, -22.457705406999935], [-68.9230027559999, -22.464250724999943], [-68.9219022449999, -22.464313433999905], [-68.9218020639999, -22.46421401099991], [-68.9214599739999, -22.46326075299993], [-68.92140683699995, -22.46161201399991], [-68.92005029099994, -22.461146093999957], [-68.91991439199995, -22.46083886799994], [-68.91612606799993, -22.458447436999904], [-68.9152323049999, -22.457737796999936], [-68.90885880699994, -22.455358366999917], [-68.90789748899994, -22.45492870399994]]]}, "properties": {"zona": "220106001", "comuna": "Calama", "H": [120181, 670, [110767, 113831, 114534, 114660, 115104, 116252, 117532, 117615, 117615, 118705, 119686, 120181]], "C": [5289, 581, [1899, 2160, 2160, 2260, 2399, 2399, 2399, 2626, 3646, 3646, 3646, 5289]], "E": [16736, 0, [16736, 16736, 16736, 16736, 16736, 16736, 16736, 16736, 16736, 16736, 16736, 16736]], "S": [34570, 275, [32883, 32883, 32883, 32883, 32900, 32900, 33294, 33294, 33294, 34303, 34303, 34570]], "O": [1279, 24, [785, 785, 785, 785, 931, 1119, 1119, 1279, 1279, 1279, 1279, 1279]], "I": [0, 0, [0, 0, 0, 0, 0, 0, 0, 0, 0, 0, 0, 0]], "T": [178055, 1550, [163070, 166395, 167098, 167324, 168070, 169406, 171080, 171550, 172570, 174669, 175650, 178055]]}}, {"type": "Feature", "geometry": {"type": "Polygon", "coordinates": [[[-68.95219285299993, -22.45151485899993], [-68.95233220499995, -22.451378693999914], [-68.95238385599993, -22.45143373199994], [-68.95311245899995, -22.452686737999954], [-68.95307921599994, -22.454566778999947], [-68.95097043399994, -22.45367071499993], [-68.9452288409999, -22.45348217399993], [-68.9453626749999, -22.451431486999923], [-68.95013830999994, -22.45157306099992], [-68.95219285299993, -22.45151485899993]]]}, "properties": {"zona": "220111007", "comuna": "Calama", "H": [57717, 292, [35582, 35687, 55204, 55610, 55934, 55934, 56257, 56257, 56909, 57143, 57416, 57717]], "C": [77, 0, [77, 77, 77, 77, 77, 77, 77, 77, 77, 77, 77, 77]], "E": [0, 0, [0, 0, 0, 0, 0, 0, 0, 0, 0, 0, 0, 0]], "S": [0, 0, [0, 0, 0, 0, 0, 0, 0, 0, 0, 0, 0, 0]], "O": [0, 0, [0, 0, 0, 0, 0, 0, 0, 0, 0, 0, 0, 0]], "I": [0, 0, [0, 0, 0, 0, 0, 0, 0, 0, 0, 0, 0, 0]], "T": [57794, 292, [35659, 35764, 55281, 55687, 56011, 56011, 56334, 56334, 56986, 57220, 57493, 57794]]}}, {"type": "Feature", "geometry": {"type": "Polygon", "coordinates": [[[-68.94683166399994, -22.44521760899994], [-68.9510902159999, -22.450117459999944], [-68.95233220499995, -22.451378693999914], [-68.95212302899995, -22.451583085999914], [-68.9453626749999, -22.451431486999923], [-68.94546040299991, -22.45005834199992], [-68.94670268099992, -22.45009716699991], [-68.94683166399994, -22.44521760899994]]]}, "properties": {"zona": "220111001", "comuna": "Calama", "H": [70373, 331, [57038, 57038, 61715, 62078, 62314, 62803, 63025, 63145, 63514, 69647, 69885, 70373]], "C": [495, 35, [0, 0, 0, 0, 0, 0, 495, 495, 495, 495, 495, 495]], "E": [0, 0, [0, 0, 0, 0, 0, 0, 0, 0, 0, 0, 0, 0]], "S": [0, 0, [0, 0, 0, 0, 0, 0, 0, 0, 0, 0, 0, 0]], "O": [0, 0, [0, 0, 0, 0, 0, 0, 0, 0, 0, 0, 0, 0]], "I": [0, 0, [0, 0, 0, 0, 0, 0, 0, 0, 0, 0, 0, 0]], "T": [70868, 366, [57038, 57038, 61715, 62078, 62314, 62803, 63520, 63640, 64009, 70142, 70380, 70868]]}}, {"type": "Feature", "geometry": {"type": "Polygon", "coordinates": [[[-68.95033854899992, -22.458125410999912], [-68.95139650099992, -22.45637810699992], [-68.95498781399994, -22.45645014799993], [-68.95568452899994, -22.456640659999948], [-68.95659405499993, -22.45768883599993], [-68.95851379599992, -22.458642993999945], [-68.95855246299993, -22.45884524899992], [-68.95839805799994, -22.459279039999956], [-68.96113097699993, -22.46037798699996], [-68.96119847299991, -22.460495347999938], [-68.96104067999994, -22.461377760999937], [-68.95811016699992, -22.46589935399993], [-68.94839304699991, -22.46208421999995], [-68.95033854899992, -22.458125410999912]]]}, "properties": {"zona": "220108004", "comuna": "Calama", "H": [35179, 55, [383, 383, 383, 383, 383, 583, 583, 583, 638, 638, 35067, 35179]], "C": [1133, 219, [0, 0, 0, 0, 0, 0, 0, 0, 0, 669, 1133, 1133]], "E": [0, 0, [0, 0, 0, 0, 0, 0, 0, 0, 0, 0, 0, 0]], "S": [0, 0, [0, 0, 0, 0, 0, 0, 0, 0, 0, 0, 0, 0]], "O": [0, 0, [0, 0, 0, 0, 0, 0, 0, 0, 0, 0, 0, 0]], "I": [0, 0, [0, 0, 0, 0, 0, 0, 0, 0, 0, 0, 0, 0]], "T": [36312, 274, [383, 383, 383, 383, 383, 583, 583, 583, 638, 1307, 36200, 36312]]}}, {"type": "Feature", "geometry": {"type": "Polygon", "coordinates": [[[-68.96812859899995, -22.47005136899992], [-68.97082773999995, -22.466134767999904], [-68.97657581599992, -22.469425301999934], [-68.97867226999995, -22.470196718999944], [-68.97806248099994, -22.472070969999947], [-68.97751617199992, -22.47190239899993], [-68.9775732029999, -22.471664312999906], [-68.97678561899994, -22.471929126999953], [-68.9763033609999, -22.471931123999923], [-68.97532553199994, -22.47112233899992], [-68.9725744779999, -22.469577413999957], [-68.97136162899994, -22.47144429599996], [-68.97165359399992, -22.47155080999994], [-68.9701395379999, -22.47403213499996], [-68.9707298319999, -22.47443003399991], [-68.97071751699991, -22.474511837999955], [-68.97010631699993, -22.475425641999948], [-68.96974119799995, -22.475237036999943], [-68.96953116899994, -22.475558587999956], [-68.96259431299995, -22.47142158899993], [-68.96318366699995, -22.470623150999927], [-68.96654711499991, -22.47254515599991], [-68.96709591299992, -22.471728492999944], [-68.96094143699992, -22.46721430799994], [-68.96151439399995, -22.466447243999937], [-68.96663411499992, -22.469377465999912], [-68.96812859899995, -22.47005136899992]]]}, "properties": {"zona": "220108005", "comuna": "Calama", "H": [340, 43, [40, 40, 40, 40, 40, 40, 40, 40, 340, 340, 340, 340]], "C": [0, 0, [0, 0, 0, 0, 0, 0, 0, 0, 0, 0, 0, 0]], "E": [0, 0, [0, 0, 0, 0, 0, 0, 0, 0, 0, 0, 0, 0]], "S": [0, 0, [0, 0, 0, 0, 0, 0, 0, 0, 0, 0, 0, 0]], "O": [0, 0, [0, 0, 0, 0, 0, 0, 0, 0, 0, 0, 0, 0]], "I": [24, 4, [0, 0, 0, 0, 0, 0, 0, 0, 0, 24, 24, 24]], "T": [364, 47, [40, 40, 40, 40, 40, 40, 40, 40, 340, 364, 364, 364]]}}, {"type": "Feature", "geometry": {"type": "Polygon", "coordinates": [[[-68.94665113699995, -22.481677757999933], [-68.94961111399994, -22.478176143999917], [-68.95238528399994, -22.47921620099993], [-68.95209159099994, -22.48131794099993], [-68.94910830499992, -22.480239097999913], [-68.94885092899995, -22.48088621499994], [-68.94804748799993, -22.48057065599994], [-68.94750779599991, -22.481672377999928], [-68.94740967599995, -22.482340806999957], [-68.94697178599995, -22.481835402999934], [-68.94665113699995, -22.481677757999933]]]}, "properties": {"zona": "220108006", "comuna": "Calama", "H": [1600, 193, [403, 403, 403, 403, 403, 403, 683, 683, 1019, 1019, 1600, 1600]], "C": [0, 0, [0, 0, 0, 0, 0, 0, 0, 0, 0, 0, 0, 0]], "E": [0, 0, [0, 0, 0, 0, 0, 0, 0, 0, 0, 0, 0, 0]], "S": [0, 0, [0, 0, 0, 0, 0, 0, 0, 0, 0, 0, 0, 0]], "O": [0, 0, [0, 0, 0, 0, 0, 0, 0, 0, 0, 0, 0, 0]], "I": [0, 0, [0, 0, 0, 0, 0, 0, 0, 0, 0, 0, 0, 0]], "T": [1600, 193, [403, 403, 403, 403, 403, 403, 683, 683, 1019, 1019, 1600, 1600]]}}]}