{"type": "FeatureCollection", "features": [{"type": "Feature", "properties": {"zona": "1220101001", "zona_censal": "1220101001", "comuna": "Cabo De Hornos", "pob": 1608, "hog": 561, "viv": 648, "area_ha": 70.8, "dens_hab_ha": 23.0, "pct_depto": 0.0, "pct_casa": 100.0, "per_hog": 2.8, "pct_60mas": 8.1, "pct_inmig": 2.5, "escol": 13.8, "pct_hacin": 5.1, "pct_arriendo": 33.5, "m2_tot": 45995.0, "m2pp_tot": 28.6, "m2pp_hab": 15.33, "m2pp_comercio": 0.07, "m2pp_educacion": 1.56, "m2pp_salud": 0.0, "m2pp_oficina": 0.14, "m2pp_industria": 0.03, "m2pp_deporte": 0.0, "valor_suelo": null, "densif_m2": 20137, "expan_m2": 300, "pct_densif_z": 98.5, "nse_score": 79.0, "nse_nivel": 4, "mv_tpub": 0.6, "mv_auto": 48.0, "mv_camina": 45.7, "mv_bici": 2.0, "mv_n": 809, "pob17": 1028, "pob24i": 1004, "pob24t": 1608, "dpob": -24, "vpct": -2.3}, "geometry": {"type": "Polygon", "coordinates": [[[-67.59645887999994, -54.932529581999916], [-67.59874880799993, -54.9327047189999], [-67.59930342799993, -54.93286083899994], [-67.59926750999995, -54.93297876999992], [-67.5993825349999, -54.93308354399994], [-67.59992727799994, -54.93331235499994], [-67.60046313299995, -54.93326370999995], [-67.60165382499991, -54.93290493099994], [-67.60194483099991, -54.93278428499991], [-67.60194829099993, -54.93259310399992], [-67.60219206699992, -54.93253675699992], [-67.60258043699992, -54.93273155399993], [-67.60431229399995, -54.93264001299991], [-67.6088415399999, -54.93333236299992], [-67.61255339399992, -54.93364475099992], [-67.61380858699994, -54.93393319499995], [-67.61515899099993, -54.934587826999916], [-67.61719932299991, -54.934549552999954], [-67.61784394199992, -54.93504925199994], [-67.61757477299994, -54.93531751799992], [-67.61770765999995, -54.935533508999924], [-67.61866532399995, -54.935937689999946], [-67.61971614099991, -54.9365649099999], [-67.61839587199995, -54.9376798049999], [-67.61709996099995, -54.93732816599993], [-67.6147578099999, -54.93705845799991], [-67.61468691999994, -54.93718988699993], [-67.61360755899995, -54.93705535599992], [-67.61323878799993, -54.9371070279999], [-67.61323970099994, -54.93726835099994], [-67.61303223899995, -54.93741198799995], [-67.61199311599995, -54.93752382799994], [-67.6098934819999, -54.937523590999945], [-67.60831299999995, -54.93726976399995], [-67.60660621399995, -54.93780446199992], [-67.6051171279999, -54.93793281399991], [-67.60498886799991, -54.93830082599993], [-67.60280340999992, -54.93856141799995], [-67.60241348999995, -54.938211148999926], [-67.60153243399992, -54.93779536699992], [-67.60028815099992, -54.93777430099993], [-67.59884721399993, -54.93727596399992], [-67.5962601789999, -54.936955439999906], [-67.59618029099994, -54.93674218199993], [-67.59624316799994, -54.93561708699991], [-67.59639519299992, -54.93458889899995], [-67.59282216299994, -54.933843795999906], [-67.59272475499995, -54.93290791299995], [-67.59447731099993, -54.932589735999954], [-67.59645887999994, -54.932529581999916]]]}}]}